{"type":"FeatureCollection","features":[{"type":"Feature","geometry":{"type":"Point","coordinates":[20.539002,53.79581]},"properties":{"name":"Track","band":0,"modes":"bus","arr":["101"],"off":[0,-0.8]}},{"type":"Feature","geometry":{"type":"Point","coordinates":[20.539002,53.79581]},"properties":{"line":"101","mode":"bus","color":"#0059a9","colorDark":"#00294f","band":0,"off":[0,1.1]}},{"type":"Feature","geometry":{"type":"Point","coordinates":[20.546192,53.803879]},"properties":{"name":"Indykpol","band":0,"modes":"bus","arr":["131","132"],"off":[0,-0.8]}},{"type":"Feature","geometry":{"type":"Point","coordinates":[20.546192,53.803879]},"properties":{"line":"131","mode":"bus","color":"#0059a9","colorDark":"#00294f","band":0,"off":[-1.7,1.1]}},{"type":"Feature","geometry":{"type":"Point","coordinates":[20.546192,53.803879]},"properties":{"line":"132","mode":"bus","color":"#0059a9","colorDark":"#00294f","band":0,"off":[1.7,1.1]}},{"type":"Feature","geometry":{"type":"Point","coordinates":[20.509637,53.790792]},"properties":{"name":"Poprzeczna","band":0,"modes":"bus","arr":["119"],"off":[0,-0.8]}},{"type":"Feature","geometry":{"type":"Point","coordinates":[20.509637,53.790792]},"properties":{"line":"119","mode":"bus","color":"#0059a9","colorDark":"#00294f","band":0,"off":[0,1.1]}},{"type":"Feature","geometry":{"type":"Point","coordinates":[20.478663,53.777191]},"properties":{"name":"Wysoka Brama","band":0,"modes":"tram,bus","arr":["1","5","135"],"off":[0,-0.8]}},{"type":"Feature","geometry":{"type":"Point","coordinates":[20.478663,53.777191]},"properties":{"line":"1","mode":"tram","color":"#d6212b","colorDark":"#7c1116","band":0,"off":[-3.4,1.1]}},{"type":"Feature","geometry":{"type":"Point","coordinates":[20.478663,53.777191]},"properties":{"line":"5","mode":"tram","color":"#d6212b","colorDark":"#7c1116","band":0,"off":[0,1.1]}},{"type":"Feature","geometry":{"type":"Point","coordinates":[20.478663,53.777191]},"properties":{"line":"135","mode":"bus","color":"#0059a9","colorDark":"#00294f","band":0,"off":[3.4,1.1]}},{"type":"Feature","geometry":{"type":"Point","coordinates":[20.475182,53.773513]},"properties":{"name":"Plac Roosevelta","band":0,"modes":"bus","arr":["145"],"off":[0,-0.8]}},{"type":"Feature","geometry":{"type":"Point","coordinates":[20.475182,53.773513]},"properties":{"line":"145","mode":"bus","color":"#0059a9","colorDark":"#00294f","band":0,"off":[0,1.1]}},{"type":"Feature","geometry":{"type":"Point","coordinates":[20.439514,53.80968]},"properties":{"name":"Redykajny","band":0,"modes":"bus","arr":["101","127"],"off":[0,-0.8]}},{"type":"Feature","geometry":{"type":"Point","coordinates":[20.439514,53.80968]},"properties":{"line":"101","mode":"bus","color":"#0059a9","colorDark":"#00294f","band":0,"off":[-1.7,1.1]}},{"type":"Feature","geometry":{"type":"Point","coordinates":[20.439514,53.80968]},"properties":{"line":"127","mode":"bus","color":"#0059a9","colorDark":"#00294f","band":0,"off":[1.7,1.1]}},{"type":"Feature","geometry":{"type":"Point","coordinates":[20.498308,53.784478]},"properties":{"name":"Dworzec Główny","band":0,"modes":"tram,bus","arr":["2","3","4","103","108","112","114","115","124","125","304","N01","N02"],"off":[0,-0.8],"sc":0.98}},{"type":"Feature","geometry":{"type":"Point","coordinates":[20.498308,53.784478]},"properties":{"line":"2","mode":"tram","color":"#d6212b","colorDark":"#7c1116","band":0,"sc":0.98,"off":[-6.8,1.1]}},{"type":"Feature","geometry":{"type":"Point","coordinates":[20.498308,53.784478]},"properties":{"line":"3","mode":"tram","color":"#d6212b","colorDark":"#7c1116","band":0,"sc":0.98,"off":[-3.4,1.1]}},{"type":"Feature","geometry":{"type":"Point","coordinates":[20.498308,53.784478]},"properties":{"line":"4","mode":"tram","color":"#d6212b","colorDark":"#7c1116","band":0,"sc":0.98,"off":[0,1.1]}},{"type":"Feature","geometry":{"type":"Point","coordinates":[20.498308,53.784478]},"properties":{"line":"103","mode":"bus","color":"#0059a9","colorDark":"#00294f","band":0,"sc":0.98,"off":[3.4,1.1]}},{"type":"Feature","geometry":{"type":"Point","coordinates":[20.498308,53.784478]},"properties":{"line":"108","mode":"bus","color":"#0059a9","colorDark":"#00294f","band":0,"sc":0.98,"off":[6.8,1.1]}},{"type":"Feature","geometry":{"type":"Point","coordinates":[20.498308,53.784478]},"properties":{"line":"112","mode":"bus","color":"#0059a9","colorDark":"#00294f","band":0,"sc":0.98,"off":[-6.8,3.1]}},{"type":"Feature","geometry":{"type":"Point","coordinates":[20.498308,53.784478]},"properties":{"line":"114","mode":"bus","color":"#0059a9","colorDark":"#00294f","band":0,"sc":0.98,"off":[-3.4,3.1]}},{"type":"Feature","geometry":{"type":"Point","coordinates":[20.498308,53.784478]},"properties":{"line":"115","mode":"bus","color":"#0059a9","colorDark":"#00294f","band":0,"sc":0.98,"off":[0,3.1]}},{"type":"Feature","geometry":{"type":"Point","coordinates":[20.498308,53.784478]},"properties":{"line":"124","mode":"bus","color":"#0059a9","colorDark":"#00294f","band":0,"sc":0.98,"off":[3.4,3.1]}},{"type":"Feature","geometry":{"type":"Point","coordinates":[20.498308,53.784478]},"properties":{"line":"125","mode":"bus","color":"#0059a9","colorDark":"#00294f","band":0,"sc":0.98,"off":[6.8,3.1]}},{"type":"Feature","geometry":{"type":"Point","coordinates":[20.498308,53.784478]},"properties":{"line":"304","mode":"bus","color":"#0059a9","colorDark":"#00294f","band":0,"sc":0.98,"off":[-3.4,5.1]}},{"type":"Feature","geometry":{"type":"Point","coordinates":[20.498308,53.784478]},"properties":{"line":"N01","mode":"bus","color":"#000000","colorDark":"#000000","band":0,"sc":0.98,"off":[0,5.1]}},{"type":"Feature","geometry":{"type":"Point","coordinates":[20.498308,53.784478]},"properties":{"line":"N02","mode":"bus","color":"#000000","colorDark":"#000000","band":0,"sc":0.98,"off":[3.4,5.1]}},{"type":"Feature","geometry":{"type":"Point","coordinates":[20.454781,53.744851]},"properties":{"name":"Stary Dwór","band":0,"modes":"bus","arr":["103","119","130"],"off":[0,-0.8]}},{"type":"Feature","geometry":{"type":"Point","coordinates":[20.454781,53.744851]},"properties":{"line":"103","mode":"bus","color":"#0059a9","colorDark":"#00294f","band":0,"off":[-3.4,1.1]}},{"type":"Feature","geometry":{"type":"Point","coordinates":[20.454781,53.744851]},"properties":{"line":"119","mode":"bus","color":"#0059a9","colorDark":"#00294f","band":0,"off":[0,1.1]}},{"type":"Feature","geometry":{"type":"Point","coordinates":[20.454781,53.744851]},"properties":{"line":"130","mode":"bus","color":"#0059a9","colorDark":"#00294f","band":0,"off":[3.4,1.1]}},{"type":"Feature","geometry":{"type":"Point","coordinates":[20.474461,53.767076]},"properties":{"name":"Borkowskiego","band":0,"modes":"bus","arr":["105"],"off":[0,-0.8]}},{"type":"Feature","geometry":{"type":"Point","coordinates":[20.474461,53.767076]},"properties":{"line":"105","mode":"bus","color":"#0059a9","colorDark":"#00294f","band":0,"off":[0,1.1]}},{"type":"Feature","geometry":{"type":"Point","coordinates":[20.574033,53.734977]},"properties":{"name":"Klewki","band":0,"modes":"bus","arr":["105"],"off":[0,-0.8]}},{"type":"Feature","geometry":{"type":"Point","coordinates":[20.574033,53.734977]},"properties":{"line":"105","mode":"bus","color":"#0059a9","colorDark":"#00294f","band":0,"off":[0,1.1]}},{"type":"Feature","geometry":{"type":"Point","coordinates":[20.513281,53.760341]},"properties":{"name":"Osiedle Mazurskie","band":0,"modes":"bus","arr":["113"],"off":[0,-0.8]}},{"type":"Feature","geometry":{"type":"Point","coordinates":[20.513281,53.760341]},"properties":{"line":"113","mode":"bus","color":"#0059a9","colorDark":"#00294f","band":0,"off":[0,1.1]}},{"type":"Feature","geometry":{"type":"Point","coordinates":[20.540052,53.783871]},"properties":{"name":"Cementowa","band":0,"modes":"bus","arr":["106","121","141"],"off":[0,-0.8]}},{"type":"Feature","geometry":{"type":"Point","coordinates":[20.540052,53.783871]},"properties":{"line":"106","mode":"bus","color":"#0059a9","colorDark":"#00294f","band":0,"off":[-3.4,1.1]}},{"type":"Feature","geometry":{"type":"Point","coordinates":[20.540052,53.783871]},"properties":{"line":"121","mode":"bus","color":"#0059a9","colorDark":"#00294f","band":0,"off":[0,1.1]}},{"type":"Feature","geometry":{"type":"Point","coordinates":[20.540052,53.783871]},"properties":{"line":"141","mode":"bus","color":"#0059a9","colorDark":"#00294f","band":0,"off":[3.4,1.1]}},{"type":"Feature","geometry":{"type":"Point","coordinates":[20.394588,53.808635]},"properties":{"name":"Gutkowo","band":0,"modes":"bus","arr":["106","111"],"off":[0,-0.8]}},{"type":"Feature","geometry":{"type":"Point","coordinates":[20.394588,53.808635]},"properties":{"line":"106","mode":"bus","color":"#0059a9","colorDark":"#00294f","band":0,"off":[-1.7,1.1]}},{"type":"Feature","geometry":{"type":"Point","coordinates":[20.394588,53.808635]},"properties":{"line":"111","mode":"bus","color":"#0059a9","colorDark":"#00294f","band":0,"off":[1.7,1.1]}},{"type":"Feature","geometry":{"type":"Point","coordinates":[20.481715,53.797248]},"properties":{"name":"Jakubowo","band":0,"modes":"bus","arr":["107"],"off":[0,-0.8]}},{"type":"Feature","geometry":{"type":"Point","coordinates":[20.481715,53.797248]},"properties":{"line":"107","mode":"bus","color":"#0059a9","colorDark":"#00294f","band":0,"off":[0,1.1]}},{"type":"Feature","geometry":{"type":"Point","coordinates":[20.373315,53.781883]},"properties":{"name":"Łupstych","band":0,"modes":"bus","arr":["107"],"off":[0,-0.8]}},{"type":"Feature","geometry":{"type":"Point","coordinates":[20.373315,53.781883]},"properties":{"line":"107","mode":"bus","color":"#0059a9","colorDark":"#00294f","band":0,"off":[0,1.1]}},{"type":"Feature","geometry":{"type":"Point","coordinates":[20.416859,53.768204]},"properties":{"name":"Dajtki","band":0,"modes":"bus","arr":["113"],"off":[0,-0.8]}},{"type":"Feature","geometry":{"type":"Point","coordinates":[20.416859,53.768204]},"properties":{"line":"113","mode":"bus","color":"#0059a9","colorDark":"#00294f","band":0,"off":[0,1.1]}},{"type":"Feature","geometry":{"type":"Point","coordinates":[20.506906,53.802666]},"properties":{"name":"Jagiellońska-Szpital","band":0,"modes":"bus","arr":["136"],"off":[0,-0.8]}},{"type":"Feature","geometry":{"type":"Point","coordinates":[20.506906,53.802666]},"properties":{"line":"136","mode":"bus","color":"#0059a9","colorDark":"#00294f","band":0,"off":[0,1.1]}},{"type":"Feature","geometry":{"type":"Point","coordinates":[20.502067,53.79845]},"properties":{"name":"Osiedle Podleśna","band":0,"modes":"bus","arr":["109"],"off":[0,-0.8]}},{"type":"Feature","geometry":{"type":"Point","coordinates":[20.502067,53.79845]},"properties":{"line":"109","mode":"bus","color":"#0059a9","colorDark":"#00294f","band":0,"off":[0,1.1]}},{"type":"Feature","geometry":{"type":"Point","coordinates":[20.44874,53.751755]},"properties":{"name":"Słoneczny Stok","band":0,"modes":"bus","arr":["109"],"off":[0,-0.8]}},{"type":"Feature","geometry":{"type":"Point","coordinates":[20.44874,53.751755]},"properties":{"line":"109","mode":"bus","color":"#0059a9","colorDark":"#00294f","band":0,"off":[0,1.1]}},{"type":"Feature","geometry":{"type":"Point","coordinates":[20.528725,53.769323]},"properties":{"name":"Polmozbyt","band":0,"modes":"bus","arr":["110","135"],"off":[0,-0.8]}},{"type":"Feature","geometry":{"type":"Point","coordinates":[20.528725,53.769323]},"properties":{"line":"110","mode":"bus","color":"#0059a9","colorDark":"#00294f","band":0,"off":[-1.7,1.1]}},{"type":"Feature","geometry":{"type":"Point","coordinates":[20.528725,53.769323]},"properties":{"line":"135","mode":"bus","color":"#0059a9","colorDark":"#00294f","band":0,"off":[1.7,1.1]}},{"type":"Feature","geometry":{"type":"Point","coordinates":[20.438913,53.874907]},"properties":{"name":"Spręcowo-Szkoła","band":0,"modes":"bus","arr":["110"],"off":[0,-0.8]}},{"type":"Feature","geometry":{"type":"Point","coordinates":[20.438913,53.874907]},"properties":{"line":"110","mode":"bus","color":"#0059a9","colorDark":"#00294f","band":0,"off":[0,1.1]}},{"type":"Feature","geometry":{"type":"Point","coordinates":[20.500007,53.753453]},"properties":{"name":"Nagórki","band":0,"modes":"bus","arr":["111"],"off":[0,-0.8]}},{"type":"Feature","geometry":{"type":"Point","coordinates":[20.500007,53.753453]},"properties":{"line":"111","mode":"bus","color":"#0059a9","colorDark":"#00294f","band":0,"off":[0,1.1]}},{"type":"Feature","geometry":{"type":"Point","coordinates":[20.486127,53.754715]},"properties":{"name":"Galeria Warmińska","band":0,"modes":"bus","arr":["205"],"off":[0,-0.8]}},{"type":"Feature","geometry":{"type":"Point","coordinates":[20.486127,53.754715]},"properties":{"line":"205","mode":"bus","color":"#0059a9","colorDark":"#00294f","band":0,"off":[0,1.1]}},{"type":"Feature","geometry":{"type":"Point","coordinates":[20.694786,53.840391]},"properties":{"name":"Barczewo","band":0,"modes":"bus","arr":["114","124"],"off":[0,-0.8]}},{"type":"Feature","geometry":{"type":"Point","coordinates":[20.694786,53.840391]},"properties":{"line":"114","mode":"bus","color":"#0059a9","colorDark":"#00294f","band":0,"off":[-1.7,1.1]}},{"type":"Feature","geometry":{"type":"Point","coordinates":[20.694786,53.840391]},"properties":{"line":"124","mode":"bus","color":"#0059a9","colorDark":"#00294f","band":0,"off":[1.7,1.1]}},{"type":"Feature","geometry":{"type":"Point","coordinates":[20.601782,53.790529]},"properties":{"name":"Wójtowo-Leszczynowa","band":0,"modes":"bus","arr":["304"],"off":[0,-0.8]}},{"type":"Feature","geometry":{"type":"Point","coordinates":[20.601782,53.790529]},"properties":{"line":"304","mode":"bus","color":"#0059a9","colorDark":"#00294f","band":0,"off":[0,1.1]}},{"type":"Feature","geometry":{"type":"Point","coordinates":[20.480265,53.739515]},"properties":{"name":"Osiedle Generałów","band":0,"modes":"bus","arr":["117","131","141"],"off":[0,-0.8]}},{"type":"Feature","geometry":{"type":"Point","coordinates":[20.480265,53.739515]},"properties":{"line":"117","mode":"bus","color":"#0059a9","colorDark":"#00294f","band":0,"off":[-3.4,1.1]}},{"type":"Feature","geometry":{"type":"Point","coordinates":[20.480265,53.739515]},"properties":{"line":"131","mode":"bus","color":"#0059a9","colorDark":"#00294f","band":0,"off":[0,1.1]}},{"type":"Feature","geometry":{"type":"Point","coordinates":[20.480265,53.739515]},"properties":{"line":"141","mode":"bus","color":"#0059a9","colorDark":"#00294f","band":0,"off":[3.4,1.1]}},{"type":"Feature","geometry":{"type":"Point","coordinates":[20.493225,53.822488]},"properties":{"name":"Cmentarz Dywity-Brama Wschodnia","band":0,"modes":"bus","arr":["117"],"off":[0,-0.8]}},{"type":"Feature","geometry":{"type":"Point","coordinates":[20.493225,53.822488]},"properties":{"line":"117","mode":"bus","color":"#0059a9","colorDark":"#00294f","band":0,"off":[0,1.1]}},{"type":"Feature","geometry":{"type":"Point","coordinates":[20.478021,53.735682]},"properties":{"name":"Bilitewskiego","band":0,"modes":"bus","arr":["121"],"off":[0,-0.8]}},{"type":"Feature","geometry":{"type":"Point","coordinates":[20.478021,53.735682]},"properties":{"line":"121","mode":"bus","color":"#0059a9","colorDark":"#00294f","band":0,"off":[0,1.1]}},{"type":"Feature","geometry":{"type":"Point","coordinates":[20.472514,53.717876]},"properties":{"name":"Bartąska-Rondo","band":0,"modes":"bus","arr":["126","136"],"off":[0,-0.8]}},{"type":"Feature","geometry":{"type":"Point","coordinates":[20.472514,53.717876]},"properties":{"line":"126","mode":"bus","color":"#0059a9","colorDark":"#00294f","band":0,"off":[-1.7,1.1]}},{"type":"Feature","geometry":{"type":"Point","coordinates":[20.472514,53.717876]},"properties":{"line":"136","mode":"bus","color":"#0059a9","colorDark":"#00294f","band":0,"off":[1.7,1.1]}},{"type":"Feature","geometry":{"type":"Point","coordinates":[20.516728,53.809272]},"properties":{"name":"Jagiellońska-Ogrody","band":0,"modes":"bus","arr":["126"],"off":[0,-0.8]}},{"type":"Feature","geometry":{"type":"Point","coordinates":[20.516728,53.809272]},"properties":{"line":"126","mode":"bus","color":"#0059a9","colorDark":"#00294f","band":0,"off":[0,1.1]}},{"type":"Feature","geometry":{"type":"Point","coordinates":[20.495857,53.735705]},"properties":{"name":"Witosa","band":0,"modes":"bus","arr":["127"],"off":[0,-0.8]}},{"type":"Feature","geometry":{"type":"Point","coordinates":[20.495857,53.735705]},"properties":{"line":"127","mode":"bus","color":"#0059a9","colorDark":"#00294f","band":0,"off":[0,1.1]}},{"type":"Feature","geometry":{"type":"Point","coordinates":[20.471894,53.746917]},"properties":{"name":"Brzeziny","band":0,"modes":"bus","arr":["128"],"off":[0,-0.8]}},{"type":"Feature","geometry":{"type":"Point","coordinates":[20.471894,53.746917]},"properties":{"line":"128","mode":"bus","color":"#0059a9","colorDark":"#00294f","band":0,"off":[0,1.1]}},{"type":"Feature","geometry":{"type":"Point","coordinates":[20.550119,53.777396]},"properties":{"name":"Koopress","band":0,"modes":"bus","arr":["128"],"off":[0,-0.8]}},{"type":"Feature","geometry":{"type":"Point","coordinates":[20.550119,53.777396]},"properties":{"line":"128","mode":"bus","color":"#0059a9","colorDark":"#00294f","band":0,"off":[0,1.1]}},{"type":"Feature","geometry":{"type":"Point","coordinates":[20.518338,53.740165]},"properties":{"name":"Pieczewo","band":0,"modes":"tram,bus","arr":["4","5","130","132"],"off":[0,-0.8]}},{"type":"Feature","geometry":{"type":"Point","coordinates":[20.518338,53.740165]},"properties":{"line":"4","mode":"tram","color":"#d6212b","colorDark":"#7c1116","band":0,"off":[-5.1,1.1]}},{"type":"Feature","geometry":{"type":"Point","coordinates":[20.518338,53.740165]},"properties":{"line":"5","mode":"tram","color":"#d6212b","colorDark":"#7c1116","band":0,"off":[-1.7,1.1]}},{"type":"Feature","geometry":{"type":"Point","coordinates":[20.518338,53.740165]},"properties":{"line":"130","mode":"bus","color":"#0059a9","colorDark":"#00294f","band":0,"off":[1.7,1.1]}},{"type":"Feature","geometry":{"type":"Point","coordinates":[20.518338,53.740165]},"properties":{"line":"132","mode":"bus","color":"#0059a9","colorDark":"#00294f","band":0,"off":[5.1,1.1]}},{"type":"Feature","geometry":{"type":"Point","coordinates":[20.310753,53.828069]},"properties":{"name":"Jonkowo","band":0,"modes":"bus","arr":["145"],"off":[0,-0.8]}},{"type":"Feature","geometry":{"type":"Point","coordinates":[20.310753,53.828069]},"properties":{"line":"145","mode":"bus","color":"#0059a9","colorDark":"#00294f","band":0,"off":[0,1.1]}},{"type":"Feature","geometry":{"type":"Point","coordinates":[20.493656,53.732405]},"properties":{"name":"Tęczowy Las","band":0,"modes":"bus","arr":["205"],"off":[0,-0.8]}},{"type":"Feature","geometry":{"type":"Point","coordinates":[20.493656,53.732405]},"properties":{"line":"205","mode":"bus","color":"#0059a9","colorDark":"#00294f","band":0,"off":[0,1.1]}},{"type":"Feature","geometry":{"type":"Point","coordinates":[20.502877,53.736703]},"properties":{"name":"Kanta","band":0,"modes":"tram","arr":["1","2"],"off":[0,-0.8]}},{"type":"Feature","geometry":{"type":"Point","coordinates":[20.502877,53.736703]},"properties":{"line":"1","mode":"tram","color":"#d6212b","colorDark":"#7c1116","band":0,"off":[-1.7,1.1]}},{"type":"Feature","geometry":{"type":"Point","coordinates":[20.502877,53.736703]},"properties":{"line":"2","mode":"tram","color":"#d6212b","colorDark":"#7c1116","band":0,"off":[1.7,1.1]}},{"type":"Feature","geometry":{"type":"Point","coordinates":[20.462388,53.758216]},"properties":{"name":"Uniwersytet-Prawocheńskiego","band":0,"modes":"tram","arr":["3"],"off":[0,-0.8]}},{"type":"Feature","geometry":{"type":"Point","coordinates":[20.462388,53.758216]},"properties":{"line":"3","mode":"tram","color":"#d6212b","colorDark":"#7c1116","band":0,"off":[0,1.1]}},{"type":"Feature","geometry":{"type":"Point","coordinates":[20.539002,53.79581]},"properties":{"name":"Track","band":1,"modes":"bus","arr":["101"],"off":[0,-0.8]}},{"type":"Feature","geometry":{"type":"Point","coordinates":[20.539002,53.79581]},"properties":{"line":"101","mode":"bus","color":"#0059a9","colorDark":"#00294f","band":1,"off":[0,1.1]}},{"type":"Feature","geometry":{"type":"Point","coordinates":[20.546192,53.803879]},"properties":{"name":"Indykpol","band":1,"modes":"bus","arr":["131","132"],"off":[0,-0.8]}},{"type":"Feature","geometry":{"type":"Point","coordinates":[20.546192,53.803879]},"properties":{"line":"131","mode":"bus","color":"#0059a9","colorDark":"#00294f","band":1,"off":[-1.7,1.1]}},{"type":"Feature","geometry":{"type":"Point","coordinates":[20.546192,53.803879]},"properties":{"line":"132","mode":"bus","color":"#0059a9","colorDark":"#00294f","band":1,"off":[1.7,1.1]}},{"type":"Feature","geometry":{"type":"Point","coordinates":[20.509637,53.790792]},"properties":{"name":"Poprzeczna","band":1,"modes":"bus","arr":["119"],"off":[0,-0.8]}},{"type":"Feature","geometry":{"type":"Point","coordinates":[20.509637,53.790792]},"properties":{"line":"119","mode":"bus","color":"#0059a9","colorDark":"#00294f","band":1,"off":[0,1.1]}},{"type":"Feature","geometry":{"type":"Point","coordinates":[20.478663,53.777191]},"properties":{"name":"Wysoka Brama","band":1,"modes":"tram,bus","arr":["1","5","135"],"off":[0,-0.8]}},{"type":"Feature","geometry":{"type":"Point","coordinates":[20.478663,53.777191]},"properties":{"line":"1","mode":"tram","color":"#d6212b","colorDark":"#7c1116","band":1,"off":[-3.4,1.1]}},{"type":"Feature","geometry":{"type":"Point","coordinates":[20.478663,53.777191]},"properties":{"line":"5","mode":"tram","color":"#d6212b","colorDark":"#7c1116","band":1,"off":[0,1.1]}},{"type":"Feature","geometry":{"type":"Point","coordinates":[20.478663,53.777191]},"properties":{"line":"135","mode":"bus","color":"#0059a9","colorDark":"#00294f","band":1,"off":[3.4,1.1]}},{"type":"Feature","geometry":{"type":"Point","coordinates":[20.475182,53.773513]},"properties":{"name":"Plac Roosevelta","band":1,"modes":"bus","arr":["145"],"off":[0,-0.8]}},{"type":"Feature","geometry":{"type":"Point","coordinates":[20.475182,53.773513]},"properties":{"line":"145","mode":"bus","color":"#0059a9","colorDark":"#00294f","band":1,"off":[0,1.1]}},{"type":"Feature","geometry":{"type":"Point","coordinates":[20.439514,53.80968]},"properties":{"name":"Redykajny","band":1,"modes":"bus","arr":["101","127"],"off":[0,-0.8]}},{"type":"Feature","geometry":{"type":"Point","coordinates":[20.439514,53.80968]},"properties":{"line":"101","mode":"bus","color":"#0059a9","colorDark":"#00294f","band":1,"off":[-1.7,1.1]}},{"type":"Feature","geometry":{"type":"Point","coordinates":[20.439514,53.80968]},"properties":{"line":"127","mode":"bus","color":"#0059a9","colorDark":"#00294f","band":1,"off":[1.7,1.1]}},{"type":"Feature","geometry":{"type":"Point","coordinates":[20.498308,53.784478]},"properties":{"name":"Dworzec Główny","band":1,"modes":"tram,bus","arr":["2","3","4","103","108","112","114","115","124","125","304","N01","N02"],"off":[0,-0.8],"sc":0.98}},{"type":"Feature","geometry":{"type":"Point","coordinates":[20.498308,53.784478]},"properties":{"line":"2","mode":"tram","color":"#d6212b","colorDark":"#7c1116","band":1,"sc":0.98,"off":[-6.8,1.1]}},{"type":"Feature","geometry":{"type":"Point","coordinates":[20.498308,53.784478]},"properties":{"line":"3","mode":"tram","color":"#d6212b","colorDark":"#7c1116","band":1,"sc":0.98,"off":[-3.4,1.1]}},{"type":"Feature","geometry":{"type":"Point","coordinates":[20.498308,53.784478]},"properties":{"line":"4","mode":"tram","color":"#d6212b","colorDark":"#7c1116","band":1,"sc":0.98,"off":[0,1.1]}},{"type":"Feature","geometry":{"type":"Point","coordinates":[20.498308,53.784478]},"properties":{"line":"103","mode":"bus","color":"#0059a9","colorDark":"#00294f","band":1,"sc":0.98,"off":[3.4,1.1]}},{"type":"Feature","geometry":{"type":"Point","coordinates":[20.498308,53.784478]},"properties":{"line":"108","mode":"bus","color":"#0059a9","colorDark":"#00294f","band":1,"sc":0.98,"off":[6.8,1.1]}},{"type":"Feature","geometry":{"type":"Point","coordinates":[20.498308,53.784478]},"properties":{"line":"112","mode":"bus","color":"#0059a9","colorDark":"#00294f","band":1,"sc":0.98,"off":[-6.8,3.1]}},{"type":"Feature","geometry":{"type":"Point","coordinates":[20.498308,53.784478]},"properties":{"line":"114","mode":"bus","color":"#0059a9","colorDark":"#00294f","band":1,"sc":0.98,"off":[-3.4,3.1]}},{"type":"Feature","geometry":{"type":"Point","coordinates":[20.498308,53.784478]},"properties":{"line":"115","mode":"bus","color":"#0059a9","colorDark":"#00294f","band":1,"sc":0.98,"off":[0,3.1]}},{"type":"Feature","geometry":{"type":"Point","coordinates":[20.498308,53.784478]},"properties":{"line":"124","mode":"bus","color":"#0059a9","colorDark":"#00294f","band":1,"sc":0.98,"off":[3.4,3.1]}},{"type":"Feature","geometry":{"type":"Point","coordinates":[20.498308,53.784478]},"properties":{"line":"125","mode":"bus","color":"#0059a9","colorDark":"#00294f","band":1,"sc":0.98,"off":[6.8,3.1]}},{"type":"Feature","geometry":{"type":"Point","coordinates":[20.498308,53.784478]},"properties":{"line":"304","mode":"bus","color":"#0059a9","colorDark":"#00294f","band":1,"sc":0.98,"off":[-3.4,5.1]}},{"type":"Feature","geometry":{"type":"Point","coordinates":[20.498308,53.784478]},"properties":{"line":"N01","mode":"bus","color":"#000000","colorDark":"#000000","band":1,"sc":0.98,"off":[0,5.1]}},{"type":"Feature","geometry":{"type":"Point","coordinates":[20.498308,53.784478]},"properties":{"line":"N02","mode":"bus","color":"#000000","colorDark":"#000000","band":1,"sc":0.98,"off":[3.4,5.1]}},{"type":"Feature","geometry":{"type":"Point","coordinates":[20.454781,53.744851]},"properties":{"name":"Stary Dwór","band":1,"modes":"bus","arr":["103","119","130"],"off":[0,-0.8]}},{"type":"Feature","geometry":{"type":"Point","coordinates":[20.454781,53.744851]},"properties":{"line":"103","mode":"bus","color":"#0059a9","colorDark":"#00294f","band":1,"off":[-3.4,1.1]}},{"type":"Feature","geometry":{"type":"Point","coordinates":[20.454781,53.744851]},"properties":{"line":"119","mode":"bus","color":"#0059a9","colorDark":"#00294f","band":1,"off":[0,1.1]}},{"type":"Feature","geometry":{"type":"Point","coordinates":[20.454781,53.744851]},"properties":{"line":"130","mode":"bus","color":"#0059a9","colorDark":"#00294f","band":1,"off":[3.4,1.1]}},{"type":"Feature","geometry":{"type":"Point","coordinates":[20.474461,53.767076]},"properties":{"name":"Borkowskiego","band":1,"modes":"bus","arr":["105"],"off":[0,-0.8]}},{"type":"Feature","geometry":{"type":"Point","coordinates":[20.474461,53.767076]},"properties":{"line":"105","mode":"bus","color":"#0059a9","colorDark":"#00294f","band":1,"off":[0,1.1]}},{"type":"Feature","geometry":{"type":"Point","coordinates":[20.574033,53.734977]},"properties":{"name":"Klewki","band":1,"modes":"bus","arr":["105"],"off":[0,-0.8]}},{"type":"Feature","geometry":{"type":"Point","coordinates":[20.574033,53.734977]},"properties":{"line":"105","mode":"bus","color":"#0059a9","colorDark":"#00294f","band":1,"off":[0,1.1]}},{"type":"Feature","geometry":{"type":"Point","coordinates":[20.513281,53.760341]},"properties":{"name":"Osiedle Mazurskie","band":1,"modes":"bus","arr":["113"],"off":[0,-0.8]}},{"type":"Feature","geometry":{"type":"Point","coordinates":[20.513281,53.760341]},"properties":{"line":"113","mode":"bus","color":"#0059a9","colorDark":"#00294f","band":1,"off":[0,1.1]}},{"type":"Feature","geometry":{"type":"Point","coordinates":[20.540052,53.783871]},"properties":{"name":"Cementowa","band":1,"modes":"bus","arr":["106","121","141"],"off":[0,-0.8]}},{"type":"Feature","geometry":{"type":"Point","coordinates":[20.540052,53.783871]},"properties":{"line":"106","mode":"bus","color":"#0059a9","colorDark":"#00294f","band":1,"off":[-3.4,1.1]}},{"type":"Feature","geometry":{"type":"Point","coordinates":[20.540052,53.783871]},"properties":{"line":"121","mode":"bus","color":"#0059a9","colorDark":"#00294f","band":1,"off":[0,1.1]}},{"type":"Feature","geometry":{"type":"Point","coordinates":[20.540052,53.783871]},"properties":{"line":"141","mode":"bus","color":"#0059a9","colorDark":"#00294f","band":1,"off":[3.4,1.1]}},{"type":"Feature","geometry":{"type":"Point","coordinates":[20.394588,53.808635]},"properties":{"name":"Gutkowo","band":1,"modes":"bus","arr":["106","111"],"off":[0,-0.8]}},{"type":"Feature","geometry":{"type":"Point","coordinates":[20.394588,53.808635]},"properties":{"line":"106","mode":"bus","color":"#0059a9","colorDark":"#00294f","band":1,"off":[-1.7,1.1]}},{"type":"Feature","geometry":{"type":"Point","coordinates":[20.394588,53.808635]},"properties":{"line":"111","mode":"bus","color":"#0059a9","colorDark":"#00294f","band":1,"off":[1.7,1.1]}},{"type":"Feature","geometry":{"type":"Point","coordinates":[20.481715,53.797248]},"properties":{"name":"Jakubowo","band":1,"modes":"bus","arr":["107"],"off":[0,-0.8]}},{"type":"Feature","geometry":{"type":"Point","coordinates":[20.481715,53.797248]},"properties":{"line":"107","mode":"bus","color":"#0059a9","colorDark":"#00294f","band":1,"off":[0,1.1]}},{"type":"Feature","geometry":{"type":"Point","coordinates":[20.373315,53.781883]},"properties":{"name":"Łupstych","band":1,"modes":"bus","arr":["107"],"off":[0,-0.8]}},{"type":"Feature","geometry":{"type":"Point","coordinates":[20.373315,53.781883]},"properties":{"line":"107","mode":"bus","color":"#0059a9","colorDark":"#00294f","band":1,"off":[0,1.1]}},{"type":"Feature","geometry":{"type":"Point","coordinates":[20.416859,53.768204]},"properties":{"name":"Dajtki","band":1,"modes":"bus","arr":["113"],"off":[0,-0.8]}},{"type":"Feature","geometry":{"type":"Point","coordinates":[20.416859,53.768204]},"properties":{"line":"113","mode":"bus","color":"#0059a9","colorDark":"#00294f","band":1,"off":[0,1.1]}},{"type":"Feature","geometry":{"type":"Point","coordinates":[20.506906,53.802666]},"properties":{"name":"Jagiellońska-Szpital","band":1,"modes":"bus","arr":["136"],"off":[0,-0.8]}},{"type":"Feature","geometry":{"type":"Point","coordinates":[20.506906,53.802666]},"properties":{"line":"136","mode":"bus","color":"#0059a9","colorDark":"#00294f","band":1,"off":[0,1.1]}},{"type":"Feature","geometry":{"type":"Point","coordinates":[20.502067,53.79845]},"properties":{"name":"Osiedle Podleśna","band":1,"modes":"bus","arr":["109"],"off":[0,-0.8]}},{"type":"Feature","geometry":{"type":"Point","coordinates":[20.502067,53.79845]},"properties":{"line":"109","mode":"bus","color":"#0059a9","colorDark":"#00294f","band":1,"off":[0,1.1]}},{"type":"Feature","geometry":{"type":"Point","coordinates":[20.44874,53.751755]},"properties":{"name":"Słoneczny Stok","band":1,"modes":"bus","arr":["109"],"off":[0,-0.8]}},{"type":"Feature","geometry":{"type":"Point","coordinates":[20.44874,53.751755]},"properties":{"line":"109","mode":"bus","color":"#0059a9","colorDark":"#00294f","band":1,"off":[0,1.1]}},{"type":"Feature","geometry":{"type":"Point","coordinates":[20.528725,53.769323]},"properties":{"name":"Polmozbyt","band":1,"modes":"bus","arr":["110","135"],"off":[0,-0.8]}},{"type":"Feature","geometry":{"type":"Point","coordinates":[20.528725,53.769323]},"properties":{"line":"110","mode":"bus","color":"#0059a9","colorDark":"#00294f","band":1,"off":[-1.7,1.1]}},{"type":"Feature","geometry":{"type":"Point","coordinates":[20.528725,53.769323]},"properties":{"line":"135","mode":"bus","color":"#0059a9","colorDark":"#00294f","band":1,"off":[1.7,1.1]}},{"type":"Feature","geometry":{"type":"Point","coordinates":[20.438913,53.874907]},"properties":{"name":"Spręcowo-Szkoła","band":1,"modes":"bus","arr":["110"],"off":[0,-0.8]}},{"type":"Feature","geometry":{"type":"Point","coordinates":[20.438913,53.874907]},"properties":{"line":"110","mode":"bus","color":"#0059a9","colorDark":"#00294f","band":1,"off":[0,1.1]}},{"type":"Feature","geometry":{"type":"Point","coordinates":[20.500007,53.753453]},"properties":{"name":"Nagórki","band":1,"modes":"bus","arr":["111"],"off":[0,-0.8]}},{"type":"Feature","geometry":{"type":"Point","coordinates":[20.500007,53.753453]},"properties":{"line":"111","mode":"bus","color":"#0059a9","colorDark":"#00294f","band":1,"off":[0,1.1]}},{"type":"Feature","geometry":{"type":"Point","coordinates":[20.486127,53.754715]},"properties":{"name":"Galeria Warmińska","band":1,"modes":"bus","arr":["205"],"off":[0,-0.8]}},{"type":"Feature","geometry":{"type":"Point","coordinates":[20.486127,53.754715]},"properties":{"line":"205","mode":"bus","color":"#0059a9","colorDark":"#00294f","band":1,"off":[0,1.1]}},{"type":"Feature","geometry":{"type":"Point","coordinates":[20.694786,53.840391]},"properties":{"name":"Barczewo","band":1,"modes":"bus","arr":["114","124"],"off":[0,-0.8]}},{"type":"Feature","geometry":{"type":"Point","coordinates":[20.694786,53.840391]},"properties":{"line":"114","mode":"bus","color":"#0059a9","colorDark":"#00294f","band":1,"off":[-1.7,1.1]}},{"type":"Feature","geometry":{"type":"Point","coordinates":[20.694786,53.840391]},"properties":{"line":"124","mode":"bus","color":"#0059a9","colorDark":"#00294f","band":1,"off":[1.7,1.1]}},{"type":"Feature","geometry":{"type":"Point","coordinates":[20.601782,53.790529]},"properties":{"name":"Wójtowo-Leszczynowa","band":1,"modes":"bus","arr":["304"],"off":[0,-0.8]}},{"type":"Feature","geometry":{"type":"Point","coordinates":[20.601782,53.790529]},"properties":{"line":"304","mode":"bus","color":"#0059a9","colorDark":"#00294f","band":1,"off":[0,1.1]}},{"type":"Feature","geometry":{"type":"Point","coordinates":[20.480265,53.739515]},"properties":{"name":"Osiedle Generałów","band":1,"modes":"bus","arr":["117","131","141"],"off":[0,-0.8]}},{"type":"Feature","geometry":{"type":"Point","coordinates":[20.480265,53.739515]},"properties":{"line":"117","mode":"bus","color":"#0059a9","colorDark":"#00294f","band":1,"off":[-3.4,1.1]}},{"type":"Feature","geometry":{"type":"Point","coordinates":[20.480265,53.739515]},"properties":{"line":"131","mode":"bus","color":"#0059a9","colorDark":"#00294f","band":1,"off":[0,1.1]}},{"type":"Feature","geometry":{"type":"Point","coordinates":[20.480265,53.739515]},"properties":{"line":"141","mode":"bus","color":"#0059a9","colorDark":"#00294f","band":1,"off":[3.4,1.1]}},{"type":"Feature","geometry":{"type":"Point","coordinates":[20.493225,53.822488]},"properties":{"name":"Cmentarz Dywity-Brama Wschodnia","band":1,"modes":"bus","arr":["117"],"off":[0,-0.8]}},{"type":"Feature","geometry":{"type":"Point","coordinates":[20.493225,53.822488]},"properties":{"line":"117","mode":"bus","color":"#0059a9","colorDark":"#00294f","band":1,"off":[0,1.1]}},{"type":"Feature","geometry":{"type":"Point","coordinates":[20.478021,53.735682]},"properties":{"name":"Bilitewskiego","band":1,"modes":"bus","arr":["121"],"off":[0,-0.8]}},{"type":"Feature","geometry":{"type":"Point","coordinates":[20.478021,53.735682]},"properties":{"line":"121","mode":"bus","color":"#0059a9","colorDark":"#00294f","band":1,"off":[0,1.1]}},{"type":"Feature","geometry":{"type":"Point","coordinates":[20.472514,53.717876]},"properties":{"name":"Bartąska-Rondo","band":1,"modes":"bus","arr":["126","136"],"off":[0,-0.8]}},{"type":"Feature","geometry":{"type":"Point","coordinates":[20.472514,53.717876]},"properties":{"line":"126","mode":"bus","color":"#0059a9","colorDark":"#00294f","band":1,"off":[-1.7,1.1]}},{"type":"Feature","geometry":{"type":"Point","coordinates":[20.472514,53.717876]},"properties":{"line":"136","mode":"bus","color":"#0059a9","colorDark":"#00294f","band":1,"off":[1.7,1.1]}},{"type":"Feature","geometry":{"type":"Point","coordinates":[20.516728,53.809272]},"properties":{"name":"Jagiellońska-Ogrody","band":1,"modes":"bus","arr":["126"],"off":[0,-0.8]}},{"type":"Feature","geometry":{"type":"Point","coordinates":[20.516728,53.809272]},"properties":{"line":"126","mode":"bus","color":"#0059a9","colorDark":"#00294f","band":1,"off":[0,1.1]}},{"type":"Feature","geometry":{"type":"Point","coordinates":[20.495857,53.735705]},"properties":{"name":"Witosa","band":1,"modes":"bus","arr":["127"],"off":[0,-0.8]}},{"type":"Feature","geometry":{"type":"Point","coordinates":[20.495857,53.735705]},"properties":{"line":"127","mode":"bus","color":"#0059a9","colorDark":"#00294f","band":1,"off":[0,1.1]}},{"type":"Feature","geometry":{"type":"Point","coordinates":[20.471894,53.746917]},"properties":{"name":"Brzeziny","band":1,"modes":"bus","arr":["128"],"off":[0,-0.8]}},{"type":"Feature","geometry":{"type":"Point","coordinates":[20.471894,53.746917]},"properties":{"line":"128","mode":"bus","color":"#0059a9","colorDark":"#00294f","band":1,"off":[0,1.1]}},{"type":"Feature","geometry":{"type":"Point","coordinates":[20.550119,53.777396]},"properties":{"name":"Koopress","band":1,"modes":"bus","arr":["128"],"off":[0,-0.8]}},{"type":"Feature","geometry":{"type":"Point","coordinates":[20.550119,53.777396]},"properties":{"line":"128","mode":"bus","color":"#0059a9","colorDark":"#00294f","band":1,"off":[0,1.1]}},{"type":"Feature","geometry":{"type":"Point","coordinates":[20.518338,53.740165]},"properties":{"name":"Pieczewo","band":1,"modes":"tram,bus","arr":["4","5","130","132"],"off":[0,-0.8]}},{"type":"Feature","geometry":{"type":"Point","coordinates":[20.518338,53.740165]},"properties":{"line":"4","mode":"tram","color":"#d6212b","colorDark":"#7c1116","band":1,"off":[-5.1,1.1]}},{"type":"Feature","geometry":{"type":"Point","coordinates":[20.518338,53.740165]},"properties":{"line":"5","mode":"tram","color":"#d6212b","colorDark":"#7c1116","band":1,"off":[-1.7,1.1]}},{"type":"Feature","geometry":{"type":"Point","coordinates":[20.518338,53.740165]},"properties":{"line":"130","mode":"bus","color":"#0059a9","colorDark":"#00294f","band":1,"off":[1.7,1.1]}},{"type":"Feature","geometry":{"type":"Point","coordinates":[20.518338,53.740165]},"properties":{"line":"132","mode":"bus","color":"#0059a9","colorDark":"#00294f","band":1,"off":[5.1,1.1]}},{"type":"Feature","geometry":{"type":"Point","coordinates":[20.310753,53.828069]},"properties":{"name":"Jonkowo","band":1,"modes":"bus","arr":["145"],"off":[0,-0.8]}},{"type":"Feature","geometry":{"type":"Point","coordinates":[20.310753,53.828069]},"properties":{"line":"145","mode":"bus","color":"#0059a9","colorDark":"#00294f","band":1,"off":[0,1.1]}},{"type":"Feature","geometry":{"type":"Point","coordinates":[20.493656,53.732405]},"properties":{"name":"Tęczowy Las","band":1,"modes":"bus","arr":["205"],"off":[0,-0.8]}},{"type":"Feature","geometry":{"type":"Point","coordinates":[20.493656,53.732405]},"properties":{"line":"205","mode":"bus","color":"#0059a9","colorDark":"#00294f","band":1,"off":[0,1.1]}},{"type":"Feature","geometry":{"type":"Point","coordinates":[20.502877,53.736703]},"properties":{"name":"Kanta","band":1,"modes":"tram","arr":["1","2"],"off":[0,-0.8]}},{"type":"Feature","geometry":{"type":"Point","coordinates":[20.502877,53.736703]},"properties":{"line":"1","mode":"tram","color":"#d6212b","colorDark":"#7c1116","band":1,"off":[-1.7,1.1]}},{"type":"Feature","geometry":{"type":"Point","coordinates":[20.502877,53.736703]},"properties":{"line":"2","mode":"tram","color":"#d6212b","colorDark":"#7c1116","band":1,"off":[1.7,1.1]}},{"type":"Feature","geometry":{"type":"Point","coordinates":[20.462388,53.758216]},"properties":{"name":"Uniwersytet-Prawocheńskiego","band":1,"modes":"tram","arr":["3"],"off":[0,-0.8]}},{"type":"Feature","geometry":{"type":"Point","coordinates":[20.462388,53.758216]},"properties":{"line":"3","mode":"tram","color":"#d6212b","colorDark":"#7c1116","band":1,"off":[0,1.1]}},{"type":"Feature","geometry":{"type":"Point","coordinates":[20.539002,53.79581]},"properties":{"name":"Track","band":2,"modes":"bus","arr":["101"],"off":[0,-0.8]}},{"type":"Feature","geometry":{"type":"Point","coordinates":[20.539002,53.79581]},"properties":{"line":"101","mode":"bus","color":"#0059a9","colorDark":"#00294f","band":2,"off":[0,1.1]}},{"type":"Feature","geometry":{"type":"Point","coordinates":[20.546192,53.803879]},"properties":{"name":"Indykpol","band":2,"modes":"bus","arr":["131","132"],"off":[0,-0.8]}},{"type":"Feature","geometry":{"type":"Point","coordinates":[20.546192,53.803879]},"properties":{"line":"131","mode":"bus","color":"#0059a9","colorDark":"#00294f","band":2,"off":[-1.7,1.1]}},{"type":"Feature","geometry":{"type":"Point","coordinates":[20.546192,53.803879]},"properties":{"line":"132","mode":"bus","color":"#0059a9","colorDark":"#00294f","band":2,"off":[1.7,1.1]}},{"type":"Feature","geometry":{"type":"Point","coordinates":[20.509637,53.790792]},"properties":{"name":"Poprzeczna","band":2,"modes":"bus","arr":["119"],"off":[0,-0.8]}},{"type":"Feature","geometry":{"type":"Point","coordinates":[20.509637,53.790792]},"properties":{"line":"119","mode":"bus","color":"#0059a9","colorDark":"#00294f","band":2,"off":[0,1.1]}},{"type":"Feature","geometry":{"type":"Point","coordinates":[20.478663,53.777191]},"properties":{"name":"Wysoka Brama","band":2,"modes":"tram,bus","arr":["1","5","135"],"off":[0,-0.8]}},{"type":"Feature","geometry":{"type":"Point","coordinates":[20.478663,53.777191]},"properties":{"line":"1","mode":"tram","color":"#d6212b","colorDark":"#7c1116","band":2,"off":[-3.4,1.1]}},{"type":"Feature","geometry":{"type":"Point","coordinates":[20.478663,53.777191]},"properties":{"line":"5","mode":"tram","color":"#d6212b","colorDark":"#7c1116","band":2,"off":[0,1.1]}},{"type":"Feature","geometry":{"type":"Point","coordinates":[20.478663,53.777191]},"properties":{"line":"135","mode":"bus","color":"#0059a9","colorDark":"#00294f","band":2,"off":[3.4,1.1]}},{"type":"Feature","geometry":{"type":"Point","coordinates":[20.475182,53.773513]},"properties":{"name":"Plac Roosevelta","band":2,"modes":"bus","arr":["145"],"off":[0,-0.8]}},{"type":"Feature","geometry":{"type":"Point","coordinates":[20.475182,53.773513]},"properties":{"line":"145","mode":"bus","color":"#0059a9","colorDark":"#00294f","band":2,"off":[0,1.1]}},{"type":"Feature","geometry":{"type":"Point","coordinates":[20.439514,53.80968]},"properties":{"name":"Redykajny","band":2,"modes":"bus","arr":["101","127"],"off":[0,-0.8]}},{"type":"Feature","geometry":{"type":"Point","coordinates":[20.439514,53.80968]},"properties":{"line":"101","mode":"bus","color":"#0059a9","colorDark":"#00294f","band":2,"off":[-1.7,1.1]}},{"type":"Feature","geometry":{"type":"Point","coordinates":[20.439514,53.80968]},"properties":{"line":"127","mode":"bus","color":"#0059a9","colorDark":"#00294f","band":2,"off":[1.7,1.1]}},{"type":"Feature","geometry":{"type":"Point","coordinates":[20.498308,53.784478]},"properties":{"name":"Dworzec Główny","band":2,"modes":"tram,bus","arr":["2","3","4","103","108","112","114","115","124","125","304","N01","N02"],"off":[0,-0.8],"sc":0.98}},{"type":"Feature","geometry":{"type":"Point","coordinates":[20.498308,53.784478]},"properties":{"line":"2","mode":"tram","color":"#d6212b","colorDark":"#7c1116","band":2,"sc":0.98,"off":[-6.8,1.1]}},{"type":"Feature","geometry":{"type":"Point","coordinates":[20.498308,53.784478]},"properties":{"line":"3","mode":"tram","color":"#d6212b","colorDark":"#7c1116","band":2,"sc":0.98,"off":[-3.4,1.1]}},{"type":"Feature","geometry":{"type":"Point","coordinates":[20.498308,53.784478]},"properties":{"line":"4","mode":"tram","color":"#d6212b","colorDark":"#7c1116","band":2,"sc":0.98,"off":[0,1.1]}},{"type":"Feature","geometry":{"type":"Point","coordinates":[20.498308,53.784478]},"properties":{"line":"103","mode":"bus","color":"#0059a9","colorDark":"#00294f","band":2,"sc":0.98,"off":[3.4,1.1]}},{"type":"Feature","geometry":{"type":"Point","coordinates":[20.498308,53.784478]},"properties":{"line":"108","mode":"bus","color":"#0059a9","colorDark":"#00294f","band":2,"sc":0.98,"off":[6.8,1.1]}},{"type":"Feature","geometry":{"type":"Point","coordinates":[20.498308,53.784478]},"properties":{"line":"112","mode":"bus","color":"#0059a9","colorDark":"#00294f","band":2,"sc":0.98,"off":[-6.8,3.1]}},{"type":"Feature","geometry":{"type":"Point","coordinates":[20.498308,53.784478]},"properties":{"line":"114","mode":"bus","color":"#0059a9","colorDark":"#00294f","band":2,"sc":0.98,"off":[-3.4,3.1]}},{"type":"Feature","geometry":{"type":"Point","coordinates":[20.498308,53.784478]},"properties":{"line":"115","mode":"bus","color":"#0059a9","colorDark":"#00294f","band":2,"sc":0.98,"off":[0,3.1]}},{"type":"Feature","geometry":{"type":"Point","coordinates":[20.498308,53.784478]},"properties":{"line":"124","mode":"bus","color":"#0059a9","colorDark":"#00294f","band":2,"sc":0.98,"off":[3.4,3.1]}},{"type":"Feature","geometry":{"type":"Point","coordinates":[20.498308,53.784478]},"properties":{"line":"125","mode":"bus","color":"#0059a9","colorDark":"#00294f","band":2,"sc":0.98,"off":[6.8,3.1]}},{"type":"Feature","geometry":{"type":"Point","coordinates":[20.498308,53.784478]},"properties":{"line":"304","mode":"bus","color":"#0059a9","colorDark":"#00294f","band":2,"sc":0.98,"off":[-3.4,5.1]}},{"type":"Feature","geometry":{"type":"Point","coordinates":[20.498308,53.784478]},"properties":{"line":"N01","mode":"bus","color":"#000000","colorDark":"#000000","band":2,"sc":0.98,"off":[0,5.1]}},{"type":"Feature","geometry":{"type":"Point","coordinates":[20.498308,53.784478]},"properties":{"line":"N02","mode":"bus","color":"#000000","colorDark":"#000000","band":2,"sc":0.98,"off":[3.4,5.1]}},{"type":"Feature","geometry":{"type":"Point","coordinates":[20.454781,53.744851]},"properties":{"name":"Stary Dwór","band":2,"modes":"bus","arr":["103","119","130"],"off":[0,-0.8]}},{"type":"Feature","geometry":{"type":"Point","coordinates":[20.454781,53.744851]},"properties":{"line":"103","mode":"bus","color":"#0059a9","colorDark":"#00294f","band":2,"off":[-3.4,1.1]}},{"type":"Feature","geometry":{"type":"Point","coordinates":[20.454781,53.744851]},"properties":{"line":"119","mode":"bus","color":"#0059a9","colorDark":"#00294f","band":2,"off":[0,1.1]}},{"type":"Feature","geometry":{"type":"Point","coordinates":[20.454781,53.744851]},"properties":{"line":"130","mode":"bus","color":"#0059a9","colorDark":"#00294f","band":2,"off":[3.4,1.1]}},{"type":"Feature","geometry":{"type":"Point","coordinates":[20.474461,53.767076]},"properties":{"name":"Borkowskiego","band":2,"modes":"bus","arr":["105"],"off":[0,-0.8]}},{"type":"Feature","geometry":{"type":"Point","coordinates":[20.474461,53.767076]},"properties":{"line":"105","mode":"bus","color":"#0059a9","colorDark":"#00294f","band":2,"off":[0,1.1]}},{"type":"Feature","geometry":{"type":"Point","coordinates":[20.574033,53.734977]},"properties":{"name":"Klewki","band":2,"modes":"bus","arr":["105"],"off":[0,-0.8]}},{"type":"Feature","geometry":{"type":"Point","coordinates":[20.574033,53.734977]},"properties":{"line":"105","mode":"bus","color":"#0059a9","colorDark":"#00294f","band":2,"off":[0,1.1]}},{"type":"Feature","geometry":{"type":"Point","coordinates":[20.513281,53.760341]},"properties":{"name":"Osiedle Mazurskie","band":2,"modes":"bus","arr":["113"],"off":[0,-0.8]}},{"type":"Feature","geometry":{"type":"Point","coordinates":[20.513281,53.760341]},"properties":{"line":"113","mode":"bus","color":"#0059a9","colorDark":"#00294f","band":2,"off":[0,1.1]}},{"type":"Feature","geometry":{"type":"Point","coordinates":[20.540052,53.783871]},"properties":{"name":"Cementowa","band":2,"modes":"bus","arr":["106","121","141"],"off":[0,-0.8]}},{"type":"Feature","geometry":{"type":"Point","coordinates":[20.540052,53.783871]},"properties":{"line":"106","mode":"bus","color":"#0059a9","colorDark":"#00294f","band":2,"off":[-3.4,1.1]}},{"type":"Feature","geometry":{"type":"Point","coordinates":[20.540052,53.783871]},"properties":{"line":"121","mode":"bus","color":"#0059a9","colorDark":"#00294f","band":2,"off":[0,1.1]}},{"type":"Feature","geometry":{"type":"Point","coordinates":[20.540052,53.783871]},"properties":{"line":"141","mode":"bus","color":"#0059a9","colorDark":"#00294f","band":2,"off":[3.4,1.1]}},{"type":"Feature","geometry":{"type":"Point","coordinates":[20.394588,53.808635]},"properties":{"name":"Gutkowo","band":2,"modes":"bus","arr":["106","111"],"off":[0,-0.8]}},{"type":"Feature","geometry":{"type":"Point","coordinates":[20.394588,53.808635]},"properties":{"line":"106","mode":"bus","color":"#0059a9","colorDark":"#00294f","band":2,"off":[-1.7,1.1]}},{"type":"Feature","geometry":{"type":"Point","coordinates":[20.394588,53.808635]},"properties":{"line":"111","mode":"bus","color":"#0059a9","colorDark":"#00294f","band":2,"off":[1.7,1.1]}},{"type":"Feature","geometry":{"type":"Point","coordinates":[20.481715,53.797248]},"properties":{"name":"Jakubowo","band":2,"modes":"bus","arr":["107"],"off":[0,-0.8]}},{"type":"Feature","geometry":{"type":"Point","coordinates":[20.481715,53.797248]},"properties":{"line":"107","mode":"bus","color":"#0059a9","colorDark":"#00294f","band":2,"off":[0,1.1]}},{"type":"Feature","geometry":{"type":"Point","coordinates":[20.373315,53.781883]},"properties":{"name":"Łupstych","band":2,"modes":"bus","arr":["107"],"off":[0,-0.8]}},{"type":"Feature","geometry":{"type":"Point","coordinates":[20.373315,53.781883]},"properties":{"line":"107","mode":"bus","color":"#0059a9","colorDark":"#00294f","band":2,"off":[0,1.1]}},{"type":"Feature","geometry":{"type":"Point","coordinates":[20.416859,53.768204]},"properties":{"name":"Dajtki","band":2,"modes":"bus","arr":["113"],"off":[0,-0.8]}},{"type":"Feature","geometry":{"type":"Point","coordinates":[20.416859,53.768204]},"properties":{"line":"113","mode":"bus","color":"#0059a9","colorDark":"#00294f","band":2,"off":[0,1.1]}},{"type":"Feature","geometry":{"type":"Point","coordinates":[20.506906,53.802666]},"properties":{"name":"Jagiellońska-Szpital","band":2,"modes":"bus","arr":["136"],"off":[0,-0.8]}},{"type":"Feature","geometry":{"type":"Point","coordinates":[20.506906,53.802666]},"properties":{"line":"136","mode":"bus","color":"#0059a9","colorDark":"#00294f","band":2,"off":[0,1.1]}},{"type":"Feature","geometry":{"type":"Point","coordinates":[20.502067,53.79845]},"properties":{"name":"Osiedle Podleśna","band":2,"modes":"bus","arr":["109"],"off":[0,-0.8]}},{"type":"Feature","geometry":{"type":"Point","coordinates":[20.502067,53.79845]},"properties":{"line":"109","mode":"bus","color":"#0059a9","colorDark":"#00294f","band":2,"off":[0,1.1]}},{"type":"Feature","geometry":{"type":"Point","coordinates":[20.44874,53.751755]},"properties":{"name":"Słoneczny Stok","band":2,"modes":"bus","arr":["109"],"off":[0,-0.8]}},{"type":"Feature","geometry":{"type":"Point","coordinates":[20.44874,53.751755]},"properties":{"line":"109","mode":"bus","color":"#0059a9","colorDark":"#00294f","band":2,"off":[0,1.1]}},{"type":"Feature","geometry":{"type":"Point","coordinates":[20.528725,53.769323]},"properties":{"name":"Polmozbyt","band":2,"modes":"bus","arr":["110","135"],"off":[0,-0.8]}},{"type":"Feature","geometry":{"type":"Point","coordinates":[20.528725,53.769323]},"properties":{"line":"110","mode":"bus","color":"#0059a9","colorDark":"#00294f","band":2,"off":[-1.7,1.1]}},{"type":"Feature","geometry":{"type":"Point","coordinates":[20.528725,53.769323]},"properties":{"line":"135","mode":"bus","color":"#0059a9","colorDark":"#00294f","band":2,"off":[1.7,1.1]}},{"type":"Feature","geometry":{"type":"Point","coordinates":[20.438913,53.874907]},"properties":{"name":"Spręcowo-Szkoła","band":2,"modes":"bus","arr":["110"],"off":[0,-0.8]}},{"type":"Feature","geometry":{"type":"Point","coordinates":[20.438913,53.874907]},"properties":{"line":"110","mode":"bus","color":"#0059a9","colorDark":"#00294f","band":2,"off":[0,1.1]}},{"type":"Feature","geometry":{"type":"Point","coordinates":[20.500007,53.753453]},"properties":{"name":"Nagórki","band":2,"modes":"bus","arr":["111"],"off":[0,-0.8]}},{"type":"Feature","geometry":{"type":"Point","coordinates":[20.500007,53.753453]},"properties":{"line":"111","mode":"bus","color":"#0059a9","colorDark":"#00294f","band":2,"off":[0,1.1]}},{"type":"Feature","geometry":{"type":"Point","coordinates":[20.486127,53.754715]},"properties":{"name":"Galeria Warmińska","band":2,"modes":"bus","arr":["205"],"off":[0,-0.8]}},{"type":"Feature","geometry":{"type":"Point","coordinates":[20.486127,53.754715]},"properties":{"line":"205","mode":"bus","color":"#0059a9","colorDark":"#00294f","band":2,"off":[0,1.1]}},{"type":"Feature","geometry":{"type":"Point","coordinates":[20.694786,53.840391]},"properties":{"name":"Barczewo","band":2,"modes":"bus","arr":["114","124"],"off":[0,-0.8]}},{"type":"Feature","geometry":{"type":"Point","coordinates":[20.694786,53.840391]},"properties":{"line":"114","mode":"bus","color":"#0059a9","colorDark":"#00294f","band":2,"off":[-1.7,1.1]}},{"type":"Feature","geometry":{"type":"Point","coordinates":[20.694786,53.840391]},"properties":{"line":"124","mode":"bus","color":"#0059a9","colorDark":"#00294f","band":2,"off":[1.7,1.1]}},{"type":"Feature","geometry":{"type":"Point","coordinates":[20.601782,53.790529]},"properties":{"name":"Wójtowo-Leszczynowa","band":2,"modes":"bus","arr":["304"],"off":[0,-0.8]}},{"type":"Feature","geometry":{"type":"Point","coordinates":[20.601782,53.790529]},"properties":{"line":"304","mode":"bus","color":"#0059a9","colorDark":"#00294f","band":2,"off":[0,1.1]}},{"type":"Feature","geometry":{"type":"Point","coordinates":[20.480265,53.739515]},"properties":{"name":"Osiedle Generałów","band":2,"modes":"bus","arr":["117","131","141"],"off":[0,-0.8]}},{"type":"Feature","geometry":{"type":"Point","coordinates":[20.480265,53.739515]},"properties":{"line":"117","mode":"bus","color":"#0059a9","colorDark":"#00294f","band":2,"off":[-3.4,1.1]}},{"type":"Feature","geometry":{"type":"Point","coordinates":[20.480265,53.739515]},"properties":{"line":"131","mode":"bus","color":"#0059a9","colorDark":"#00294f","band":2,"off":[0,1.1]}},{"type":"Feature","geometry":{"type":"Point","coordinates":[20.480265,53.739515]},"properties":{"line":"141","mode":"bus","color":"#0059a9","colorDark":"#00294f","band":2,"off":[3.4,1.1]}},{"type":"Feature","geometry":{"type":"Point","coordinates":[20.493225,53.822488]},"properties":{"name":"Cmentarz Dywity-Brama Wschodnia","band":2,"modes":"bus","arr":["117"],"off":[0,-0.8]}},{"type":"Feature","geometry":{"type":"Point","coordinates":[20.493225,53.822488]},"properties":{"line":"117","mode":"bus","color":"#0059a9","colorDark":"#00294f","band":2,"off":[0,1.1]}},{"type":"Feature","geometry":{"type":"Point","coordinates":[20.478021,53.735682]},"properties":{"name":"Bilitewskiego","band":2,"modes":"bus","arr":["121"],"off":[0,-0.8]}},{"type":"Feature","geometry":{"type":"Point","coordinates":[20.478021,53.735682]},"properties":{"line":"121","mode":"bus","color":"#0059a9","colorDark":"#00294f","band":2,"off":[0,1.1]}},{"type":"Feature","geometry":{"type":"Point","coordinates":[20.472514,53.717876]},"properties":{"name":"Bartąska-Rondo","band":2,"modes":"bus","arr":["126","136"],"off":[0,-0.8]}},{"type":"Feature","geometry":{"type":"Point","coordinates":[20.472514,53.717876]},"properties":{"line":"126","mode":"bus","color":"#0059a9","colorDark":"#00294f","band":2,"off":[-1.7,1.1]}},{"type":"Feature","geometry":{"type":"Point","coordinates":[20.472514,53.717876]},"properties":{"line":"136","mode":"bus","color":"#0059a9","colorDark":"#00294f","band":2,"off":[1.7,1.1]}},{"type":"Feature","geometry":{"type":"Point","coordinates":[20.516728,53.809272]},"properties":{"name":"Jagiellońska-Ogrody","band":2,"modes":"bus","arr":["126"],"off":[0,-0.8]}},{"type":"Feature","geometry":{"type":"Point","coordinates":[20.516728,53.809272]},"properties":{"line":"126","mode":"bus","color":"#0059a9","colorDark":"#00294f","band":2,"off":[0,1.1]}},{"type":"Feature","geometry":{"type":"Point","coordinates":[20.495857,53.735705]},"properties":{"name":"Witosa","band":2,"modes":"bus","arr":["127"],"off":[0,-0.8]}},{"type":"Feature","geometry":{"type":"Point","coordinates":[20.495857,53.735705]},"properties":{"line":"127","mode":"bus","color":"#0059a9","colorDark":"#00294f","band":2,"off":[0,1.1]}},{"type":"Feature","geometry":{"type":"Point","coordinates":[20.471894,53.746917]},"properties":{"name":"Brzeziny","band":2,"modes":"bus","arr":["128"],"off":[0,-0.8]}},{"type":"Feature","geometry":{"type":"Point","coordinates":[20.471894,53.746917]},"properties":{"line":"128","mode":"bus","color":"#0059a9","colorDark":"#00294f","band":2,"off":[0,1.1]}},{"type":"Feature","geometry":{"type":"Point","coordinates":[20.550119,53.777396]},"properties":{"name":"Koopress","band":2,"modes":"bus","arr":["128"],"off":[0,-0.8]}},{"type":"Feature","geometry":{"type":"Point","coordinates":[20.550119,53.777396]},"properties":{"line":"128","mode":"bus","color":"#0059a9","colorDark":"#00294f","band":2,"off":[0,1.1]}},{"type":"Feature","geometry":{"type":"Point","coordinates":[20.518338,53.740165]},"properties":{"name":"Pieczewo","band":2,"modes":"tram,bus","arr":["4","5","130","132"],"off":[0,-0.8]}},{"type":"Feature","geometry":{"type":"Point","coordinates":[20.518338,53.740165]},"properties":{"line":"4","mode":"tram","color":"#d6212b","colorDark":"#7c1116","band":2,"off":[-5.1,1.1]}},{"type":"Feature","geometry":{"type":"Point","coordinates":[20.518338,53.740165]},"properties":{"line":"5","mode":"tram","color":"#d6212b","colorDark":"#7c1116","band":2,"off":[-1.7,1.1]}},{"type":"Feature","geometry":{"type":"Point","coordinates":[20.518338,53.740165]},"properties":{"line":"130","mode":"bus","color":"#0059a9","colorDark":"#00294f","band":2,"off":[1.7,1.1]}},{"type":"Feature","geometry":{"type":"Point","coordinates":[20.518338,53.740165]},"properties":{"line":"132","mode":"bus","color":"#0059a9","colorDark":"#00294f","band":2,"off":[5.1,1.1]}},{"type":"Feature","geometry":{"type":"Point","coordinates":[20.310753,53.828069]},"properties":{"name":"Jonkowo","band":2,"modes":"bus","arr":["145"],"off":[0,-0.8]}},{"type":"Feature","geometry":{"type":"Point","coordinates":[20.310753,53.828069]},"properties":{"line":"145","mode":"bus","color":"#0059a9","colorDark":"#00294f","band":2,"off":[0,1.1]}},{"type":"Feature","geometry":{"type":"Point","coordinates":[20.493656,53.732405]},"properties":{"name":"Tęczowy Las","band":2,"modes":"bus","arr":["205"],"off":[0,-0.8]}},{"type":"Feature","geometry":{"type":"Point","coordinates":[20.493656,53.732405]},"properties":{"line":"205","mode":"bus","color":"#0059a9","colorDark":"#00294f","band":2,"off":[0,1.1]}},{"type":"Feature","geometry":{"type":"Point","coordinates":[20.502877,53.736703]},"properties":{"name":"Kanta","band":2,"modes":"tram","arr":["1","2"],"off":[0,-0.8]}},{"type":"Feature","geometry":{"type":"Point","coordinates":[20.502877,53.736703]},"properties":{"line":"1","mode":"tram","color":"#d6212b","colorDark":"#7c1116","band":2,"off":[-1.7,1.1]}},{"type":"Feature","geometry":{"type":"Point","coordinates":[20.502877,53.736703]},"properties":{"line":"2","mode":"tram","color":"#d6212b","colorDark":"#7c1116","band":2,"off":[1.7,1.1]}},{"type":"Feature","geometry":{"type":"Point","coordinates":[20.462388,53.758216]},"properties":{"name":"Uniwersytet-Prawocheńskiego","band":2,"modes":"tram","arr":["3"],"off":[0,-0.8]}},{"type":"Feature","geometry":{"type":"Point","coordinates":[20.462388,53.758216]},"properties":{"line":"3","mode":"tram","color":"#d6212b","colorDark":"#7c1116","band":2,"off":[0,1.1]}},{"type":"Feature","geometry":{"type":"Point","coordinates":[20.539002,53.79581]},"properties":{"name":"Track","band":3,"modes":"bus","arr":["101"],"off":[0,-0.8]}},{"type":"Feature","geometry":{"type":"Point","coordinates":[20.539002,53.79581]},"properties":{"line":"101","mode":"bus","color":"#0059a9","colorDark":"#00294f","band":3,"off":[0,1.1]}},{"type":"Feature","geometry":{"type":"Point","coordinates":[20.546192,53.803879]},"properties":{"name":"Indykpol","band":3,"modes":"bus","arr":["131","132"],"off":[0,-0.8]}},{"type":"Feature","geometry":{"type":"Point","coordinates":[20.546192,53.803879]},"properties":{"line":"131","mode":"bus","color":"#0059a9","colorDark":"#00294f","band":3,"off":[-1.7,1.1]}},{"type":"Feature","geometry":{"type":"Point","coordinates":[20.546192,53.803879]},"properties":{"line":"132","mode":"bus","color":"#0059a9","colorDark":"#00294f","band":3,"off":[1.7,1.1]}},{"type":"Feature","geometry":{"type":"Point","coordinates":[20.509637,53.790792]},"properties":{"name":"Poprzeczna","band":3,"modes":"bus","arr":["119"],"off":[0,-0.8]}},{"type":"Feature","geometry":{"type":"Point","coordinates":[20.509637,53.790792]},"properties":{"line":"119","mode":"bus","color":"#0059a9","colorDark":"#00294f","band":3,"off":[0,1.1]}},{"type":"Feature","geometry":{"type":"Point","coordinates":[20.478663,53.777191]},"properties":{"name":"Wysoka Brama","band":3,"modes":"tram,bus","arr":["1","5","135"],"off":[0,-0.8]}},{"type":"Feature","geometry":{"type":"Point","coordinates":[20.478663,53.777191]},"properties":{"line":"1","mode":"tram","color":"#d6212b","colorDark":"#7c1116","band":3,"off":[-3.4,1.1]}},{"type":"Feature","geometry":{"type":"Point","coordinates":[20.478663,53.777191]},"properties":{"line":"5","mode":"tram","color":"#d6212b","colorDark":"#7c1116","band":3,"off":[0,1.1]}},{"type":"Feature","geometry":{"type":"Point","coordinates":[20.478663,53.777191]},"properties":{"line":"135","mode":"bus","color":"#0059a9","colorDark":"#00294f","band":3,"off":[3.4,1.1]}},{"type":"Feature","geometry":{"type":"Point","coordinates":[20.475182,53.773513]},"properties":{"name":"Plac Roosevelta","band":3,"modes":"bus","arr":["145"],"off":[0,-0.8]}},{"type":"Feature","geometry":{"type":"Point","coordinates":[20.475182,53.773513]},"properties":{"line":"145","mode":"bus","color":"#0059a9","colorDark":"#00294f","band":3,"off":[0,1.1]}},{"type":"Feature","geometry":{"type":"Point","coordinates":[20.439514,53.80968]},"properties":{"name":"Redykajny","band":3,"modes":"bus","arr":["101","127"],"off":[0,-0.8]}},{"type":"Feature","geometry":{"type":"Point","coordinates":[20.439514,53.80968]},"properties":{"line":"101","mode":"bus","color":"#0059a9","colorDark":"#00294f","band":3,"off":[-1.7,1.1]}},{"type":"Feature","geometry":{"type":"Point","coordinates":[20.439514,53.80968]},"properties":{"line":"127","mode":"bus","color":"#0059a9","colorDark":"#00294f","band":3,"off":[1.7,1.1]}},{"type":"Feature","geometry":{"type":"Point","coordinates":[20.498308,53.784478]},"properties":{"name":"Dworzec Główny","band":3,"modes":"tram,bus","arr":["2","3","4","103","108","112","114","115","124","125","304","N01","N02"],"off":[0,-0.8]}},{"type":"Feature","geometry":{"type":"Point","coordinates":[20.498308,53.784478]},"properties":{"line":"2","mode":"tram","color":"#d6212b","colorDark":"#7c1116","band":3,"off":[-6.8,1.1]}},{"type":"Feature","geometry":{"type":"Point","coordinates":[20.498308,53.784478]},"properties":{"line":"3","mode":"tram","color":"#d6212b","colorDark":"#7c1116","band":3,"off":[-3.4,1.1]}},{"type":"Feature","geometry":{"type":"Point","coordinates":[20.498308,53.784478]},"properties":{"line":"4","mode":"tram","color":"#d6212b","colorDark":"#7c1116","band":3,"off":[0,1.1]}},{"type":"Feature","geometry":{"type":"Point","coordinates":[20.498308,53.784478]},"properties":{"line":"103","mode":"bus","color":"#0059a9","colorDark":"#00294f","band":3,"off":[3.4,1.1]}},{"type":"Feature","geometry":{"type":"Point","coordinates":[20.498308,53.784478]},"properties":{"line":"108","mode":"bus","color":"#0059a9","colorDark":"#00294f","band":3,"off":[6.8,1.1]}},{"type":"Feature","geometry":{"type":"Point","coordinates":[20.498308,53.784478]},"properties":{"line":"112","mode":"bus","color":"#0059a9","colorDark":"#00294f","band":3,"off":[-6.8,3.1]}},{"type":"Feature","geometry":{"type":"Point","coordinates":[20.498308,53.784478]},"properties":{"line":"114","mode":"bus","color":"#0059a9","colorDark":"#00294f","band":3,"off":[-3.4,3.1]}},{"type":"Feature","geometry":{"type":"Point","coordinates":[20.498308,53.784478]},"properties":{"line":"115","mode":"bus","color":"#0059a9","colorDark":"#00294f","band":3,"off":[0,3.1]}},{"type":"Feature","geometry":{"type":"Point","coordinates":[20.498308,53.784478]},"properties":{"line":"124","mode":"bus","color":"#0059a9","colorDark":"#00294f","band":3,"off":[3.4,3.1]}},{"type":"Feature","geometry":{"type":"Point","coordinates":[20.498308,53.784478]},"properties":{"line":"125","mode":"bus","color":"#0059a9","colorDark":"#00294f","band":3,"off":[6.8,3.1]}},{"type":"Feature","geometry":{"type":"Point","coordinates":[20.498308,53.784478]},"properties":{"line":"304","mode":"bus","color":"#0059a9","colorDark":"#00294f","band":3,"off":[-3.4,5.1]}},{"type":"Feature","geometry":{"type":"Point","coordinates":[20.498308,53.784478]},"properties":{"line":"N01","mode":"bus","color":"#000000","colorDark":"#000000","band":3,"off":[0,5.1]}},{"type":"Feature","geometry":{"type":"Point","coordinates":[20.498308,53.784478]},"properties":{"line":"N02","mode":"bus","color":"#000000","colorDark":"#000000","band":3,"off":[3.4,5.1]}},{"type":"Feature","geometry":{"type":"Point","coordinates":[20.454781,53.744851]},"properties":{"name":"Stary Dwór","band":3,"modes":"bus","arr":["103","119","130"],"off":[0,-0.8]}},{"type":"Feature","geometry":{"type":"Point","coordinates":[20.454781,53.744851]},"properties":{"line":"103","mode":"bus","color":"#0059a9","colorDark":"#00294f","band":3,"off":[-3.4,1.1]}},{"type":"Feature","geometry":{"type":"Point","coordinates":[20.454781,53.744851]},"properties":{"line":"119","mode":"bus","color":"#0059a9","colorDark":"#00294f","band":3,"off":[0,1.1]}},{"type":"Feature","geometry":{"type":"Point","coordinates":[20.454781,53.744851]},"properties":{"line":"130","mode":"bus","color":"#0059a9","colorDark":"#00294f","band":3,"off":[3.4,1.1]}},{"type":"Feature","geometry":{"type":"Point","coordinates":[20.474461,53.767076]},"properties":{"name":"Borkowskiego","band":3,"modes":"bus","arr":["105"],"off":[0,-0.8]}},{"type":"Feature","geometry":{"type":"Point","coordinates":[20.474461,53.767076]},"properties":{"line":"105","mode":"bus","color":"#0059a9","colorDark":"#00294f","band":3,"off":[0,1.1]}},{"type":"Feature","geometry":{"type":"Point","coordinates":[20.574033,53.734977]},"properties":{"name":"Klewki","band":3,"modes":"bus","arr":["105"],"off":[0,-0.8]}},{"type":"Feature","geometry":{"type":"Point","coordinates":[20.574033,53.734977]},"properties":{"line":"105","mode":"bus","color":"#0059a9","colorDark":"#00294f","band":3,"off":[0,1.1]}},{"type":"Feature","geometry":{"type":"Point","coordinates":[20.513281,53.760341]},"properties":{"name":"Osiedle Mazurskie","band":3,"modes":"bus","arr":["113"],"off":[0,-0.8]}},{"type":"Feature","geometry":{"type":"Point","coordinates":[20.513281,53.760341]},"properties":{"line":"113","mode":"bus","color":"#0059a9","colorDark":"#00294f","band":3,"off":[0,1.1]}},{"type":"Feature","geometry":{"type":"Point","coordinates":[20.540052,53.783871]},"properties":{"name":"Cementowa","band":3,"modes":"bus","arr":["106","121","141"],"off":[0,-0.8]}},{"type":"Feature","geometry":{"type":"Point","coordinates":[20.540052,53.783871]},"properties":{"line":"106","mode":"bus","color":"#0059a9","colorDark":"#00294f","band":3,"off":[-3.4,1.1]}},{"type":"Feature","geometry":{"type":"Point","coordinates":[20.540052,53.783871]},"properties":{"line":"121","mode":"bus","color":"#0059a9","colorDark":"#00294f","band":3,"off":[0,1.1]}},{"type":"Feature","geometry":{"type":"Point","coordinates":[20.540052,53.783871]},"properties":{"line":"141","mode":"bus","color":"#0059a9","colorDark":"#00294f","band":3,"off":[3.4,1.1]}},{"type":"Feature","geometry":{"type":"Point","coordinates":[20.394588,53.808635]},"properties":{"name":"Gutkowo","band":3,"modes":"bus","arr":["106","111"],"off":[0,-0.8]}},{"type":"Feature","geometry":{"type":"Point","coordinates":[20.394588,53.808635]},"properties":{"line":"106","mode":"bus","color":"#0059a9","colorDark":"#00294f","band":3,"off":[-1.7,1.1]}},{"type":"Feature","geometry":{"type":"Point","coordinates":[20.394588,53.808635]},"properties":{"line":"111","mode":"bus","color":"#0059a9","colorDark":"#00294f","band":3,"off":[1.7,1.1]}},{"type":"Feature","geometry":{"type":"Point","coordinates":[20.481715,53.797248]},"properties":{"name":"Jakubowo","band":3,"modes":"bus","arr":["107"],"off":[0,-0.8]}},{"type":"Feature","geometry":{"type":"Point","coordinates":[20.481715,53.797248]},"properties":{"line":"107","mode":"bus","color":"#0059a9","colorDark":"#00294f","band":3,"off":[0,1.1]}},{"type":"Feature","geometry":{"type":"Point","coordinates":[20.373315,53.781883]},"properties":{"name":"Łupstych","band":3,"modes":"bus","arr":["107"],"off":[0,-0.8]}},{"type":"Feature","geometry":{"type":"Point","coordinates":[20.373315,53.781883]},"properties":{"line":"107","mode":"bus","color":"#0059a9","colorDark":"#00294f","band":3,"off":[0,1.1]}},{"type":"Feature","geometry":{"type":"Point","coordinates":[20.416859,53.768204]},"properties":{"name":"Dajtki","band":3,"modes":"bus","arr":["113"],"off":[0,-0.8]}},{"type":"Feature","geometry":{"type":"Point","coordinates":[20.416859,53.768204]},"properties":{"line":"113","mode":"bus","color":"#0059a9","colorDark":"#00294f","band":3,"off":[0,1.1]}},{"type":"Feature","geometry":{"type":"Point","coordinates":[20.506906,53.802666]},"properties":{"name":"Jagiellońska-Szpital","band":3,"modes":"bus","arr":["136"],"off":[0,-0.8]}},{"type":"Feature","geometry":{"type":"Point","coordinates":[20.506906,53.802666]},"properties":{"line":"136","mode":"bus","color":"#0059a9","colorDark":"#00294f","band":3,"off":[0,1.1]}},{"type":"Feature","geometry":{"type":"Point","coordinates":[20.502067,53.79845]},"properties":{"name":"Osiedle Podleśna","band":3,"modes":"bus","arr":["109"],"off":[0,-0.8]}},{"type":"Feature","geometry":{"type":"Point","coordinates":[20.502067,53.79845]},"properties":{"line":"109","mode":"bus","color":"#0059a9","colorDark":"#00294f","band":3,"off":[0,1.1]}},{"type":"Feature","geometry":{"type":"Point","coordinates":[20.44874,53.751755]},"properties":{"name":"Słoneczny Stok","band":3,"modes":"bus","arr":["109"],"off":[0,-0.8]}},{"type":"Feature","geometry":{"type":"Point","coordinates":[20.44874,53.751755]},"properties":{"line":"109","mode":"bus","color":"#0059a9","colorDark":"#00294f","band":3,"off":[0,1.1]}},{"type":"Feature","geometry":{"type":"Point","coordinates":[20.528725,53.769323]},"properties":{"name":"Polmozbyt","band":3,"modes":"bus","arr":["110","135"],"off":[0,-0.8]}},{"type":"Feature","geometry":{"type":"Point","coordinates":[20.528725,53.769323]},"properties":{"line":"110","mode":"bus","color":"#0059a9","colorDark":"#00294f","band":3,"off":[-1.7,1.1]}},{"type":"Feature","geometry":{"type":"Point","coordinates":[20.528725,53.769323]},"properties":{"line":"135","mode":"bus","color":"#0059a9","colorDark":"#00294f","band":3,"off":[1.7,1.1]}},{"type":"Feature","geometry":{"type":"Point","coordinates":[20.438913,53.874907]},"properties":{"name":"Spręcowo-Szkoła","band":3,"modes":"bus","arr":["110"],"off":[0,-0.8]}},{"type":"Feature","geometry":{"type":"Point","coordinates":[20.438913,53.874907]},"properties":{"line":"110","mode":"bus","color":"#0059a9","colorDark":"#00294f","band":3,"off":[0,1.1]}},{"type":"Feature","geometry":{"type":"Point","coordinates":[20.500007,53.753453]},"properties":{"name":"Nagórki","band":3,"modes":"bus","arr":["111"],"off":[0,-0.8]}},{"type":"Feature","geometry":{"type":"Point","coordinates":[20.500007,53.753453]},"properties":{"line":"111","mode":"bus","color":"#0059a9","colorDark":"#00294f","band":3,"off":[0,1.1]}},{"type":"Feature","geometry":{"type":"Point","coordinates":[20.486127,53.754715]},"properties":{"name":"Galeria Warmińska","band":3,"modes":"bus","arr":["205"],"off":[0,-0.8]}},{"type":"Feature","geometry":{"type":"Point","coordinates":[20.486127,53.754715]},"properties":{"line":"205","mode":"bus","color":"#0059a9","colorDark":"#00294f","band":3,"off":[0,1.1]}},{"type":"Feature","geometry":{"type":"Point","coordinates":[20.694786,53.840391]},"properties":{"name":"Barczewo","band":3,"modes":"bus","arr":["114","124"],"off":[0,-0.8]}},{"type":"Feature","geometry":{"type":"Point","coordinates":[20.694786,53.840391]},"properties":{"line":"114","mode":"bus","color":"#0059a9","colorDark":"#00294f","band":3,"off":[-1.7,1.1]}},{"type":"Feature","geometry":{"type":"Point","coordinates":[20.694786,53.840391]},"properties":{"line":"124","mode":"bus","color":"#0059a9","colorDark":"#00294f","band":3,"off":[1.7,1.1]}},{"type":"Feature","geometry":{"type":"Point","coordinates":[20.601782,53.790529]},"properties":{"name":"Wójtowo-Leszczynowa","band":3,"modes":"bus","arr":["304"],"off":[0,-0.8]}},{"type":"Feature","geometry":{"type":"Point","coordinates":[20.601782,53.790529]},"properties":{"line":"304","mode":"bus","color":"#0059a9","colorDark":"#00294f","band":3,"off":[0,1.1]}},{"type":"Feature","geometry":{"type":"Point","coordinates":[20.480265,53.739515]},"properties":{"name":"Osiedle Generałów","band":3,"modes":"bus","arr":["117","131","141"],"off":[0,-0.8]}},{"type":"Feature","geometry":{"type":"Point","coordinates":[20.480265,53.739515]},"properties":{"line":"117","mode":"bus","color":"#0059a9","colorDark":"#00294f","band":3,"off":[-3.4,1.1]}},{"type":"Feature","geometry":{"type":"Point","coordinates":[20.480265,53.739515]},"properties":{"line":"131","mode":"bus","color":"#0059a9","colorDark":"#00294f","band":3,"off":[0,1.1]}},{"type":"Feature","geometry":{"type":"Point","coordinates":[20.480265,53.739515]},"properties":{"line":"141","mode":"bus","color":"#0059a9","colorDark":"#00294f","band":3,"off":[3.4,1.1]}},{"type":"Feature","geometry":{"type":"Point","coordinates":[20.493225,53.822488]},"properties":{"name":"Cmentarz Dywity-Brama Wschodnia","band":3,"modes":"bus","arr":["117"],"off":[0,-0.8]}},{"type":"Feature","geometry":{"type":"Point","coordinates":[20.493225,53.822488]},"properties":{"line":"117","mode":"bus","color":"#0059a9","colorDark":"#00294f","band":3,"off":[0,1.1]}},{"type":"Feature","geometry":{"type":"Point","coordinates":[20.478021,53.735682]},"properties":{"name":"Bilitewskiego","band":3,"modes":"bus","arr":["121"],"off":[0,-0.8]}},{"type":"Feature","geometry":{"type":"Point","coordinates":[20.478021,53.735682]},"properties":{"line":"121","mode":"bus","color":"#0059a9","colorDark":"#00294f","band":3,"off":[0,1.1]}},{"type":"Feature","geometry":{"type":"Point","coordinates":[20.472514,53.717876]},"properties":{"name":"Bartąska-Rondo","band":3,"modes":"bus","arr":["126","136"],"off":[0,-0.8]}},{"type":"Feature","geometry":{"type":"Point","coordinates":[20.472514,53.717876]},"properties":{"line":"126","mode":"bus","color":"#0059a9","colorDark":"#00294f","band":3,"off":[-1.7,1.1]}},{"type":"Feature","geometry":{"type":"Point","coordinates":[20.472514,53.717876]},"properties":{"line":"136","mode":"bus","color":"#0059a9","colorDark":"#00294f","band":3,"off":[1.7,1.1]}},{"type":"Feature","geometry":{"type":"Point","coordinates":[20.516728,53.809272]},"properties":{"name":"Jagiellońska-Ogrody","band":3,"modes":"bus","arr":["126"],"off":[0,-0.8]}},{"type":"Feature","geometry":{"type":"Point","coordinates":[20.516728,53.809272]},"properties":{"line":"126","mode":"bus","color":"#0059a9","colorDark":"#00294f","band":3,"off":[0,1.1]}},{"type":"Feature","geometry":{"type":"Point","coordinates":[20.495857,53.735705]},"properties":{"name":"Witosa","band":3,"modes":"bus","arr":["127"],"off":[0,-0.8]}},{"type":"Feature","geometry":{"type":"Point","coordinates":[20.495857,53.735705]},"properties":{"line":"127","mode":"bus","color":"#0059a9","colorDark":"#00294f","band":3,"off":[0,1.1]}},{"type":"Feature","geometry":{"type":"Point","coordinates":[20.471894,53.746917]},"properties":{"name":"Brzeziny","band":3,"modes":"bus","arr":["128"],"off":[0,-0.8]}},{"type":"Feature","geometry":{"type":"Point","coordinates":[20.471894,53.746917]},"properties":{"line":"128","mode":"bus","color":"#0059a9","colorDark":"#00294f","band":3,"off":[0,1.1]}},{"type":"Feature","geometry":{"type":"Point","coordinates":[20.550119,53.777396]},"properties":{"name":"Koopress","band":3,"modes":"bus","arr":["128"],"off":[0,-0.8]}},{"type":"Feature","geometry":{"type":"Point","coordinates":[20.550119,53.777396]},"properties":{"line":"128","mode":"bus","color":"#0059a9","colorDark":"#00294f","band":3,"off":[0,1.1]}},{"type":"Feature","geometry":{"type":"Point","coordinates":[20.517784,53.740241]},"properties":{"name":"Pieczewo","band":3,"modes":"bus","arr":["130","132"],"off":[0,-0.8]}},{"type":"Feature","geometry":{"type":"Point","coordinates":[20.517784,53.740241]},"properties":{"line":"130","mode":"bus","color":"#0059a9","colorDark":"#00294f","band":3,"off":[-1.7,1.1]}},{"type":"Feature","geometry":{"type":"Point","coordinates":[20.517784,53.740241]},"properties":{"line":"132","mode":"bus","color":"#0059a9","colorDark":"#00294f","band":3,"off":[1.7,1.1]}},{"type":"Feature","geometry":{"type":"Point","coordinates":[20.310753,53.828069]},"properties":{"name":"Jonkowo","band":3,"modes":"bus","arr":["145"],"off":[0,-0.8]}},{"type":"Feature","geometry":{"type":"Point","coordinates":[20.310753,53.828069]},"properties":{"line":"145","mode":"bus","color":"#0059a9","colorDark":"#00294f","band":3,"off":[0,1.1]}},{"type":"Feature","geometry":{"type":"Point","coordinates":[20.493656,53.732405]},"properties":{"name":"Tęczowy Las","band":3,"modes":"bus","arr":["205"],"off":[0,-0.8]}},{"type":"Feature","geometry":{"type":"Point","coordinates":[20.493656,53.732405]},"properties":{"line":"205","mode":"bus","color":"#0059a9","colorDark":"#00294f","band":3,"off":[0,1.1]}},{"type":"Feature","geometry":{"type":"Point","coordinates":[20.502877,53.736703]},"properties":{"name":"Kanta","band":3,"modes":"tram","arr":["1","2"],"off":[0,-0.8]}},{"type":"Feature","geometry":{"type":"Point","coordinates":[20.502877,53.736703]},"properties":{"line":"1","mode":"tram","color":"#d6212b","colorDark":"#7c1116","band":3,"off":[-1.7,1.1]}},{"type":"Feature","geometry":{"type":"Point","coordinates":[20.502877,53.736703]},"properties":{"line":"2","mode":"tram","color":"#d6212b","colorDark":"#7c1116","band":3,"off":[1.7,1.1]}},{"type":"Feature","geometry":{"type":"Point","coordinates":[20.462388,53.758216]},"properties":{"name":"Uniwersytet-Prawocheńskiego","band":3,"modes":"tram","arr":["3"],"off":[0,-0.8]}},{"type":"Feature","geometry":{"type":"Point","coordinates":[20.462388,53.758216]},"properties":{"line":"3","mode":"tram","color":"#d6212b","colorDark":"#7c1116","band":3,"off":[0,1.1]}},{"type":"Feature","geometry":{"type":"Point","coordinates":[20.518891,53.740088]},"properties":{"name":"Pieczewo","band":3,"modes":"tram","arr":["4","5"],"off":[0,-0.8]}},{"type":"Feature","geometry":{"type":"Point","coordinates":[20.518891,53.740088]},"properties":{"line":"4","mode":"tram","color":"#d6212b","colorDark":"#7c1116","band":3,"off":[-1.7,1.1]}},{"type":"Feature","geometry":{"type":"Point","coordinates":[20.518891,53.740088]},"properties":{"line":"5","mode":"tram","color":"#d6212b","colorDark":"#7c1116","band":3,"off":[1.7,1.1]}},{"type":"Feature","geometry":{"type":"Point","coordinates":[20.539002,53.79581]},"properties":{"name":"Track","band":4,"modes":"bus","arr":["101"],"off":[0,-0.8]}},{"type":"Feature","geometry":{"type":"Point","coordinates":[20.539002,53.79581]},"properties":{"line":"101","mode":"bus","color":"#0059a9","colorDark":"#00294f","band":4,"off":[0,1.1]}},{"type":"Feature","geometry":{"type":"Point","coordinates":[20.546192,53.803879]},"properties":{"name":"Indykpol","band":4,"modes":"bus","arr":["131","132"],"off":[0,-0.8]}},{"type":"Feature","geometry":{"type":"Point","coordinates":[20.546192,53.803879]},"properties":{"line":"131","mode":"bus","color":"#0059a9","colorDark":"#00294f","band":4,"off":[-1.7,1.1]}},{"type":"Feature","geometry":{"type":"Point","coordinates":[20.546192,53.803879]},"properties":{"line":"132","mode":"bus","color":"#0059a9","colorDark":"#00294f","band":4,"off":[1.7,1.1]}},{"type":"Feature","geometry":{"type":"Point","coordinates":[20.509637,53.790792]},"properties":{"name":"Poprzeczna","band":4,"modes":"bus","arr":["119"],"off":[0,-0.8]}},{"type":"Feature","geometry":{"type":"Point","coordinates":[20.509637,53.790792]},"properties":{"line":"119","mode":"bus","color":"#0059a9","colorDark":"#00294f","band":4,"off":[0,1.1]}},{"type":"Feature","geometry":{"type":"Point","coordinates":[20.478663,53.777191]},"properties":{"name":"Wysoka Brama","band":4,"modes":"tram,bus","arr":["1","5","135"],"off":[0,-0.8]}},{"type":"Feature","geometry":{"type":"Point","coordinates":[20.478663,53.777191]},"properties":{"line":"1","mode":"tram","color":"#d6212b","colorDark":"#7c1116","band":4,"off":[-3.4,1.1]}},{"type":"Feature","geometry":{"type":"Point","coordinates":[20.478663,53.777191]},"properties":{"line":"5","mode":"tram","color":"#d6212b","colorDark":"#7c1116","band":4,"off":[0,1.1]}},{"type":"Feature","geometry":{"type":"Point","coordinates":[20.478663,53.777191]},"properties":{"line":"135","mode":"bus","color":"#0059a9","colorDark":"#00294f","band":4,"off":[3.4,1.1]}},{"type":"Feature","geometry":{"type":"Point","coordinates":[20.475182,53.773513]},"properties":{"name":"Plac Roosevelta","band":4,"modes":"bus","arr":["145"],"off":[0,-0.8]}},{"type":"Feature","geometry":{"type":"Point","coordinates":[20.475182,53.773513]},"properties":{"line":"145","mode":"bus","color":"#0059a9","colorDark":"#00294f","band":4,"off":[0,1.1]}},{"type":"Feature","geometry":{"type":"Point","coordinates":[20.439514,53.80968]},"properties":{"name":"Redykajny","band":4,"modes":"bus","arr":["101","127"],"off":[0,-0.8]}},{"type":"Feature","geometry":{"type":"Point","coordinates":[20.439514,53.80968]},"properties":{"line":"101","mode":"bus","color":"#0059a9","colorDark":"#00294f","band":4,"off":[-1.7,1.1]}},{"type":"Feature","geometry":{"type":"Point","coordinates":[20.439514,53.80968]},"properties":{"line":"127","mode":"bus","color":"#0059a9","colorDark":"#00294f","band":4,"off":[1.7,1.1]}},{"type":"Feature","geometry":{"type":"Point","coordinates":[20.498324,53.784587]},"properties":{"name":"Dworzec Główny","band":4,"modes":"bus","arr":["103","108","112","114","115","124","125","304","N01","N02"],"off":[0,-0.8]}},{"type":"Feature","geometry":{"type":"Point","coordinates":[20.498324,53.784587]},"properties":{"line":"103","mode":"bus","color":"#0059a9","colorDark":"#00294f","band":4,"off":[-6.8,1.1]}},{"type":"Feature","geometry":{"type":"Point","coordinates":[20.498324,53.784587]},"properties":{"line":"108","mode":"bus","color":"#0059a9","colorDark":"#00294f","band":4,"off":[-3.4,1.1]}},{"type":"Feature","geometry":{"type":"Point","coordinates":[20.498324,53.784587]},"properties":{"line":"112","mode":"bus","color":"#0059a9","colorDark":"#00294f","band":4,"off":[0,1.1]}},{"type":"Feature","geometry":{"type":"Point","coordinates":[20.498324,53.784587]},"properties":{"line":"114","mode":"bus","color":"#0059a9","colorDark":"#00294f","band":4,"off":[3.4,1.1]}},{"type":"Feature","geometry":{"type":"Point","coordinates":[20.498324,53.784587]},"properties":{"line":"115","mode":"bus","color":"#0059a9","colorDark":"#00294f","band":4,"off":[6.8,1.1]}},{"type":"Feature","geometry":{"type":"Point","coordinates":[20.498324,53.784587]},"properties":{"line":"124","mode":"bus","color":"#0059a9","colorDark":"#00294f","band":4,"off":[-6.8,3.1]}},{"type":"Feature","geometry":{"type":"Point","coordinates":[20.498324,53.784587]},"properties":{"line":"125","mode":"bus","color":"#0059a9","colorDark":"#00294f","band":4,"off":[-3.4,3.1]}},{"type":"Feature","geometry":{"type":"Point","coordinates":[20.498324,53.784587]},"properties":{"line":"304","mode":"bus","color":"#0059a9","colorDark":"#00294f","band":4,"off":[0,3.1]}},{"type":"Feature","geometry":{"type":"Point","coordinates":[20.498324,53.784587]},"properties":{"line":"N01","mode":"bus","color":"#000000","colorDark":"#000000","band":4,"off":[3.4,3.1]}},{"type":"Feature","geometry":{"type":"Point","coordinates":[20.498324,53.784587]},"properties":{"line":"N02","mode":"bus","color":"#000000","colorDark":"#000000","band":4,"off":[6.8,3.1]}},{"type":"Feature","geometry":{"type":"Point","coordinates":[20.454781,53.744851]},"properties":{"name":"Stary Dwór","band":4,"modes":"bus","arr":["103","119","130"],"off":[0,-0.8]}},{"type":"Feature","geometry":{"type":"Point","coordinates":[20.454781,53.744851]},"properties":{"line":"103","mode":"bus","color":"#0059a9","colorDark":"#00294f","band":4,"off":[-3.4,1.1]}},{"type":"Feature","geometry":{"type":"Point","coordinates":[20.454781,53.744851]},"properties":{"line":"119","mode":"bus","color":"#0059a9","colorDark":"#00294f","band":4,"off":[0,1.1]}},{"type":"Feature","geometry":{"type":"Point","coordinates":[20.454781,53.744851]},"properties":{"line":"130","mode":"bus","color":"#0059a9","colorDark":"#00294f","band":4,"off":[3.4,1.1]}},{"type":"Feature","geometry":{"type":"Point","coordinates":[20.474461,53.767076]},"properties":{"name":"Borkowskiego","band":4,"modes":"bus","arr":["105"],"off":[0,-0.8]}},{"type":"Feature","geometry":{"type":"Point","coordinates":[20.474461,53.767076]},"properties":{"line":"105","mode":"bus","color":"#0059a9","colorDark":"#00294f","band":4,"off":[0,1.1]}},{"type":"Feature","geometry":{"type":"Point","coordinates":[20.574033,53.734977]},"properties":{"name":"Klewki","band":4,"modes":"bus","arr":["105"],"off":[0,-0.8]}},{"type":"Feature","geometry":{"type":"Point","coordinates":[20.574033,53.734977]},"properties":{"line":"105","mode":"bus","color":"#0059a9","colorDark":"#00294f","band":4,"off":[0,1.1]}},{"type":"Feature","geometry":{"type":"Point","coordinates":[20.513281,53.760341]},"properties":{"name":"Osiedle Mazurskie","band":4,"modes":"bus","arr":["113"],"off":[0,-0.8]}},{"type":"Feature","geometry":{"type":"Point","coordinates":[20.513281,53.760341]},"properties":{"line":"113","mode":"bus","color":"#0059a9","colorDark":"#00294f","band":4,"off":[0,1.1]}},{"type":"Feature","geometry":{"type":"Point","coordinates":[20.540052,53.783871]},"properties":{"name":"Cementowa","band":4,"modes":"bus","arr":["106","121","141"],"off":[0,-0.8]}},{"type":"Feature","geometry":{"type":"Point","coordinates":[20.540052,53.783871]},"properties":{"line":"106","mode":"bus","color":"#0059a9","colorDark":"#00294f","band":4,"off":[-3.4,1.1]}},{"type":"Feature","geometry":{"type":"Point","coordinates":[20.540052,53.783871]},"properties":{"line":"121","mode":"bus","color":"#0059a9","colorDark":"#00294f","band":4,"off":[0,1.1]}},{"type":"Feature","geometry":{"type":"Point","coordinates":[20.540052,53.783871]},"properties":{"line":"141","mode":"bus","color":"#0059a9","colorDark":"#00294f","band":4,"off":[3.4,1.1]}},{"type":"Feature","geometry":{"type":"Point","coordinates":[20.394588,53.808635]},"properties":{"name":"Gutkowo","band":4,"modes":"bus","arr":["106","111"],"off":[0,-0.8]}},{"type":"Feature","geometry":{"type":"Point","coordinates":[20.394588,53.808635]},"properties":{"line":"106","mode":"bus","color":"#0059a9","colorDark":"#00294f","band":4,"off":[-1.7,1.1]}},{"type":"Feature","geometry":{"type":"Point","coordinates":[20.394588,53.808635]},"properties":{"line":"111","mode":"bus","color":"#0059a9","colorDark":"#00294f","band":4,"off":[1.7,1.1]}},{"type":"Feature","geometry":{"type":"Point","coordinates":[20.481715,53.797248]},"properties":{"name":"Jakubowo","band":4,"modes":"bus","arr":["107"],"off":[0,-0.8]}},{"type":"Feature","geometry":{"type":"Point","coordinates":[20.481715,53.797248]},"properties":{"line":"107","mode":"bus","color":"#0059a9","colorDark":"#00294f","band":4,"off":[0,1.1]}},{"type":"Feature","geometry":{"type":"Point","coordinates":[20.373315,53.781883]},"properties":{"name":"Łupstych","band":4,"modes":"bus","arr":["107"],"off":[0,-0.8]}},{"type":"Feature","geometry":{"type":"Point","coordinates":[20.373315,53.781883]},"properties":{"line":"107","mode":"bus","color":"#0059a9","colorDark":"#00294f","band":4,"off":[0,1.1]}},{"type":"Feature","geometry":{"type":"Point","coordinates":[20.416859,53.768204]},"properties":{"name":"Dajtki","band":4,"modes":"bus","arr":["113"],"off":[0,-0.8]}},{"type":"Feature","geometry":{"type":"Point","coordinates":[20.416859,53.768204]},"properties":{"line":"113","mode":"bus","color":"#0059a9","colorDark":"#00294f","band":4,"off":[0,1.1]}},{"type":"Feature","geometry":{"type":"Point","coordinates":[20.506906,53.802666]},"properties":{"name":"Jagiellońska-Szpital","band":4,"modes":"bus","arr":["136"],"off":[0,-0.8]}},{"type":"Feature","geometry":{"type":"Point","coordinates":[20.506906,53.802666]},"properties":{"line":"136","mode":"bus","color":"#0059a9","colorDark":"#00294f","band":4,"off":[0,1.1]}},{"type":"Feature","geometry":{"type":"Point","coordinates":[20.502067,53.79845]},"properties":{"name":"Osiedle Podleśna","band":4,"modes":"bus","arr":["109"],"off":[0,-0.8]}},{"type":"Feature","geometry":{"type":"Point","coordinates":[20.502067,53.79845]},"properties":{"line":"109","mode":"bus","color":"#0059a9","colorDark":"#00294f","band":4,"off":[0,1.1]}},{"type":"Feature","geometry":{"type":"Point","coordinates":[20.44874,53.751755]},"properties":{"name":"Słoneczny Stok","band":4,"modes":"bus","arr":["109"],"off":[0,-0.8]}},{"type":"Feature","geometry":{"type":"Point","coordinates":[20.44874,53.751755]},"properties":{"line":"109","mode":"bus","color":"#0059a9","colorDark":"#00294f","band":4,"off":[0,1.1]}},{"type":"Feature","geometry":{"type":"Point","coordinates":[20.528725,53.769323]},"properties":{"name":"Polmozbyt","band":4,"modes":"bus","arr":["110","135"],"off":[0,-0.8]}},{"type":"Feature","geometry":{"type":"Point","coordinates":[20.528725,53.769323]},"properties":{"line":"110","mode":"bus","color":"#0059a9","colorDark":"#00294f","band":4,"off":[-1.7,1.1]}},{"type":"Feature","geometry":{"type":"Point","coordinates":[20.528725,53.769323]},"properties":{"line":"135","mode":"bus","color":"#0059a9","colorDark":"#00294f","band":4,"off":[1.7,1.1]}},{"type":"Feature","geometry":{"type":"Point","coordinates":[20.438913,53.874907]},"properties":{"name":"Spręcowo-Szkoła","band":4,"modes":"bus","arr":["110"],"off":[0,-0.8]}},{"type":"Feature","geometry":{"type":"Point","coordinates":[20.438913,53.874907]},"properties":{"line":"110","mode":"bus","color":"#0059a9","colorDark":"#00294f","band":4,"off":[0,1.1]}},{"type":"Feature","geometry":{"type":"Point","coordinates":[20.500007,53.753453]},"properties":{"name":"Nagórki","band":4,"modes":"bus","arr":["111"],"off":[0,-0.8]}},{"type":"Feature","geometry":{"type":"Point","coordinates":[20.500007,53.753453]},"properties":{"line":"111","mode":"bus","color":"#0059a9","colorDark":"#00294f","band":4,"off":[0,1.1]}},{"type":"Feature","geometry":{"type":"Point","coordinates":[20.486127,53.754715]},"properties":{"name":"Galeria Warmińska","band":4,"modes":"bus","arr":["205"],"off":[0,-0.8]}},{"type":"Feature","geometry":{"type":"Point","coordinates":[20.486127,53.754715]},"properties":{"line":"205","mode":"bus","color":"#0059a9","colorDark":"#00294f","band":4,"off":[0,1.1]}},{"type":"Feature","geometry":{"type":"Point","coordinates":[20.694786,53.840391]},"properties":{"name":"Barczewo","band":4,"modes":"bus","arr":["114","124"],"off":[0,-0.8]}},{"type":"Feature","geometry":{"type":"Point","coordinates":[20.694786,53.840391]},"properties":{"line":"114","mode":"bus","color":"#0059a9","colorDark":"#00294f","band":4,"off":[-1.7,1.1]}},{"type":"Feature","geometry":{"type":"Point","coordinates":[20.694786,53.840391]},"properties":{"line":"124","mode":"bus","color":"#0059a9","colorDark":"#00294f","band":4,"off":[1.7,1.1]}},{"type":"Feature","geometry":{"type":"Point","coordinates":[20.601782,53.790529]},"properties":{"name":"Wójtowo-Leszczynowa","band":4,"modes":"bus","arr":["304"],"off":[0,-0.8]}},{"type":"Feature","geometry":{"type":"Point","coordinates":[20.601782,53.790529]},"properties":{"line":"304","mode":"bus","color":"#0059a9","colorDark":"#00294f","band":4,"off":[0,1.1]}},{"type":"Feature","geometry":{"type":"Point","coordinates":[20.480265,53.739515]},"properties":{"name":"Osiedle Generałów","band":4,"modes":"bus","arr":["117","131","141"],"off":[0,-0.8]}},{"type":"Feature","geometry":{"type":"Point","coordinates":[20.480265,53.739515]},"properties":{"line":"117","mode":"bus","color":"#0059a9","colorDark":"#00294f","band":4,"off":[-3.4,1.1]}},{"type":"Feature","geometry":{"type":"Point","coordinates":[20.480265,53.739515]},"properties":{"line":"131","mode":"bus","color":"#0059a9","colorDark":"#00294f","band":4,"off":[0,1.1]}},{"type":"Feature","geometry":{"type":"Point","coordinates":[20.480265,53.739515]},"properties":{"line":"141","mode":"bus","color":"#0059a9","colorDark":"#00294f","band":4,"off":[3.4,1.1]}},{"type":"Feature","geometry":{"type":"Point","coordinates":[20.493225,53.822488]},"properties":{"name":"Cmentarz Dywity-Brama Wschodnia","band":4,"modes":"bus","arr":["117"],"off":[0,-0.8]}},{"type":"Feature","geometry":{"type":"Point","coordinates":[20.493225,53.822488]},"properties":{"line":"117","mode":"bus","color":"#0059a9","colorDark":"#00294f","band":4,"off":[0,1.1]}},{"type":"Feature","geometry":{"type":"Point","coordinates":[20.478021,53.735682]},"properties":{"name":"Bilitewskiego","band":4,"modes":"bus","arr":["121"],"off":[0,-0.8]}},{"type":"Feature","geometry":{"type":"Point","coordinates":[20.478021,53.735682]},"properties":{"line":"121","mode":"bus","color":"#0059a9","colorDark":"#00294f","band":4,"off":[0,1.1]}},{"type":"Feature","geometry":{"type":"Point","coordinates":[20.472514,53.717876]},"properties":{"name":"Bartąska-Rondo","band":4,"modes":"bus","arr":["126","136"],"off":[0,-0.8]}},{"type":"Feature","geometry":{"type":"Point","coordinates":[20.472514,53.717876]},"properties":{"line":"126","mode":"bus","color":"#0059a9","colorDark":"#00294f","band":4,"off":[-1.7,1.1]}},{"type":"Feature","geometry":{"type":"Point","coordinates":[20.472514,53.717876]},"properties":{"line":"136","mode":"bus","color":"#0059a9","colorDark":"#00294f","band":4,"off":[1.7,1.1]}},{"type":"Feature","geometry":{"type":"Point","coordinates":[20.516728,53.809272]},"properties":{"name":"Jagiellońska-Ogrody","band":4,"modes":"bus","arr":["126"],"off":[0,-0.8]}},{"type":"Feature","geometry":{"type":"Point","coordinates":[20.516728,53.809272]},"properties":{"line":"126","mode":"bus","color":"#0059a9","colorDark":"#00294f","band":4,"off":[0,1.1]}},{"type":"Feature","geometry":{"type":"Point","coordinates":[20.495857,53.735705]},"properties":{"name":"Witosa","band":4,"modes":"bus","arr":["127"],"off":[0,-0.8]}},{"type":"Feature","geometry":{"type":"Point","coordinates":[20.495857,53.735705]},"properties":{"line":"127","mode":"bus","color":"#0059a9","colorDark":"#00294f","band":4,"off":[0,1.1]}},{"type":"Feature","geometry":{"type":"Point","coordinates":[20.471894,53.746917]},"properties":{"name":"Brzeziny","band":4,"modes":"bus","arr":["128"],"off":[0,-0.8]}},{"type":"Feature","geometry":{"type":"Point","coordinates":[20.471894,53.746917]},"properties":{"line":"128","mode":"bus","color":"#0059a9","colorDark":"#00294f","band":4,"off":[0,1.1]}},{"type":"Feature","geometry":{"type":"Point","coordinates":[20.550119,53.777396]},"properties":{"name":"Koopress","band":4,"modes":"bus","arr":["128"],"off":[0,-0.8]}},{"type":"Feature","geometry":{"type":"Point","coordinates":[20.550119,53.777396]},"properties":{"line":"128","mode":"bus","color":"#0059a9","colorDark":"#00294f","band":4,"off":[0,1.1]}},{"type":"Feature","geometry":{"type":"Point","coordinates":[20.517784,53.740241]},"properties":{"name":"Pieczewo","band":4,"modes":"bus","arr":["130","132"],"off":[0,-0.8]}},{"type":"Feature","geometry":{"type":"Point","coordinates":[20.517784,53.740241]},"properties":{"line":"130","mode":"bus","color":"#0059a9","colorDark":"#00294f","band":4,"off":[-1.7,1.1]}},{"type":"Feature","geometry":{"type":"Point","coordinates":[20.517784,53.740241]},"properties":{"line":"132","mode":"bus","color":"#0059a9","colorDark":"#00294f","band":4,"off":[1.7,1.1]}},{"type":"Feature","geometry":{"type":"Point","coordinates":[20.310753,53.828069]},"properties":{"name":"Jonkowo","band":4,"modes":"bus","arr":["145"],"off":[0,-0.8]}},{"type":"Feature","geometry":{"type":"Point","coordinates":[20.310753,53.828069]},"properties":{"line":"145","mode":"bus","color":"#0059a9","colorDark":"#00294f","band":4,"off":[0,1.1]}},{"type":"Feature","geometry":{"type":"Point","coordinates":[20.493656,53.732405]},"properties":{"name":"Tęczowy Las","band":4,"modes":"bus","arr":["205"],"off":[0,-0.8]}},{"type":"Feature","geometry":{"type":"Point","coordinates":[20.493656,53.732405]},"properties":{"line":"205","mode":"bus","color":"#0059a9","colorDark":"#00294f","band":4,"off":[0,1.1]}},{"type":"Feature","geometry":{"type":"Point","coordinates":[20.502877,53.736703]},"properties":{"name":"Kanta","band":4,"modes":"tram","arr":["1","2"],"off":[0,-0.8]}},{"type":"Feature","geometry":{"type":"Point","coordinates":[20.502877,53.736703]},"properties":{"line":"1","mode":"tram","color":"#d6212b","colorDark":"#7c1116","band":4,"off":[-1.7,1.1]}},{"type":"Feature","geometry":{"type":"Point","coordinates":[20.502877,53.736703]},"properties":{"line":"2","mode":"tram","color":"#d6212b","colorDark":"#7c1116","band":4,"off":[1.7,1.1]}},{"type":"Feature","geometry":{"type":"Point","coordinates":[20.498291,53.784369]},"properties":{"name":"Dworzec Główny","band":4,"modes":"tram","arr":["2","3","4"],"off":[0,-0.8]}},{"type":"Feature","geometry":{"type":"Point","coordinates":[20.498291,53.784369]},"properties":{"line":"2","mode":"tram","color":"#d6212b","colorDark":"#7c1116","band":4,"off":[-3.4,1.1]}},{"type":"Feature","geometry":{"type":"Point","coordinates":[20.498291,53.784369]},"properties":{"line":"3","mode":"tram","color":"#d6212b","colorDark":"#7c1116","band":4,"off":[0,1.1]}},{"type":"Feature","geometry":{"type":"Point","coordinates":[20.498291,53.784369]},"properties":{"line":"4","mode":"tram","color":"#d6212b","colorDark":"#7c1116","band":4,"off":[3.4,1.1]}},{"type":"Feature","geometry":{"type":"Point","coordinates":[20.462388,53.758216]},"properties":{"name":"Uniwersytet-Prawocheńskiego","band":4,"modes":"tram","arr":["3"],"off":[0,-0.8]}},{"type":"Feature","geometry":{"type":"Point","coordinates":[20.462388,53.758216]},"properties":{"line":"3","mode":"tram","color":"#d6212b","colorDark":"#7c1116","band":4,"off":[0,1.1]}},{"type":"Feature","geometry":{"type":"Point","coordinates":[20.518891,53.740088]},"properties":{"name":"Pieczewo","band":4,"modes":"tram","arr":["4","5"],"off":[0,-0.8]}},{"type":"Feature","geometry":{"type":"Point","coordinates":[20.518891,53.740088]},"properties":{"line":"4","mode":"tram","color":"#d6212b","colorDark":"#7c1116","band":4,"off":[-1.7,1.1]}},{"type":"Feature","geometry":{"type":"Point","coordinates":[20.518891,53.740088]},"properties":{"line":"5","mode":"tram","color":"#d6212b","colorDark":"#7c1116","band":4,"off":[1.7,1.1]}}]}