{"type":"FeatureCollection","features":[{"type":"Feature","geometry":{"type":"LineString","coordinates":[[20.5389995574951,53.795841217041],[20.5333499908447,53.7957000732421],[20.5271606445312,53.7974090576171],[20.5461692810058,53.8038101196289],[20.5417098999023,53.8023986816406],[20.5367107391357,53.7985610961914],[20.5277996063232,53.7978591918945],[20.5156307220458,53.7935104370117],[20.5131893157958,53.7915802001953],[20.50969,53.79086],[20.5042495727539,53.7914886474609],[20.499546,53.7892],[20.494680404663,53.7875709533691],[20.4914398193359,53.7878189086914],[20.491163,53.785474],[20.496189,53.784599],[20.49478912,53.7830315],[20.4909706115722,53.7834510803222],[20.4876899719238,53.7826881408691],[20.4871406555175,53.7793312072753],[20.48229901135116,53.777885181856156],[20.478541489032448,53.77719813298909],[20.4752502441406,53.7735786437988],[20.469289779663,53.7761497497558],[20.4631099700927,53.7786102294921],[20.4577598571777,53.7817993164062],[20.4527492523193,53.7847900390625],[20.4448204040527,53.788890838623],[20.4393997192382,53.7912216186523],[20.4353504180908,53.7928390502929],[20.4316902160644,53.7953605651855],[20.4356708526611,53.7984504699707],[20.4407901763916,53.8004302978515],[20.4418392181396,53.8031196594238],[20.4417304992675,53.8049697875976],[20.4406795501708,53.8082084655761],[20.4395008087158,53.8096809387207]]},"properties":{"line":"101","dir":"0","mode":"bus"}},{"type":"Feature","geometry":{"type":"LineString","coordinates":[[20.4395198822021,53.8099899291992],[20.4412899017333,53.8075408935546],[20.4417991638183,53.8053016662597],[20.4418792724609,53.8025588989257],[20.439790725708,53.8000907897949],[20.4346408843994,53.7975006103515],[20.4316101074218,53.7952690124511],[20.4353199005126,53.7927093505859],[20.4407291412353,53.790599822998],[20.4453506469726,53.7881088256835],[20.4514503479003,53.7852516174316],[20.4590702056884,53.7807502746582],[20.4665203094482,53.7770500183105],[20.4704399108886,53.7756118774414],[20.4772701263427,53.7735786437988],[20.4799674723976,53.77777162918228],[20.48229901135116,53.777885181856156],[20.487979888916,53.7797813415527],[20.4898300170898,53.781379699707],[20.4881591796875,53.7826118469238],[20.4912700653076,53.7834281921386],[20.4961891174316,53.7845993041992],[20.4947891235351,53.783031463623],[20.4913597106933,53.7889518737792],[20.4952907562255,53.7892990112304],[20.49967,53.78915],[20.5053806304931,53.7918510437011],[20.50913,53.79091],[20.51315,53.791211],[20.5135192871093,53.791690826416],[20.5167503356933,53.7942810058593],[20.5275802612304,53.7977600097656],[20.536600112915,53.7985305786132],[20.5417709350585,53.8024291992187],[20.545970916748,53.803840637207],[20.5270805358886,53.7974090576171],[20.5354995727539,53.7956085205078],[20.5393199920654,53.7957000732421]]},"properties":{"line":"101","dir":"1","mode":"bus"}},{"type":"Feature","geometry":{"type":"LineString","coordinates":[[20.498326928266643,53.78459612373613],[20.4947891235351,53.783031463623],[20.5013008117675,53.7784118652343],[20.5022506713867,53.7751312255859],[20.5001907348632,53.7723312377929],[20.4971103668212,53.7680511474609],[20.4948806762695,53.7655487060546],[20.48646785511641,53.76688170630494],[20.481159210205,53.7708091735839],[20.4750499725341,53.7726898193359],[20.4689693450927,53.7696495056152],[20.4662399291992,53.7673988342285],[20.4624290466308,53.7606811523437],[20.4611701965332,53.7575302124023],[20.4609794616699,53.7543411254882],[20.4577503204345,53.751708984375],[20.4517993927001,53.7495689392089],[20.4497509002685,53.7477684020996],[20.454719543457,53.7448196411132]]},"properties":{"line":"103","dir":"0","mode":"bus"}},{"type":"Feature","geometry":{"type":"LineString","coordinates":[[20.4553298950195,53.7446594238281],[20.4499893188476,53.7478981018066],[20.4577102661132,53.7515487670898],[20.4613800048828,53.7551498413085],[20.4618797302246,53.7588005065917],[20.4632205963134,53.761661529541],[20.4661102294921,53.7669715881347],[20.4690494537353,53.7693786621093],[20.4788608551025,53.772159576416],[20.4806995391845,53.7709503173828],[20.484677747897962,53.76708239703042],[20.4950504302978,53.7652587890625],[20.4983596801757,53.7689399719238],[20.5011100769042,53.7733306884765],[20.5017299652099,53.7782592773437],[20.4991302490234,53.7834091186523]]},"properties":{"line":"103","dir":"1","mode":"bus"}},{"type":"Feature","geometry":{"type":"LineString","coordinates":[[20.4744701385498,53.7670707702636],[20.4760494232177,53.7687187194824],[20.47359085083,53.7696495056152],[20.4772701263427,53.7735786437988],[20.4799674723976,53.77777162918228],[20.48229901135116,53.777885181856156],[20.48716598317871,53.775797634920565],[20.4911098480224,53.7708206176757],[20.4965000152587,53.7688293457031],[20.4971103668212,53.7680511474609],[20.4948806762695,53.7655487060546],[20.49534034729,53.7642707824707],[20.507080078125,53.7614212036132],[20.5160198211669,53.7580986022949],[20.52077,53.75772],[20.5362491607666,53.7501907348632],[20.5508308410644,53.74462890625],[20.5572109222412,53.7411003112792],[20.573989868164,53.7349281311035]]},"properties":{"line":"105","dir":"0","mode":"bus"}},{"type":"Feature","geometry":{"type":"LineString","coordinates":[[20.5739002227783,53.7352218627929],[20.5569992065429,53.7418899536132],[20.5503005981445,53.745361328125],[20.5355796813964,53.7501106262207],[20.5149402618408,53.7585792541503],[20.5132694244384,53.7603302001953],[20.5047607421875,53.7621917724609],[20.500162785134123,53.763471960545424],[20.4950504302978,53.7652587890625],[20.4960308074951,53.7691307067871],[20.4911098480224,53.7709693908691],[20.48716598317871,53.775797634920565],[20.48229901135116,53.777885181856156],[20.478541489032448,53.77719813298909],[20.4750499725341,53.7726898193359],[20.473159790039,53.7696914672851],[20.475679397583,53.7682609558105],[20.4745006561279,53.7671318054199]]},"properties":{"line":"105","dir":"1","mode":"bus"}},{"type":"Feature","geometry":{"type":"LineString","coordinates":[[20.5400791168212,53.783878326416],[20.5345096588134,53.7858505249023],[20.5291099548339,53.782859802246],[20.5283794403076,53.7774085998535],[20.5316200256347,53.7751197814941],[20.5236301422119,53.78125],[20.511079788208,53.7817192077636],[20.5071601867675,53.7833290100097],[20.498326928266643,53.78459612373613],[20.4947891235351,53.783031463623],[20.5013008117675,53.7784118652343],[20.5022506713867,53.7751312255859],[20.49834485715526,53.773528000550336],[20.489706271105465,53.775899411571494],[20.48229901135116,53.777885181856156],[20.480390548706,53.7799186706542],[20.4683303833007,53.7789688110351],[20.4631099700927,53.7786102294921],[20.4577598571777,53.7817993164062],[20.4527492523193,53.7847900390625],[20.4448204040527,53.788890838623],[20.4393997192382,53.7912216186523],[20.4353504180908,53.7928390502929],[20.4316902160644,53.7953605651855],[20.426809310913,53.7980995178222],[20.4122600555419,53.8004112243652],[20.4080390930175,53.801959991455],[20.4053592681884,53.802879333496],[20.4009494781494,53.8054695129394],[20.3945808410644,53.8086013793945]]},"properties":{"line":"106","dir":"0","mode":"bus"}},{"type":"Feature","geometry":{"type":"LineString","coordinates":[[20.3943290710449,53.8086204528808],[20.4015407562255,53.8048400878906],[20.4046096801757,53.8031196594238],[20.4088897705078,53.8016014099121],[20.4120197296142,53.8004417419433],[20.4270095825195,53.7979507446289],[20.4316101074218,53.7952690124511],[20.4353199005126,53.7927093505859],[20.4407291412353,53.790599822998],[20.4453506469726,53.7881088256835],[20.4514503479003,53.7852516174316],[20.4590702056884,53.7807502746582],[20.4653091430664,53.7779998779296],[20.4701309204101,53.7793807983398],[20.4801502227783,53.7798881530761],[20.48229901135116,53.777885181856156],[20.489706271105465,53.775899411571494],[20.49834485715526,53.773528000550336],[20.5011100769042,53.7733306884765],[20.5017299652099,53.7782592773437],[20.4990501403808,53.7839698791503],[20.5071601867675,53.7830009460449],[20.5090503692626,53.7815208435058],[20.5159397125244,53.7814712524414],[20.5247993469238,53.7804107666015],[20.5283298492431,53.7774391174316],[20.531660079956,53.7751083374023],[20.5252494812011,53.7814407348632],[20.5309696197509,53.7845497131347],[20.5350799560546,53.7856788635253],[20.5396099090576,53.783519744873]]},"properties":{"line":"106","dir":"1","mode":"bus"}},{"type":"Feature","geometry":{"type":"LineString","coordinates":[[20.4816303253173,53.7972297668457],[20.483449935913,53.7957611083984],[20.4892997741699,53.7921714782714],[20.4914398193359,53.7878189086914],[20.491163,53.785474],[20.4961891174316,53.7845993041992],[20.4947891235351,53.783031463623],[20.5013008117675,53.7784118652343],[20.5022506713867,53.7751312255859],[20.5001907348632,53.7723312377929],[20.4960308074951,53.7691307067871],[20.4911098480224,53.7709693908691],[20.48716598317871,53.775797634920565],[20.48229901135116,53.777885181856156],[20.478541489032448,53.77719813298909],[20.4752502441406,53.7735786437988],[20.469289779663,53.7761497497558],[20.4502296447753,53.7742004394531],[20.4447193145751,53.7716789245605],[20.430419921875,53.7686805725097],[20.4279308319091,53.7657890319824],[20.4252700805664,53.7618598937988],[20.4196090698242,53.7618598937988],[20.4169406890869,53.7654190063476],[20.4171104431152,53.7678718566894],[20.3836307525634,53.7706298828125],[20.3752994537353,53.7796592712402],[20.3733005523681,53.7818908691406]]},"properties":{"line":"107","dir":"0","mode":"bus"}},{"type":"Feature","geometry":{"type":"LineString","coordinates":[[20.37327003479,53.7821006774902],[20.3765506744384,53.7791290283203],[20.3851299285888,53.7703895568847],[20.4167709350585,53.7682189941406],[20.4163093566894,53.7646903991699],[20.4182205200195,53.762710571289],[20.4258308410644,53.7624282836914],[20.4279708862304,53.764720916748],[20.4278507232666,53.7680511474609],[20.4354000091552,53.7695388793945],[20.4467697143554,53.7718505859375],[20.4503993988037,53.7739486694335],[20.4665203094482,53.7770500183105],[20.4704399108886,53.7756118774414],[20.4772701263427,53.7735786437988],[20.4799674723976,53.77777162918228],[20.48229901135116,53.777885181856156],[20.48716598317871,53.775797634920565],[20.4911098480224,53.7708206176757],[20.4965000152587,53.7688293457031],[20.4983596801757,53.7689399719238],[20.5011100769042,53.7733306884765],[20.5017299652099,53.7782592773437],[20.498288355943544,53.78470412440593],[20.4913597106933,53.7889518737792],[20.4888896942138,53.7926406860351],[20.4832592010498,53.7958793640136],[20.4821891784667,53.7976303100585]]},"properties":{"line":"107","dir":"1","mode":"bus"}},{"type":"Feature","geometry":{"type":"LineString","coordinates":[[20.498288355943544,53.78470412440593],[20.4913597106933,53.7889518737792],[20.4958801269531,53.7928314208984],[20.4990692138671,53.7963104248046],[20.5019702911376,53.7981414794921],[20.5068798065185,53.802749633789],[20.5126304626464,53.8074493408203],[20.517629623413,53.8094100952148],[20.5232696533203,53.8179016113281],[20.5271301269531,53.8241310119628],[20.5277404785156,53.8282089233398],[20.5273303985595,53.8324089050292],[20.5289096832275,53.8348808288574],[20.5321998596191,53.8399009704589],[20.5340404510498,53.8429107666015],[20.5272502899169,53.8557395935058],[20.5176792144775,53.8566513061523],[20.5008907318115,53.8577308654785],[20.4963798522949,53.8511505126953],[20.4897708892822,53.8459091186523],[20.4848804473876,53.8431587219238],[20.4760398864746,53.8363304138183],[20.4732608795166,53.833381652832],[20.4749393463134,53.8279418945312],[20.4809093475341,53.8227386474609],[20.4930095672607,53.8224296569824],[20.507360458374,53.8214607238769],[20.511079788208,53.8209114074707],[20.5224208831787,53.8171615600585],[20.512279510498,53.8073196411132],[20.5068798065185,53.8026809692382],[20.4997692108154,53.7969589233398],[20.4964408874511,53.7936897277832],[20.4930095672607,53.7912216186523],[20.4914398193359,53.7878189086914],[20.491163,53.785474],[20.4961891174316,53.7845993041992]]},"properties":{"line":"108","dir":"Dworzec Główny","mode":"bus"}},{"type":"Feature","geometry":{"type":"LineString","coordinates":[[20.5021305084228,53.7984390258789],[20.4997692108154,53.7969589233398],[20.4964408874511,53.7936897277832],[20.4930095672607,53.7912216186523],[20.4914398193359,53.7878189086914],[20.491163,53.785474],[20.4909706115722,53.7834510803222],[20.4876899719238,53.7826881408691],[20.4904098510742,53.7813606262207],[20.490794862588366,53.78004858951173],[20.48229901135116,53.777885181856156],[20.478541489032448,53.77719813298909],[20.4750499725341,53.7726898193359],[20.4689693450927,53.7696495056152],[20.4662399291992,53.7673988342285],[20.4624290466308,53.7606811523437],[20.4611701965332,53.7575302124023],[20.4609794616699,53.7543411254882],[20.4577503204345,53.751708984375],[20.4517993927001,53.7495689392089],[20.4497509002685,53.7477684020996],[20.4488296508789,53.7517509460449]]},"properties":{"line":"109","dir":"0","mode":"bus"}},{"type":"Feature","geometry":{"type":"LineString","coordinates":[[20.4491500854492,53.7518196105957],[20.4499893188476,53.7478981018066],[20.4577102661132,53.7515487670898],[20.4613800048828,53.7551498413085],[20.4618797302246,53.7588005065917],[20.4632205963134,53.761661529541],[20.4661102294921,53.7669715881347],[20.4690494537353,53.7693786621093],[20.4772701263427,53.7735786437988],[20.4799674723976,53.77777162918228],[20.48229901135116,53.777885181856156],[20.490794862588366,53.78004858951173],[20.4898300170898,53.781379699707],[20.4881591796875,53.7826118469238],[20.4912700653076,53.7834281921386],[20.4913597106933,53.7889518737792],[20.4958801269531,53.7928314208984],[20.4990692138671,53.7963104248046],[20.5019702911376,53.7981414794921]]},"properties":{"line":"109","dir":"1","mode":"bus"}},{"type":"Feature","geometry":{"type":"LineString","coordinates":[[20.5287609100341,53.7692794799804],[20.5231494903564,53.769790649414],[20.5099201202392,53.7713584899902],[20.512300491333,53.7758102416992],[20.5102405548095,53.7792892456054],[20.5024299621582,53.779239654541],[20.495189666748,53.7787017822265],[20.4912891387939,53.7790603637695],[20.48229901135116,53.777885181856156],[20.480390548706,53.7799186706542],[20.4819202423095,53.7844200134277],[20.4823703765869,53.7887496948242],[20.4823093414306,53.79248046875],[20.4822692871093,53.7941703796386],[20.4821891784667,53.7976112365722],[20.4761905670166,53.8244094848632],[20.4749908447265,53.8282585144042],[20.473440170288,53.8333015441894],[20.4760494232177,53.8363304138183],[20.4745197296142,53.8367385864257],[20.4651298522949,53.8548507690429],[20.4500198364257,53.865379333496],[20.4362506866455,53.8822708129882],[20.4376907348632,53.8796806335449],[20.438640090956348,53.8747062858276]]},"properties":{"line":"110","dir":"0","mode":"bus"}},{"type":"Feature","geometry":{"type":"LineString","coordinates":[[20.438640090956348,53.8747062858276],[20.4376907348632,53.8796806335449],[20.4366607666015,53.8818283081054],[20.4540004730224,53.8638000488281],[20.4655494689941,53.8541297912597],[20.4741897583007,53.8374099731445],[20.4760398864746,53.8363304138183],[20.4732608795166,53.833381652832],[20.4749393463134,53.8279418945312],[20.4766902923583,53.8221588134765],[20.4816303253173,53.7972297668457],[20.4821891784667,53.7931785583496],[20.482229232788,53.7881813049316],[20.4815998077392,53.784381866455],[20.4801502227783,53.7798881530761],[20.48229901135116,53.777885181856156],[20.4912204742431,53.7784385681152],[20.4976406097412,53.778709411621],[20.5036792755126,53.779369354248],[20.5097999572753,53.7791481018066],[20.512300491333,53.778881072998],[20.5115203857421,53.7748489379882],[20.511999130249,53.7698287963867],[20.5219402313232,53.7695388793945],[20.5282897949218,53.7694282531738]]},"properties":{"line":"110","dir":"1","mode":"bus"}},{"type":"Feature","geometry":{"type":"LineString","coordinates":[[20.5000190734863,53.7534408569335],[20.4944190979003,53.7534408569335],[20.4863700866699,53.753620147705],[20.4880790710449,53.7556686401367],[20.4921493530273,53.7565002441406],[20.49974,53.75887],[20.501881945239543,53.76369903599774],[20.5008792877197,53.7674903869628],[20.4960308074951,53.7691307067871],[20.4911098480224,53.7709693908691],[20.48716598317871,53.775797634920565],[20.48229901135116,53.777885181856156],[20.478541489032448,53.77719813298909],[20.4752502441406,53.7735786437988],[20.469289779663,53.7761497497558],[20.4631099700927,53.7786102294921],[20.4577598571777,53.7817993164062],[20.4527492523193,53.7847900390625],[20.4448204040527,53.788890838623],[20.4393997192382,53.7912216186523],[20.4353504180908,53.7928390502929],[20.4316902160644,53.7953605651855],[20.426809310913,53.7980995178222],[20.4122600555419,53.8004112243652],[20.4080390930175,53.801959991455],[20.4053592681884,53.802879333496],[20.4009494781494,53.8054695129394],[20.3945808410644,53.8086013793945]]},"properties":{"line":"111","dir":"0","mode":"bus"}},{"type":"Feature","geometry":{"type":"LineString","coordinates":[[20.3943290710449,53.8086204528808],[20.4015407562255,53.8048400878906],[20.4046096801757,53.8031196594238],[20.4088897705078,53.8016014099121],[20.4120197296142,53.8004417419433],[20.4270095825195,53.7979507446289],[20.4316101074218,53.7952690124511],[20.4353199005126,53.7927093505859],[20.4407291412353,53.790599822998],[20.4453506469726,53.7881088256835],[20.4514503479003,53.7852516174316],[20.4590702056884,53.7807502746582],[20.4665203094482,53.7770500183105],[20.4704399108886,53.7756118774414],[20.4772701263427,53.7735786437988],[20.4799674723976,53.77777162918228],[20.48229901135116,53.777885181856156],[20.48716598317871,53.775797634920565],[20.4911098480224,53.7708206176757],[20.4965000152587,53.7688293457031],[20.5021305084228,53.7668800354003],[20.503435,53.765646],[20.5016593933105,53.763801574707],[20.4983196258544,53.7580604553222],[20.490530014038,53.7561416625976],[20.4860000610351,53.7547187805175],[20.4873504638671,53.7527198791503],[20.4939804077148,53.753318786621],[20.5004692077636,53.7535285949707]]},"properties":{"line":"111","dir":"1","mode":"bus"}},{"type":"Feature","geometry":{"type":"LineString","coordinates":[[20.498288355943544,53.78470412440593],[20.4913597106933,53.7889518737792],[20.4958801269531,53.7928314208984],[20.4990692138671,53.7963104248046],[20.5019702911376,53.7981414794921],[20.5068798065185,53.802749633789],[20.5126304626464,53.8074493408203],[20.517629623413,53.8094100952148],[20.5216007232666,53.8173789978027],[20.5111103057861,53.8209609985351],[20.5074596405029,53.8214988708496],[20.492919921875,53.8225402832031],[20.4812202453613,53.8227386474609],[20.4761905670166,53.8244094848632],[20.4749908447265,53.8282585144042],[20.473440170288,53.8333015441894],[20.477180480957,53.836181640625],[20.4845008850097,53.8425788879394],[20.4892101287841,53.8456001281738],[20.4960498809814,53.8507690429687],[20.5018196105957,53.8575897216796],[20.5183391571044,53.8564186096191],[20.5272502899169,53.8557395935058],[20.5340404510498,53.8429107666015],[20.5318508148193,53.8395500183105],[20.5287704467773,53.8348197937011],[20.5271091461181,53.8324089050292],[20.5275802612304,53.8276596069335],[20.5269393920898,53.8238182067871],[20.5229701995849,53.8174705505371],[20.512279510498,53.8073196411132],[20.5068798065185,53.8026809692382],[20.4997692108154,53.7969589233398],[20.4964408874511,53.7936897277832],[20.4930095672607,53.7912216186523],[20.4914398193359,53.7878189086914],[20.491163,53.785474],[20.4961891174316,53.7845993041992]]},"properties":{"line":"112","dir":"Dworzec Główny","mode":"bus"}},{"type":"Feature","geometry":{"type":"LineString","coordinates":[[20.5132694244384,53.7603302001953],[20.5047607421875,53.7621917724609],[20.501881945239543,53.76369903599774],[20.504893,53.766511],[20.50834672994749,53.7694667073688],[20.504201,53.771994],[20.49834485715526,53.773528000550336],[20.489706271105465,53.775899411571494],[20.48229901135116,53.777885181856156],[20.478541489032448,53.77719813298909],[20.4750499725341,53.7726898193359],[20.4689693450927,53.7696495056152],[20.4662399291992,53.7673988342285],[20.4587802886962,53.7695198059082],[20.4570407867431,53.7714309692382],[20.4502296447753,53.7742004394531],[20.4447193145751,53.7716789245605],[20.430419921875,53.7686805725097],[20.4279308319091,53.7657890319824],[20.4252700805664,53.7618598937988],[20.4196090698242,53.7618598937988],[20.4169406890869,53.7654190063476],[20.4171104431152,53.7680015563964]]},"properties":{"line":"113","dir":"0","mode":"bus"}},{"type":"Feature","geometry":{"type":"LineString","coordinates":[[20.4167709350585,53.7682189941406],[20.4163093566894,53.7646903991699],[20.4182205200195,53.762710571289],[20.4258308410644,53.7624282836914],[20.4279708862304,53.764720916748],[20.4278507232666,53.7680511474609],[20.4354000091552,53.7695388793945],[20.4467697143554,53.7718505859375],[20.4503993988037,53.7739486694335],[20.4566097259521,53.7714309692382],[20.4601001739501,53.7683906555175],[20.4661102294921,53.7669715881347],[20.4690494537353,53.7693786621093],[20.4772701263427,53.7735786437988],[20.4799674723976,53.77777162918228],[20.48229901135116,53.777885181856156],[20.489706271105465,53.775899411571494],[20.49834485715526,53.773528000550336],[20.504159,53.771936],[20.508611139907426,53.77025282995365],[20.503435,53.765646],[20.5016593933105,53.763801574707],[20.507080078125,53.7614212036132],[20.51362991333,53.7599716186523]]},"properties":{"line":"113","dir":"1","mode":"bus"}},{"type":"Feature","geometry":{"type":"LineString","coordinates":[[20.4990501403808,53.7839698791503],[20.498326928266643,53.78459612373613],[20.49478912,53.7830315],[20.5020198822021,53.7815513610839],[20.5090503692626,53.7815208435058],[20.5159397125244,53.7814712524414],[20.5252494812011,53.7814407348632],[20.5315208435058,53.7826118469238],[20.5367202758789,53.781078338623],[20.5961608886718,53.788719177246],[20.599361,53.789583],[20.602439880371,53.7906608581542],[20.615379333496,53.7981300354003],[20.6207695007324,53.8022994995117],[20.6311092376708,53.8087501525878],[20.6424102783203,53.8185806274414],[20.6739292144775,53.8261909484863],[20.6839408874511,53.8305015563964],[20.6899700164794,53.8300514221191],[20.6935195922851,53.833999633789],[20.6946296691894,53.8390007019042],[20.694969177246,53.8403816223144]]},"properties":{"line":"114","dir":"0","mode":"bus"}},{"type":"Feature","geometry":{"type":"LineString","coordinates":[[20.6954402923583,53.8403015136718],[20.6937999725341,53.8350105285644],[20.690050125122,53.8303489685058],[20.6836891174316,53.8305511474609],[20.6718807220458,53.8264083862304],[20.642219543457,53.8185806274414],[20.6292495727539,53.808048248291],[20.6196308135986,53.8015518188476],[20.6140594482421,53.7975006103515],[20.6017398834228,53.7905616760253],[20.598955,53.789579],[20.5936908721923,53.7882003784179],[20.5362491607666,53.7815589904785],[20.5291099548339,53.782859802246],[20.5236301422119,53.78125],[20.511079788208,53.7817192077636],[20.5056896209716,53.78173828125],[20.5007495880126,53.78173828125],[20.4991302490234,53.7834091186523]]},"properties":{"line":"114","dir":"1","mode":"bus"}},{"type":"Feature","geometry":{"type":"LineString","coordinates":[[20.4990501403808,53.7839698791503],[20.498326928266643,53.78459612373613],[20.49478912,53.7830315],[20.5020198822021,53.7815513610839],[20.5090503692626,53.7815208435058],[20.5159397125244,53.7814712524414],[20.5252494812011,53.7814407348632],[20.5315208435058,53.7826118469238],[20.5367202758789,53.781078338623],[20.6017398834228,53.7905616760253],[20.598955,53.789579],[20.593353,53.790942],[20.585219,53.792011],[20.578586,53.796061],[20.576917,53.798611],[20.569969177246,53.8003616333007],[20.566603,53.802305],[20.559912,53.802773],[20.5367107391357,53.7985610961914],[20.5277996063232,53.7978591918945],[20.5156307220458,53.7935104370117],[20.5131893157958,53.7915802001953],[20.50969,53.79086],[20.4964408874511,53.7936897277832],[20.4930095672607,53.7912216186523],[20.4914398193359,53.7878189086914],[20.491163,53.785474],[20.4991302490234,53.7834091186523]]},"properties":{"line":"115","dir":"Dworzec Główny","mode":"bus"}},{"type":"Feature","geometry":{"type":"LineString","coordinates":[[20.4802894592285,53.7394485473632],[20.4844703674316,53.7398796081542],[20.4904193878173,53.7402687072753],[20.4972705841064,53.741600036621],[20.50239944458,53.7413711547851],[20.509167,53.742961],[20.508307089274716,53.745713849533374],[20.503910439659585,53.75045453590315],[20.5034408569335,53.7540206909179],[20.49974,53.75887],[20.501881945239543,53.76369903599774],[20.5008792877197,53.7674903869628],[20.4960308074951,53.7691307067871],[20.4911098480224,53.7709693908691],[20.4940204620361,53.7735481262207],[20.489706271105465,53.775899411571494],[20.48229901135116,53.777885181856156],[20.480390548706,53.7799186706542],[20.4819202423095,53.7844200134277],[20.4823703765869,53.7887496948242],[20.4823093414306,53.79248046875],[20.4822692871093,53.7941703796386],[20.4821891784667,53.7976112365722],[20.4809093475341,53.8227386474609],[20.4932308197021,53.8225212097167]]},"properties":{"line":"117","dir":"0","mode":"bus"}},{"type":"Feature","geometry":{"type":"LineString","coordinates":[[20.4928493499755,53.8225402832031],[20.4812202453613,53.8227386474609],[20.4766902923583,53.8221588134765],[20.4816303253173,53.7972297668457],[20.4821891784667,53.7931785583496],[20.482229232788,53.7881813049316],[20.4815998077392,53.784381866455],[20.4801502227783,53.7798881530761],[20.48229901135116,53.777885181856156],[20.489706271105465,53.775899411571494],[20.4940795898437,53.7742385864257],[20.4911098480224,53.7708206176757],[20.4965000152587,53.7688293457031],[20.5021305084228,53.7668800354003],[20.503435,53.765646],[20.5016593933105,53.763801574707],[20.49966,53.75791],[20.502294925404684,53.75309586113113],[20.50517195483049,53.749409309537064],[20.507846128811593,53.745484138396286],[20.5073,53.74186],[20.5006694793701,53.7416687011718],[20.4957294464111,53.7415313720703],[20.4906196594238,53.7404518127441],[20.4851703643798,53.7401618957519],[20.4796600341796,53.7394485473632]]},"properties":{"line":"117","dir":"1","mode":"bus"}},{"type":"Feature","geometry":{"type":"LineString","coordinates":[[20.50969,53.79086],[20.5042495727539,53.7914886474609],[20.499546,53.7892],[20.494680404663,53.7875709533691],[20.4913597106933,53.7889518737792],[20.48823928833,53.7885398864746],[20.4865207672119,53.7872085571289],[20.4887199401855,53.7857398986816],[20.4909706115722,53.7834510803222],[20.4876899719238,53.7826881408691],[20.4824695587158,53.7816886901855],[20.4801502227783,53.7798881530761],[20.478541489032448,53.77719813298909],[20.4750499725341,53.7726898193359],[20.4689693450927,53.7696495056152],[20.4662399291992,53.7673988342285],[20.4716701507568,53.7652587890625],[20.47114944458,53.7611389160156],[20.4698505401611,53.7586097717285],[20.4670505523681,53.7564697265625],[20.4611701965332,53.7575302124023],[20.4609794616699,53.7543411254882],[20.4577503204345,53.751708984375],[20.457558,53.747243],[20.454719543457,53.7448196411132]]},"properties":{"line":"119","dir":"0","mode":"bus"}},{"type":"Feature","geometry":{"type":"LineString","coordinates":[[20.4553298950195,53.7446594238281],[20.457397,53.747324],[20.4577102661132,53.7515487670898],[20.4613800048828,53.7551498413085],[20.4626808166503,53.7578086853027],[20.4692707061767,53.7578315734863],[20.4713306427001,53.7612190246582],[20.4720096588134,53.7647018432617],[20.4661102294921,53.7669715881347],[20.4690494537353,53.7693786621093],[20.4772701263427,53.7735786437988],[20.4799674723976,53.77777162918228],[20.480390548706,53.7799186706542],[20.4826602935791,53.7816200256347],[20.4881591796875,53.7826118469238],[20.4912700653076,53.7834281921386],[20.4896907806396,53.7868499755859],[20.4877395629882,53.7880516052246],[20.4952907562255,53.7892990112304],[20.49967,53.78915],[20.5053806304931,53.7918510437011],[20.50913,53.79091]]},"properties":{"line":"119","dir":"1","mode":"bus"}},{"type":"Feature","geometry":{"type":"LineString","coordinates":[[20.477970123291,53.735668182373],[20.4791793823242,53.7374992370605],[20.4802894592285,53.7394485473632],[20.4844703674316,53.7398796081542],[20.4904193878173,53.7402687072753],[20.4972705841064,53.741600036621],[20.50239944458,53.7413711547851],[20.509167,53.742961],[20.508307089274716,53.745713849533374],[20.503910439659585,53.75045453590315],[20.5000190734863,53.7534408569335],[20.4944190979003,53.7534408569335],[20.4863700866699,53.753620147705],[20.4880790710449,53.7556686401367],[20.4921493530273,53.7565002441406],[20.49974,53.75887],[20.501881945239543,53.76369903599774],[20.504893,53.766511],[20.50834672994749,53.7694667073688],[20.5099201202392,53.7713584899902],[20.512300491333,53.7758102416992],[20.5102405548095,53.7792892456054],[20.5024299621582,53.779239654541],[20.4990501403808,53.7839698791503],[20.5093898773193,53.7854118347167],[20.513479232788,53.7858505249023],[20.5202903747558,53.7870597839355],[20.5264892578125,53.7867584228515],[20.5295696258544,53.7863998413085],[20.5350799560546,53.7856788635253],[20.5396099090576,53.783519744873]]},"properties":{"line":"121","dir":"0","mode":"bus"}},{"type":"Feature","geometry":{"type":"LineString","coordinates":[[20.5400791168212,53.783878326416],[20.5345096588134,53.7858505249023],[20.5294895172119,53.7864608764648],[20.5258808135986,53.7868995666503],[20.5200405120849,53.7870903015136],[20.5149707794189,53.7861785888671],[20.5084209442138,53.7854614257812],[20.498326928266643,53.78459612373613],[20.4947891235351,53.783031463623],[20.5036792755126,53.779369354248],[20.5097999572753,53.7791481018066],[20.512300491333,53.778881072998],[20.5115203857421,53.7748489379882],[20.509630203247,53.7713584899902],[20.508611139907426,53.77025282995365],[20.503435,53.765646],[20.5016593933105,53.763801574707],[20.4983196258544,53.7580604553222],[20.490530014038,53.7561416625976],[20.4860000610351,53.7547187805175],[20.4873504638671,53.7527198791503],[20.4939804077148,53.753318786621],[20.502294925404684,53.75309586113113],[20.50517195483049,53.749409309537064],[20.507846128811593,53.745484138396286],[20.5073,53.74186],[20.5006694793701,53.7416687011718],[20.4957294464111,53.7415313720703],[20.4906196594238,53.7404518127441],[20.4851703643798,53.7401618957519],[20.4796600341796,53.7394485473632],[20.4790000915527,53.737190246582],[20.477970123291,53.735668182373]]},"properties":{"line":"121","dir":"1","mode":"bus"}},{"type":"Feature","geometry":{"type":"LineString","coordinates":[[20.498288355943544,53.78470412440593],[20.4913597106933,53.7889518737792],[20.4958801269531,53.7928314208984],[20.5053806304931,53.7918510437011],[20.50913,53.79091],[20.51315,53.791211],[20.5135192871093,53.791690826416],[20.5167503356933,53.7942810058593],[20.5275802612304,53.7977600097656],[20.536600112915,53.7985305786132],[20.560717,53.802894],[20.5676307678222,53.8057518005371],[20.6080799102783,53.8173789978027],[20.6170196533203,53.8198204040527],[20.6282997131347,53.8209114074707],[20.6345500946044,53.8208312988281],[20.6424102783203,53.8185806274414],[20.6739292144775,53.8261909484863],[20.6839408874511,53.8305015563964],[20.6899700164794,53.8300514221191],[20.6935195922851,53.833999633789],[20.6946296691894,53.8390007019042],[20.694969177246,53.8403816223144]]},"properties":{"line":"124","dir":"0","mode":"bus"}},{"type":"Feature","geometry":{"type":"LineString","coordinates":[[20.6954402923583,53.8403015136718],[20.6937999725341,53.8350105285644],[20.690050125122,53.8303489685058],[20.6836891174316,53.8305511474609],[20.6718807220458,53.8264083862304],[20.642219543457,53.8185806274414],[20.6369094848632,53.8198013305664],[20.6283798217773,53.8209991455078],[20.6202697753906,53.8205986022949],[20.6077995300292,53.8173789978027],[20.5674705505371,53.8057212829589],[20.559912,53.802773],[20.5367107391357,53.7985610961914],[20.5277996063232,53.7978591918945],[20.5156307220458,53.7935104370117],[20.5131893157958,53.7915802001953],[20.50969,53.79086],[20.4964408874511,53.7936897277832],[20.4930095672607,53.7912216186523],[20.4914398193359,53.7878189086914],[20.491163,53.785474],[20.4961891174316,53.7845993041992]]},"properties":{"line":"124","dir":"1","mode":"bus"}},{"type":"Feature","geometry":{"type":"LineString","coordinates":[[20.498288355943544,53.78470412440593],[20.4913597106933,53.7889518737792],[20.4958801269531,53.7928314208984],[20.5053806304931,53.7918510437011],[20.50913,53.79091],[20.51315,53.791211],[20.5135192871093,53.791690826416],[20.5167503356933,53.7942810058593],[20.5275802612304,53.7977600097656],[20.536600112915,53.7985305786132],[20.560717,53.802894],[20.5665,53.802139],[20.5699100494384,53.8002891540527],[20.576658,53.798686],[20.578844,53.795921],[20.585369,53.791869],[20.593725,53.790923],[20.598955,53.789579],[20.5936908721923,53.7882003784179],[20.5362491607666,53.7815589904785],[20.5291099548339,53.782859802246],[20.5236301422119,53.78125],[20.511079788208,53.7817192077636],[20.5056896209716,53.78173828125],[20.5007495880126,53.78173828125],[20.4991302490234,53.7834091186523]]},"properties":{"line":"125","dir":"Dworzec Główny","mode":"bus"}},{"type":"Feature","geometry":{"type":"LineString","coordinates":[[20.4725494384765,53.7178802490234],[20.4753,53.72544],[20.477733,53.729103],[20.4792404174804,53.7307014465332],[20.4894409179687,53.7337989807128],[20.4904193878173,53.7402687072753],[20.4972705841064,53.741600036621],[20.50239944458,53.7413711547851],[20.509167,53.742961],[20.508307089274716,53.745713849533374],[20.503910439659585,53.75045453590315],[20.5034408569335,53.7540206909179],[20.49974,53.75887],[20.501881945239543,53.76369903599774],[20.504893,53.766511],[20.50834672994749,53.7694667073688],[20.504201,53.771994],[20.5011100769042,53.7733306884765],[20.5017299652099,53.7782592773437],[20.498288355943544,53.78470412440593],[20.4913597106933,53.7889518737792],[20.4958801269531,53.7928314208984],[20.4990692138671,53.7963104248046],[20.5019702911376,53.7981414794921],[20.5068798065185,53.802749633789],[20.5126304626464,53.8074493408203],[20.5167198181152,53.8092193603515]]},"properties":{"line":"126","dir":"0","mode":"bus"}},{"type":"Feature","geometry":{"type":"LineString","coordinates":[[20.5175495147705,53.8095016479492],[20.512279510498,53.8073196411132],[20.5068798065185,53.8026809692382],[20.4997692108154,53.7969589233398],[20.4964408874511,53.7936897277832],[20.4930095672607,53.7912216186523],[20.4914398193359,53.7878189086914],[20.491163,53.785474],[20.4961891174316,53.7845993041992],[20.4947891235351,53.783031463623],[20.5013008117675,53.7784118652343],[20.5022506713867,53.7751312255859],[20.504159,53.771936],[20.508611139907426,53.77025282995365],[20.503435,53.765646],[20.5016593933105,53.763801574707],[20.49966,53.75791],[20.502294925404684,53.75309586113113],[20.50517195483049,53.749409309537064],[20.507846128811593,53.745484138396286],[20.5073,53.74186],[20.5006694793701,53.7416687011718],[20.4957294464111,53.7415313720703],[20.4906196594238,53.7404518127441],[20.4861602783203,53.7394409179687],[20.4896297454833,53.7331581115722],[20.4805507659912,53.7308883666992],[20.477592,53.729117],[20.47516,53.72469],[20.4730205535888,53.7173690795898]]},"properties":{"line":"126","dir":"1","mode":"bus"}},{"type":"Feature","geometry":{"type":"LineString","coordinates":[[20.4958801269531,53.7356300354003],[20.5008697509765,53.7361488342285],[20.5050106048583,53.7365608215332],[20.5091800689697,53.7378616333007],[20.5100708007812,53.7408790588378],[20.5073,53.74186],[20.5006694793701,53.7416687011718],[20.4957294464111,53.7415313720703],[20.4906196594238,53.7404518127441],[20.4865798950195,53.74068069458],[20.4864692687988,53.7433280944824],[20.487319946289,53.747760772705],[20.4863700866699,53.753620147705],[20.4867191314697,53.756721496582],[20.486909866333,53.7596282958984],[20.4865894317626,53.7629203796386],[20.48646785511641,53.76688170630494],[20.481159210205,53.7708091735839],[20.4752502441406,53.7735786437988],[20.469289779663,53.7761497497558],[20.4631099700927,53.7786102294921],[20.4577598571777,53.7817993164062],[20.4527492523193,53.7847900390625],[20.4448204040527,53.788890838623],[20.4393997192382,53.7912216186523],[20.4353504180908,53.7928390502929],[20.4316902160644,53.7953605651855],[20.4356708526611,53.7984504699707],[20.4407901763916,53.8004302978515],[20.4418392181396,53.8031196594238],[20.4417304992675,53.8049697875976],[20.4406795501708,53.8082084655761],[20.4395008087158,53.8096809387207]]},"properties":{"line":"127","dir":"0","mode":"bus"}},{"type":"Feature","geometry":{"type":"LineString","coordinates":[[20.4395198822021,53.8099899291992],[20.4412899017333,53.8075408935546],[20.4417991638183,53.8053016662597],[20.4418792724609,53.8025588989257],[20.439790725708,53.8000907897949],[20.4346408843994,53.7975006103515],[20.4316101074218,53.7952690124511],[20.4353199005126,53.7927093505859],[20.4407291412353,53.790599822998],[20.4453506469726,53.7881088256835],[20.4514503479003,53.7852516174316],[20.4590702056884,53.7807502746582],[20.4665203094482,53.7770500183105],[20.4704399108886,53.7756118774414],[20.4788608551025,53.772159576416],[20.4806995391845,53.7709503173828],[20.484677747897962,53.76708239703042],[20.486618461327765,53.761599716965165],[20.4864997863769,53.7589111328125],[20.4860000610351,53.7547187805175],[20.4859409332275,53.7513008117675],[20.4866600036621,53.7467384338378],[20.4860496520996,53.7433280944824],[20.4904193878173,53.7402687072753],[20.4972705841064,53.741600036621],[20.50239944458,53.7413711547851],[20.5096607208251,53.7411918640136],[20.507490158081,53.7371597290039],[20.5027198791503,53.7365112304687],[20.4992294311523,53.7361717224121],[20.4960002899169,53.7358589172363]]},"properties":{"line":"127","dir":"1","mode":"bus"}},{"type":"Feature","geometry":{"type":"LineString","coordinates":[[20.4718303680419,53.7469100952148],[20.4759902954101,53.7523384094238],[20.4752502441406,53.754768371582],[20.4692707061767,53.7578315734863],[20.4713306427001,53.7612190246582],[20.4720096588134,53.7647018432617],[20.4661102294921,53.7669715881347],[20.4690494537353,53.7693786621093],[20.4772701263427,53.7735786437988],[20.4799674723976,53.77777162918228],[20.48229901135116,53.777885181856156],[20.489706271105465,53.775899411571494],[20.49834485715526,53.773528000550336],[20.5011100769042,53.7733306884765],[20.5017299652099,53.7782592773437],[20.4990501403808,53.7839698791503],[20.5093898773193,53.7854118347167],[20.513479232788,53.7858505249023],[20.5202903747558,53.7870597839355],[20.5264892578125,53.7867584228515],[20.5295696258544,53.7863998413085],[20.5350799560546,53.7856788635253],[20.540880203247,53.7837982177734],[20.5458602905273,53.7818298339843],[20.550111,53.777417]]},"properties":{"line":"128","dir":"0","mode":"bus"}},{"type":"Feature","geometry":{"type":"LineString","coordinates":[[20.550111,53.777417],[20.5471096038818,53.7814903259277],[20.5400791168212,53.783878326416],[20.5345096588134,53.7858505249023],[20.5294895172119,53.7864608764648],[20.5258808135986,53.7868995666503],[20.5200405120849,53.7870903015136],[20.5149707794189,53.7861785888671],[20.5084209442138,53.7854614257812],[20.498326928266643,53.78459612373613],[20.4947891235351,53.783031463623],[20.5013008117675,53.7784118652343],[20.5022506713867,53.7751312255859],[20.49834485715526,53.773528000550336],[20.489706271105465,53.775899411571494],[20.48229901135116,53.777885181856156],[20.478541489032448,53.77719813298909],[20.4750499725341,53.7726898193359],[20.4689693450927,53.7696495056152],[20.4662399291992,53.7673988342285],[20.4716701507568,53.7652587890625],[20.47114944458,53.7611389160156],[20.4698505401611,53.7586097717285],[20.4692707061767,53.7558708190917],[20.4758396148681,53.7521591186523],[20.4722003936767,53.7472686767578]]},"properties":{"line":"128","dir":"1","mode":"bus"}},{"type":"Feature","geometry":{"type":"LineString","coordinates":[[20.517763080133573,53.74033493668494],[20.514417495647876,53.74123617445151],[20.5073,53.74186],[20.5006694793701,53.7416687011718],[20.4957294464111,53.7415313720703],[20.4906196594238,53.7404518127441],[20.4865798950195,53.74068069458],[20.4864692687988,53.7433280944824],[20.487319946289,53.747760772705],[20.4863700866699,53.753620147705],[20.48512238150848,53.755957520853954],[20.4752502441406,53.754768371582],[20.4670505523681,53.7564697265625],[20.4611701965332,53.7575302124023],[20.4609794616699,53.7543411254882],[20.4577503204345,53.751708984375],[20.4517993927001,53.7495689392089],[20.4497509002685,53.7477684020996],[20.454719543457,53.7448196411132]]},"properties":{"line":"130","dir":"0","mode":"bus"}},{"type":"Feature","geometry":{"type":"LineString","coordinates":[[20.4553298950195,53.7446594238281],[20.4499893188476,53.7478981018066],[20.4577102661132,53.7515487670898],[20.4613800048828,53.7551498413085],[20.4626808166503,53.7578086853027],[20.4692707061767,53.7558708190917],[20.4778099060058,53.7543411254882],[20.4860000610351,53.7547187805175],[20.4859409332275,53.7513008117675],[20.4866600036621,53.7467384338378],[20.4860496520996,53.7433280944824],[20.4904193878173,53.7402687072753],[20.4972705841064,53.741600036621],[20.50239944458,53.7413711547851],[20.51053149860148,53.74217988493796],[20.515358396986297,53.74072010415495],[20.5180492401123,53.7399406433105]]},"properties":{"line":"130","dir":"1","mode":"bus"}},{"type":"Feature","geometry":{"type":"LineString","coordinates":[[20.4802894592285,53.7394485473632],[20.4844703674316,53.7398796081542],[20.4904193878173,53.7402687072753],[20.4972705841064,53.741600036621],[20.50239944458,53.7413711547851],[20.509167,53.742961],[20.508307089274716,53.745713849533374],[20.503910439659585,53.75045453590315],[20.5034408569335,53.7540206909179],[20.49974,53.75887],[20.501881945239543,53.76369903599774],[20.5008792877197,53.7674903869628],[20.4983596801757,53.7689399719238],[20.5011100769042,53.7733306884765],[20.5017299652099,53.7782592773437],[20.498288355943544,53.78470412440593],[20.4913597106933,53.7889518737792],[20.4958801269531,53.7928314208984],[20.5053806304931,53.7918510437011],[20.50913,53.79091],[20.51315,53.791211],[20.5135192871093,53.791690826416],[20.5167503356933,53.7942810058593],[20.5275802612304,53.7977600097656],[20.536600112915,53.7985305786132],[20.5417709350585,53.8024291992187],[20.545970916748,53.803840637207]]},"properties":{"line":"131","dir":"0","mode":"bus"}},{"type":"Feature","geometry":{"type":"LineString","coordinates":[[20.5461692810058,53.8038101196289],[20.5417098999023,53.8023986816406],[20.5367107391357,53.7985610961914],[20.5277996063232,53.7978591918945],[20.5156307220458,53.7935104370117],[20.5131893157958,53.7915802001953],[20.50969,53.79086],[20.4964408874511,53.7936897277832],[20.4930095672607,53.7912216186523],[20.4914398193359,53.7878189086914],[20.491163,53.785474],[20.4961891174316,53.7845993041992],[20.4947891235351,53.783031463623],[20.5013008117675,53.7784118652343],[20.5022506713867,53.7751312255859],[20.5001907348632,53.7723312377929],[20.5021305084228,53.7668800354003],[20.503435,53.765646],[20.5016593933105,53.763801574707],[20.49966,53.75791],[20.502294925404684,53.75309586113113],[20.50517195483049,53.749409309537064],[20.507846128811593,53.745484138396286],[20.5073,53.74186],[20.5006694793701,53.7416687011718],[20.4957294464111,53.7415313720703],[20.4906196594238,53.7404518127441],[20.4851703643798,53.7401618957519],[20.4796600341796,53.7394485473632]]},"properties":{"line":"131","dir":"1","mode":"bus"}},{"type":"Feature","geometry":{"type":"LineString","coordinates":[[20.517763080133573,53.74033493668494],[20.514417495647876,53.74123617445151],[20.509167,53.742961],[20.508307089274716,53.745713849533374],[20.503910439659585,53.75045453590315],[20.5034408569335,53.7540206909179],[20.49974,53.75887],[20.501881945239543,53.76369903599774],[20.504893,53.766511],[20.50834672994749,53.7694667073688],[20.504201,53.771994],[20.5011100769042,53.7733306884765],[20.5017299652099,53.7782592773437],[20.498288355943544,53.78470412440593],[20.4913597106933,53.7889518737792],[20.4958801269531,53.7928314208984],[20.5053806304931,53.7918510437011],[20.50913,53.79091],[20.51315,53.791211],[20.5135192871093,53.791690826416],[20.5167503356933,53.7942810058593],[20.5275802612304,53.7977600097656],[20.536600112915,53.7985305786132],[20.5417709350585,53.8024291992187],[20.545970916748,53.803840637207]]},"properties":{"line":"132","dir":"0","mode":"bus"}},{"type":"Feature","geometry":{"type":"LineString","coordinates":[[20.5461692810058,53.8038101196289],[20.5417098999023,53.8023986816406],[20.5367107391357,53.7985610961914],[20.5277996063232,53.7978591918945],[20.5156307220458,53.7935104370117],[20.5131893157958,53.7915802001953],[20.50969,53.79086],[20.4964408874511,53.7936897277832],[20.4930095672607,53.7912216186523],[20.4914398193359,53.7878189086914],[20.491163,53.785474],[20.4961891174316,53.7845993041992],[20.4947891235351,53.783031463623],[20.5013008117675,53.7784118652343],[20.5022506713867,53.7751312255859],[20.504159,53.771936],[20.508611139907426,53.77025282995365],[20.503435,53.765646],[20.5016593933105,53.763801574707],[20.49966,53.75791],[20.502294925404684,53.75309586113113],[20.50517195483049,53.749409309537064],[20.507846128811593,53.745484138396286],[20.51053149860148,53.74217988493796],[20.515358396986297,53.74072010415495],[20.5180492401123,53.7399406433105]]},"properties":{"line":"132","dir":"1","mode":"bus"}},{"type":"Feature","geometry":{"type":"LineString","coordinates":[[20.5287609100341,53.7692794799804],[20.5231494903564,53.769790649414],[20.513513,53.769647],[20.512806,53.767279],[20.509399,53.766712],[20.5008792877197,53.7674903869628],[20.4960308074951,53.7691307067871],[20.4911098480224,53.7709693908691],[20.4849700927734,53.7735481262207],[20.4829006195068,53.7701606750488],[20.481159210205,53.7708091735839],[20.4772701263427,53.7735786437988],[20.4799674723976,53.77777162918228],[20.480390548706,53.7799186706542],[20.4685687,53.780056],[20.468314,53.78283],[20.4653646,53.7840433],[20.464717,53.781087],[20.4653091430664,53.7779998779296],[20.4701309204101,53.7793807983398],[20.4801502227783,53.7798881530761],[20.478541489032448,53.77719813298909],[20.4788608551025,53.772159576416],[20.4806995391845,53.7709503173828],[20.4835205078125,53.770709991455],[20.4852504730224,53.7737197875976],[20.4911098480224,53.7708206176757],[20.4965000152587,53.7688293457031],[20.5021305084228,53.7668800354003],[20.510161,53.766504],[20.512928,53.767208],[20.51362,53.769716],[20.5193405151367,53.7692985534667],[20.5228195190429,53.7666893005371],[20.5210208892822,53.7634391784667],[20.5180492401123,53.7639617919921],[20.5219402313232,53.7695388793945],[20.5282897949218,53.7694282531738]]},"properties":{"line":"135","dir":"Polmozbyt","mode":"bus"}},{"type":"Feature","geometry":{"type":"LineString","coordinates":[[20.5287609100341,53.7692794799804],[20.5231494903564,53.769790649414],[20.513513,53.769647],[20.512806,53.767279],[20.509399,53.766712],[20.5008792877197,53.7674903869628],[20.4960308074951,53.7691307067871],[20.4911098480224,53.7709693908691],[20.4849700927734,53.7735481262207],[20.4829006195068,53.7701606750488],[20.481159210205,53.7708091735839],[20.4772701263427,53.7735786437988],[20.4799674723976,53.77777162918228],[20.480390548706,53.7799186706542],[20.4685687,53.780056],[20.468314,53.78283],[20.4653646,53.7840433],[20.464717,53.781087],[20.4653091430664,53.7779998779296],[20.4701309204101,53.7793807983398],[20.4801502227783,53.7798881530761],[20.478541489032448,53.77719813298909]]},"properties":{"line":"135","dir":"Wysoka Brama","mode":"bus"}},{"type":"Feature","geometry":{"type":"LineString","coordinates":[[20.4725494384765,53.7178802490234],[20.4753,53.72544],[20.477733,53.729103],[20.480581,53.73562],[20.4844703674316,53.7398796081542],[20.4865798950195,53.74068069458],[20.4864692687988,53.7433280944824],[20.487319946289,53.747760772705],[20.4863700866699,53.753620147705],[20.48512238150848,53.755957520853954],[20.4752502441406,53.754768371582],[20.4670505523681,53.7564697265625],[20.4618797302246,53.7588005065917],[20.4632205963134,53.761661529541],[20.4661102294921,53.7669715881347],[20.4690494537353,53.7693786621093],[20.4772701263427,53.7735786437988],[20.4799674723976,53.77777162918228],[20.480390548706,53.7799186706542],[20.4819202423095,53.7844200134277],[20.4877395629882,53.7880516052246],[20.4958801269531,53.7928314208984],[20.4990692138671,53.7963104248046],[20.5019702911376,53.7981414794921],[20.5066890716552,53.8026618957519]]},"properties":{"line":"136","dir":"0","mode":"bus"}},{"type":"Feature","geometry":{"type":"LineString","coordinates":[[20.5068798065185,53.8026809692382],[20.4997692108154,53.7969589233398],[20.4964408874511,53.7936897277832],[20.4930095672607,53.7912216186523],[20.48823928833,53.7885398864746],[20.4865207672119,53.7872085571289],[20.4815998077392,53.784381866455],[20.4801502227783,53.7798881530761],[20.478541489032448,53.77719813298909],[20.4750499725341,53.7726898193359],[20.4689693450927,53.7696495056152],[20.4662399291992,53.7673988342285],[20.4624290466308,53.7606811523437],[20.4626808166503,53.7578086853027],[20.4692707061767,53.7558708190917],[20.4778099060058,53.7543411254882],[20.4860000610351,53.7547187805175],[20.4859409332275,53.7513008117675],[20.4866600036621,53.7467384338378],[20.4860496520996,53.7433280944824],[20.4851703643798,53.7401618957519],[20.4803295135498,53.7354583740234],[20.477592,53.729117],[20.47516,53.72469],[20.4730205535888,53.7173690795898]]},"properties":{"line":"136","dir":"1","mode":"bus"}},{"type":"Feature","geometry":{"type":"LineString","coordinates":[[20.4802894592285,53.7394485473632],[20.4844703674316,53.7398796081542],[20.4904193878173,53.7402687072753],[20.4972705841064,53.741600036621],[20.50239944458,53.7413711547851],[20.509167,53.742961],[20.508307089274716,53.745713849533374],[20.503910439659585,53.75045453590315],[20.5034408569335,53.7540206909179],[20.49974,53.75887],[20.501881945239543,53.76369903599774],[20.504893,53.766511],[20.50834672994749,53.7694667073688],[20.5099201202392,53.7713584899902],[20.512300491333,53.7758102416992],[20.511079788208,53.7817192077636],[20.5071601867675,53.7833290100097],[20.5093898773193,53.7854118347167],[20.513479232788,53.7858505249023],[20.5202903747558,53.7870597839355],[20.5264892578125,53.7867584228515],[20.5295696258544,53.7863998413085],[20.5315208435058,53.7826118469238],[20.53739131761761,53.78197924384395],[20.5396099090576,53.783519744873]]},"properties":{"line":"141","dir":"0","mode":"bus"}},{"type":"Feature","geometry":{"type":"LineString","coordinates":[[20.5400791168212,53.783878326416],[20.5362491607666,53.7815589904785],[20.5309696197509,53.7845497131347],[20.5294895172119,53.7864608764648],[20.5258808135986,53.7868995666503],[20.5200405120849,53.7870903015136],[20.5149707794189,53.7861785888671],[20.5084209442138,53.7854614257812],[20.5071601867675,53.7830009460449],[20.5090503692626,53.7815208435058],[20.512300491333,53.778881072998],[20.5115203857421,53.7748489379882],[20.509630203247,53.7713584899902],[20.508611139907426,53.77025282995365],[20.503435,53.765646],[20.5016593933105,53.763801574707],[20.49966,53.75791],[20.502294925404684,53.75309586113113],[20.50517195483049,53.749409309537064],[20.507846128811593,53.745484138396286],[20.5073,53.74186],[20.5006694793701,53.7416687011718],[20.4957294464111,53.7415313720703],[20.4906196594238,53.7404518127441],[20.4851703643798,53.7401618957519],[20.4796600341796,53.7394485473632]]},"properties":{"line":"141","dir":"1","mode":"bus"}},{"type":"Feature","geometry":{"type":"LineString","coordinates":[[20.4752502441406,53.7735786437988],[20.469289779663,53.7761497497558],[20.4631099700927,53.7786102294921],[20.4577598571777,53.7817993164062],[20.4527492523193,53.7847900390625],[20.4448204040527,53.788890838623],[20.4393997192382,53.7912216186523],[20.4353504180908,53.7928390502929],[20.4316902160644,53.7953605651855],[20.426809310913,53.7980995178222],[20.4122600555419,53.8004112243652],[20.4080390930175,53.801959991455],[20.4053592681884,53.802879333496],[20.3991538,53.8015198],[20.39260833,53.80099167],[20.38424461,53.79866185],[20.37083824,53.79914417],[20.36551649,53.80269734],[20.3706226,53.80972034],[20.34090027,53.80496281],[20.32646458,53.80219951],[20.29964488,53.7997442],[20.29850494,53.80440518],[20.30177864,53.81556542],[20.30275976,53.81719214],[20.30534784,53.8222688],[20.30789637,53.82624911],[20.31061871,53.82824514]]},"properties":{"line":"145","dir":"0","mode":"bus"}},{"type":"Feature","geometry":{"type":"LineString","coordinates":[[20.31074984,53.82825917],[20.30847596,53.82658894],[20.30518802,53.82230147],[20.30257891,53.8171941],[20.30168851,53.81557592],[20.29853056,53.80490926],[20.29755482,53.79979776],[20.30282584,53.80052807],[20.322644,53.801535],[20.32865492,53.80232752],[20.34206746,53.80501399],[20.37124009,53.80930409],[20.36534798,53.80295382],[20.37261953,53.79954488],[20.38527702,53.7990163],[20.39293333,53.80090556],[20.400737,53.801959],[20.4046096801757,53.8031196594238],[20.4088897705078,53.8016014099121],[20.4120197296142,53.8004417419433],[20.4270095825195,53.7979507446289],[20.4316101074218,53.7952690124511],[20.4353199005126,53.7927093505859],[20.4407291412353,53.790599822998],[20.4453506469726,53.7881088256835],[20.4514503479003,53.7852516174316],[20.4590702056884,53.7807502746582],[20.4665203094482,53.7770500183105],[20.4704399108886,53.7756118774414],[20.4772701263427,53.7735786437988]]},"properties":{"line":"145","dir":"1","mode":"bus"}},{"type":"Feature","geometry":{"type":"LineString","coordinates":[[20.4936294555664,53.7322998046875],[20.4911994934082,53.7339897155761],[20.4958801269531,53.7356300354003],[20.5008697509765,53.7361488342285],[20.5050106048583,53.7365608215332],[20.5091800689697,53.7378616333007],[20.5100708007812,53.7408790588378],[20.509167,53.742961],[20.508307089274716,53.745713849533374],[20.503910439659585,53.75045453590315],[20.5000190734863,53.7534408569335],[20.4944190979003,53.7534408569335],[20.490530014038,53.7561416625976],[20.4860191345214,53.7548713684082]]},"properties":{"line":"205","dir":"0","mode":"bus"}},{"type":"Feature","geometry":{"type":"LineString","coordinates":[[20.4860000610351,53.7547187805175],[20.4873504638671,53.7527198791503],[20.4939804077148,53.753318786621],[20.502294925404684,53.75309586113113],[20.50517195483049,53.749409309537064],[20.507846128811593,53.745484138396286],[20.5096607208251,53.7411918640136],[20.507490158081,53.7371597290039],[20.5027198791503,53.7365112304687],[20.4992294311523,53.7361717224121],[20.4957695007324,53.7358207702636],[20.4908409118652,53.7329216003417],[20.4934291839599,53.7323913574218]]},"properties":{"line":"205","dir":"1","mode":"bus"}},{"type":"Feature","geometry":{"type":"LineString","coordinates":[[20.4990501403808,53.7839698791503],[20.498326928266643,53.78459612373613],[20.49478912,53.7830315],[20.5020198822021,53.7815513610839],[20.5090503692626,53.7815208435058],[20.5159397125244,53.7814712524414],[20.5252494812011,53.7814407348632],[20.5309696197509,53.7845497131347],[20.5350799560546,53.7856788635253],[20.540880203247,53.7837982177734],[20.5458602905273,53.7818298339843],[20.5617198944091,53.7759094238281],[20.567190170288,53.7797584533691],[20.5725307464599,53.7824096679687],[20.5907306671142,53.7860794067382],[20.6018104553222,53.7905807495117]]},"properties":{"line":"304","dir":"0","mode":"bus"}},{"type":"Feature","geometry":{"type":"LineString","coordinates":[[20.6017398834228,53.7905616760253],[20.598955,53.789579],[20.5936908721923,53.7882003784179],[20.5903301239013,53.7862396240234],[20.5717697143554,53.7822189331054],[20.5664100646972,53.7795486450195],[20.5611000061035,53.7757987976074],[20.5471096038818,53.7814903259277],[20.5397090911865,53.784381866455],[20.5345096588134,53.7858505249023],[20.5291099548339,53.782859802246],[20.5236301422119,53.78125],[20.511079788208,53.7817192077636],[20.5056896209716,53.78173828125],[20.5007495880126,53.78173828125],[20.4991302490234,53.7834091186523]]},"properties":{"line":"304","dir":"1","mode":"bus"}},{"type":"Feature","geometry":{"type":"LineString","coordinates":[[20.517763080133573,53.74033493668494],[20.514417495647876,53.74123617445151],[20.5073,53.74186],[20.5006694793701,53.7416687011718],[20.4957294464111,53.7415313720703],[20.4906196594238,53.7404518127441],[20.4865798950195,53.74068069458],[20.4864692687988,53.7433280944824],[20.487319946289,53.747760772705],[20.4863700866699,53.753620147705],[20.48512238150848,53.755957520853954],[20.4752502441406,53.754768371582],[20.4670505523681,53.7564697265625],[20.4618797302246,53.7588005065917],[20.4632205963134,53.761661529541],[20.4587802886962,53.7695198059082],[20.4570407867431,53.7714309692382],[20.4501705169677,53.7769088745117]]},"properties":{"line":"307","dir":"0","mode":"bus"}},{"type":"Feature","geometry":{"type":"LineString","coordinates":[[20.4501800537109,53.776798248291],[20.4402294158935,53.7732391357421],[20.4467697143554,53.7718505859375],[20.4503993988037,53.7739486694335],[20.4566097259521,53.7714309692382],[20.4601001739501,53.7683906555175],[20.4624290466308,53.7606811523437],[20.4626808166503,53.7578086853027],[20.4692707061767,53.7558708190917],[20.4778099060058,53.7543411254882],[20.4860000610351,53.7547187805175],[20.4859409332275,53.7513008117675],[20.4866600036621,53.7467384338378],[20.4860496520996,53.7433280944824],[20.4904193878173,53.7402687072753],[20.4972705841064,53.741600036621],[20.50239944458,53.7413711547851],[20.51053149860148,53.74217988493796],[20.515358396986297,53.74072010415495],[20.5180492401123,53.7399406433105]]},"properties":{"line":"307","dir":"1","mode":"bus"}},{"type":"Feature","geometry":{"type":"LineString","coordinates":[[20.498326928266643,53.78459612373613],[20.4947891235351,53.783031463623],[20.5013008117675,53.7784118652343],[20.5022506713867,53.7751312255859],[20.5001907348632,53.7723312377929],[20.4960308074951,53.7691307067871],[20.4911098480224,53.7709693908691],[20.48716598317871,53.775797634920565],[20.48229901135116,53.777885181856156],[20.478541489032448,53.77719813298909],[20.4750499725341,53.7726898193359],[20.4689693450927,53.7696495056152],[20.4662399291992,53.7673988342285],[20.4624290466308,53.7606811523437],[20.4626808166503,53.7578086853027],[20.4692707061767,53.7558708190917],[20.4778099060058,53.7543411254882],[20.4860000610351,53.7547187805175],[20.4873504638671,53.7527198791503],[20.4939804077148,53.753318786621],[20.5000190734863,53.7534408569335],[20.502294925404684,53.75309586113113],[20.50517195483049,53.749409309537064],[20.507846128811593,53.745484138396286],[20.51053149860148,53.74217988493796],[20.515358396986297,53.74072010415495],[20.517763080133573,53.74033493668494],[20.514417495647876,53.74123617445151],[20.5096607208251,53.7411918640136],[20.5091800689697,53.7378616333007],[20.5100708007812,53.7408790588378],[20.5073,53.74186],[20.5006694793701,53.7416687011718],[20.4957294464111,53.7415313720703],[20.4906196594238,53.7404518127441],[20.4851703643798,53.7401618957519],[20.4802894592285,53.7394485473632],[20.4844703674316,53.7398796081542],[20.4865798950195,53.74068069458],[20.4864692687988,53.7433280944824],[20.487319946289,53.747760772705],[20.4863700866699,53.753620147705],[20.48512238150848,53.755957520853954],[20.4752502441406,53.754768371582],[20.4670505523681,53.7564697265625],[20.4618797302246,53.7588005065917],[20.4632205963134,53.761661529541],[20.4661102294921,53.7669715881347],[20.4690494537353,53.7693786621093],[20.4772701263427,53.7735786437988],[20.4799674723976,53.77777162918228],[20.48229901135116,53.777885181856156],[20.48716598317871,53.775797634920565],[20.4911098480224,53.7708206176757],[20.4965000152587,53.7688293457031],[20.4983596801757,53.7689399719238],[20.5011100769042,53.7733306884765],[20.5017299652099,53.7782592773437],[20.4991302490234,53.7834091186523]]},"properties":{"line":"N01","dir":"Dworzec Główny","mode":"bus"}},{"type":"Feature","geometry":{"type":"LineString","coordinates":[[20.498288355943544,53.78470412440593],[20.4909706115722,53.7834510803222],[20.4876899719238,53.7826881408691],[20.4824695587158,53.7816886901855],[20.4801502227783,53.7798881530761],[20.478541489032448,53.77719813298909],[20.4752502441406,53.7735786437988],[20.469289779663,53.7761497497558],[20.4631099700927,53.7786102294921],[20.4577598571777,53.7817993164062],[20.4527492523193,53.7847900390625],[20.4448204040527,53.788890838623],[20.4393997192382,53.7912216186523],[20.4353504180908,53.7928390502929],[20.4316902160644,53.7953605651855],[20.426809310913,53.7980995178222],[20.4122600555419,53.8004112243652],[20.4080390930175,53.801959991455],[20.4053592681884,53.802879333496],[20.4009494781494,53.8054695129394],[20.3943290710449,53.8086204528808],[20.4015407562255,53.8048400878906],[20.4046096801757,53.8031196594238],[20.4088897705078,53.8016014099121],[20.4120197296142,53.8004417419433],[20.4270095825195,53.7979507446289],[20.4316101074218,53.7952690124511],[20.4353199005126,53.7927093505859],[20.4407291412353,53.790599822998],[20.4453506469726,53.7881088256835],[20.4514503479003,53.7852516174316],[20.4590702056884,53.7807502746582],[20.4665203094482,53.7770500183105],[20.4704399108886,53.7756118774414],[20.4750499725341,53.7726898193359],[20.4689693450927,53.7696495056152],[20.4662399291992,53.7673988342285],[20.4624290466308,53.7606811523437],[20.4611701965332,53.7575302124023],[20.4609794616699,53.7543411254882],[20.4577503204345,53.751708984375],[20.4517993927001,53.7495689392089],[20.4497509002685,53.7477684020996],[20.4491500854492,53.7518196105957],[20.4499893188476,53.7478981018066],[20.4577102661132,53.7515487670898],[20.4613800048828,53.7551498413085],[20.4618797302246,53.7588005065917],[20.4632205963134,53.761661529541],[20.4587802886962,53.7695198059082],[20.4570407867431,53.7714309692382],[20.4502296447753,53.7742004394531],[20.4447193145751,53.7716789245605],[20.430419921875,53.7686805725097],[20.4167709350585,53.7682189941406],[20.4163093566894,53.7646903991699],[20.4182205200195,53.762710571289],[20.4258308410644,53.7624282836914],[20.4279708862304,53.764720916748],[20.4278507232666,53.7680511474609],[20.4354000091552,53.7695388793945],[20.4467697143554,53.7718505859375],[20.4503993988037,53.7739486694335],[20.4566097259521,53.7714309692382],[20.4601001739501,53.7683906555175],[20.4661102294921,53.7669715881347],[20.4690494537353,53.7693786621093],[20.4772701263427,53.7735786437988],[20.4799674723976,53.77777162918228],[20.480390548706,53.7799186706542],[20.4819202423095,53.7844200134277],[20.4823703765869,53.7887496948242],[20.4823093414306,53.79248046875],[20.4822692871093,53.7941703796386],[20.483449935913,53.7957611083984],[20.4892997741699,53.7921714782714],[20.4914398193359,53.7878189086914],[20.491163,53.785474],[20.4961891174316,53.7845993041992]]},"properties":{"line":"N02","dir":"Dworzec Główny","mode":"bus"}},{"type":"Feature","geometry":{"type":"LineString","coordinates":[[20.478541489032448,53.77719813298909],[20.48229901135116,53.777885181856156],[20.48716598317871,53.775797634920565],[20.4891605377197,53.7713317871093],[20.488130569458,53.7668304443359],[20.486618461327765,53.761599716965165],[20.485959139707305,53.7552831526036],[20.4858303070068,53.7513008117675],[20.485969543457,53.7433280944824],[20.4860191345214,53.7396583557128],[20.4911098480224,53.7343215942382],[20.4957695007324,53.7358818054199],[20.5028800964355,53.7366905212402]]},"properties":{"line":"1","dir":"0","mode":"tram"}},{"type":"Feature","geometry":{"type":"LineString","coordinates":[[20.5028800964355,53.7366905212402],[20.495750427246,53.7359390258789],[20.4910507202148,53.7343597412109],[20.4861602783203,53.7394409179687],[20.4860496520996,53.7433280944824],[20.4859409332275,53.7513008117675],[20.485959139707305,53.7552831526036],[20.486618461327765,53.761599716965165],[20.4879703521728,53.7666587829589],[20.4892501831054,53.7713012695312],[20.48716598317871,53.775797634920565],[20.48229901135116,53.777885181856156],[20.478541489032448,53.77719813298909]]},"properties":{"line":"1","dir":"1","mode":"tram"}},{"type":"Feature","geometry":{"type":"LineString","coordinates":[[20.498327216107338,53.784340483561195],[20.4947891235351,53.783031463623],[20.490794862588366,53.78004858951173],[20.48716598317871,53.775797634920565],[20.4891605377197,53.7713317871093],[20.488130569458,53.7668304443359],[20.486618461327765,53.761599716965165],[20.485959139707305,53.7552831526036],[20.4858303070068,53.7513008117675],[20.485969543457,53.7433280944824],[20.4860191345214,53.7396583557128],[20.4911098480224,53.7343215942382],[20.4957695007324,53.7358818054199],[20.5028800964355,53.7366905212402]]},"properties":{"line":"2","dir":"0","mode":"tram"}},{"type":"Feature","geometry":{"type":"LineString","coordinates":[[20.502830505371,53.7368583679199],[20.495750427246,53.7359390258789],[20.4910507202148,53.7343597412109],[20.4861602783203,53.7394409179687],[20.4860496520996,53.7433280944824],[20.4859409332275,53.7513008117675],[20.485959139707305,53.7552831526036],[20.486618461327765,53.761599716965165],[20.4879703521728,53.7666587829589],[20.4892501831054,53.7713012695312],[20.48716598317871,53.775797634920565],[20.490794862588366,53.78004858951173],[20.49312829729006,53.7817815233004],[20.498327216107338,53.784340483561195]]},"properties":{"line":"2","dir":"1","mode":"tram"}},{"type":"Feature","geometry":{"type":"LineString","coordinates":[[20.498327216107338,53.784340483561195],[20.4947891235351,53.783031463623],[20.490794862588366,53.78004858951173],[20.48716598317871,53.775797634920565],[20.4891605377197,53.7713317871093],[20.488130569458,53.7668304443359],[20.486618461327765,53.761599716965165],[20.4851303100585,53.7559089660644],[20.4752502441406,53.7548294067382],[20.46702003479,53.7565002441406],[20.4624099731445,53.7582702636718]]},"properties":{"line":"3","dir":"0","mode":"tram"}},{"type":"Feature","geometry":{"type":"LineString","coordinates":[[20.4624099731445,53.7582702636718],[20.4671592712402,53.7564697265625],[20.4753303527832,53.7547912597656],[20.4851303100585,53.7558517456054],[20.486618461327765,53.761599716965165],[20.4879703521728,53.7666587829589],[20.4892501831054,53.7713012695312],[20.48716598317871,53.775797634920565],[20.490794862588366,53.78004858951173],[20.49312829729006,53.7817815233004],[20.498327216107338,53.784340483561195]]},"properties":{"line":"3","dir":"1","mode":"tram"}},{"type":"Feature","geometry":{"type":"LineString","coordinates":[[20.498327216107338,53.784340483561195],[20.4947891235351,53.783031463623],[20.490794862588366,53.78004858951173],[20.489706271105465,53.775899411571494],[20.49834485715526,53.773528000550336],[20.504159,53.771936],[20.508611139907426,53.77025282995365],[20.503341,53.765873],[20.501162,53.763612],[20.502458,53.756874],[20.502294925404684,53.75309586113113],[20.50517195483049,53.749409309537064],[20.507846128811593,53.745484138396286],[20.51053149860148,53.74217988493796],[20.515358396986297,53.74072010415495],[20.519013150108318,53.740251277447555]]},"properties":{"line":"4","dir":"0","mode":"tram"}},{"type":"Feature","geometry":{"type":"LineString","coordinates":[[20.519013150108318,53.740251277447555],[20.514417495647876,53.74123617445151],[20.509167,53.742961],[20.507846128811593,53.745484138396286],[20.50517195483049,53.749409309537064],[20.502294925404684,53.75309586113113],[20.502536,53.756877],[20.50125,53.763589],[20.504411,53.766634],[20.508611139907426,53.77025282995365],[20.504201,53.771994],[20.49834485715526,53.773528000550336],[20.489706271105465,53.775899411571494],[20.490794862588366,53.78004858951173],[20.49312829729006,53.7817815233004],[20.498327216107338,53.784340483561195]]},"properties":{"line":"4","dir":"1","mode":"tram"}},{"type":"Feature","geometry":{"type":"LineString","coordinates":[[20.478541489032448,53.77719813298909],[20.48229901135116,53.777885181856156],[20.489706271105465,53.775899411571494],[20.49834485715526,53.773528000550336],[20.504159,53.771936],[20.508611139907426,53.77025282995365],[20.503341,53.765873],[20.501162,53.763612],[20.502458,53.756874],[20.502294925404684,53.75309586113113],[20.50517195483049,53.749409309537064],[20.507846128811593,53.745484138396286],[20.51053149860148,53.74217988493796],[20.515358396986297,53.74072010415495],[20.519013150108318,53.740251277447555]]},"properties":{"line":"5","dir":"0","mode":"tram"}},{"type":"Feature","geometry":{"type":"LineString","coordinates":[[20.519013150108318,53.740251277447555],[20.514417495647876,53.74123617445151],[20.509167,53.742961],[20.507846128811593,53.745484138396286],[20.50517195483049,53.749409309537064],[20.502294925404684,53.75309586113113],[20.502536,53.756877],[20.50125,53.763589],[20.504411,53.766634],[20.508611139907426,53.77025282995365],[20.504201,53.771994],[20.49834485715526,53.773528000550336],[20.489706271105465,53.775899411571494],[20.48229901135116,53.777885181856156],[20.478541489032448,53.77719813298909]]},"properties":{"line":"5","dir":"1","mode":"tram"}}]}