{"type":"FeatureCollection","features":[{"type":"Feature","properties":{"mode":"bus","n":5,"arr":["101","115","124","131","132"],"lines":"101, 115, 124, 131, 132"},"geometry":{"type":"LineString","coordinates":[[20.512016,53.790329],[20.511653,53.790302],[20.511421,53.79031]]}},{"type":"Feature","properties":{"mode":"bus","n":10,"arr":["101","107","108","112","115","124","126","131","132","N02"],"lines":"101, 107, 108, 112, 115, 124, 126, 131, 132, N02"},"geometry":{"type":"LineString","coordinates":[[20.492234,53.783839],[20.492246,53.783668],[20.492303,53.783565]]}},{"type":"Feature","properties":{"mode":"bus","n":10,"arr":["101","107","108","112","115","124","126","131","132","N02"],"lines":"101, 107, 108, 112, 115, 124, 126, 131, 132, N02"},"geometry":{"type":"LineString","coordinates":[[20.493135,53.783822],[20.493217,53.78394],[20.493336,53.784034],[20.493719,53.784217]]}},{"type":"Feature","properties":{"mode":"bus","n":10,"arr":["101","107","108","112","115","124","126","131","132","N02"],"lines":"101, 107, 108, 112, 115, 124, 126, 131, 132, N02"},"geometry":{"type":"LineString","coordinates":[[20.494913,53.78447],[20.495272,53.78451],[20.496148,53.784685]]}},{"type":"Feature","properties":{"mode":"bus","n":12,"arr":["101","107","108","109","112","115","119","124","126","131","132","N02"],"lines":"101, 107, 108, 109, 112, 115, 119, 124, 126, 131, 132, N02"},"geometry":{"type":"LineString","coordinates":[[20.492303,53.783565],[20.492393,53.783502],[20.492576,53.783443],[20.492784,53.783437],[20.492921,53.783464],[20.493043,53.783518],[20.493155,53.783634],[20.493171,53.783723],[20.493135,53.783822]]}},{"type":"Feature","properties":{"mode":"bus","n":12,"arr":["101","107","108","109","112","115","119","124","126","131","132","N02"],"lines":"101, 107, 108, 109, 112, 115, 119, 124, 126, 131, 132, N02"},"geometry":{"type":"LineString","coordinates":[[20.491818,53.784767],[20.491648,53.78486],[20.491428,53.785084]]}},{"type":"Feature","properties":{"mode":"bus","n":12,"arr":["101","107","108","109","112","115","119","124","126","131","132","N02"],"lines":"101, 107, 108, 109, 112, 115, 119, 124, 126, 131, 132, N02"},"geometry":{"type":"LineString","coordinates":[[20.492234,53.783839],[20.492212,53.784296]]}},{"type":"Feature","properties":{"mode":"bus","n":8,"arr":["101","106","107","111","127","135","145","N02"],"lines":"101, 106, 107, 111, 127, 135, 145, N02"},"geometry":{"type":"LineString","coordinates":[[20.464125,53.777672],[20.464217,53.777724],[20.464329,53.777857]]}},{"type":"Feature","properties":{"mode":"bus","n":8,"arr":["101","106","107","111","127","135","145","N02"],"lines":"101, 106, 107, 111, 127, 135, 145, N02"},"geometry":{"type":"LineString","coordinates":[[20.464273,53.77809],[20.464074,53.77821],[20.4638,53.778255],[20.463658,53.778244]]}},{"type":"Feature","properties":{"mode":"bus","n":8,"arr":["101","106","107","111","127","135","145","N02"],"lines":"101, 106, 107, 111, 127, 135, 145, N02"},"geometry":{"type":"LineString","coordinates":[[20.463385,53.778146],[20.463281,53.778042]]}},{"type":"Feature","properties":{"mode":"bus","n":8,"arr":["101","106","107","111","127","135","145","N02"],"lines":"101, 106, 107, 111, 127, 135, 145, N02"},"geometry":{"type":"LineString","coordinates":[[20.463348,53.777744],[20.463471,53.77767],[20.463627,53.777623],[20.4638,53.777607]]}},{"type":"Feature","properties":{"mode":"bus","n":6,"arr":["101","107","111","127","145","N02"],"lines":"101, 107, 111, 127, 145, N02"},"geometry":{"type":"LineString","coordinates":[[20.464329,53.777857],[20.464338,53.777977],[20.464273,53.77809]]}},{"type":"Feature","properties":{"mode":"bus","n":6,"arr":["101","107","111","127","145","N02"],"lines":"101, 107, 111, 127, 145, N02"},"geometry":{"type":"LineString","coordinates":[[20.474099,53.773947],[20.474713,53.773682],[20.475543,53.773384]]}},{"type":"Feature","properties":{"mode":"bus","n":6,"arr":["101","107","111","127","145","N02"],"lines":"101, 107, 111, 127, 145, N02"},"geometry":{"type":"LineString","coordinates":[[20.474099,53.773947],[20.473712,53.77406],[20.473577,53.774154],[20.473566,53.774164],[20.473562,53.774172],[20.473566,53.774177],[20.473578,53.774179],[20.473599,53.774179],[20.473717,53.774174],[20.473826,53.774146],[20.474099,53.773947]]}},{"type":"Feature","properties":{"mode":"bus","n":6,"arr":["101","107","111","127","145","N02"],"lines":"101, 107, 111, 127, 145, N02"},"geometry":{"type":"LineString","coordinates":[[20.473538,53.774182],[20.473769,53.774439],[20.473805,53.774558]]}},{"type":"Feature","properties":{"mode":"bus","n":6,"arr":["101","107","111","127","145","N02"],"lines":"101, 107, 111, 127, 145, N02"},"geometry":{"type":"LineString","coordinates":[[20.464523,53.776965],[20.464646,53.776963],[20.464867,53.777002],[20.465954,53.777327],[20.465989,53.777334],[20.466024,53.777332],[20.466058,53.777323],[20.467976,53.776543],[20.469113,53.776132],[20.469614,53.775975]]}},{"type":"Feature","properties":{"mode":"bus","n":6,"arr":["101","107","111","127","145","N02"],"lines":"101, 107, 111, 127, 145, N02"},"geometry":{"type":"LineString","coordinates":[[20.470136,53.7758],[20.473394,53.774723],[20.473755,53.774578],[20.473769,53.774573],[20.473778,53.77457],[20.473783,53.77457],[20.473783,53.774573],[20.473778,53.774578],[20.473768,53.774586],[20.473656,53.774671],[20.473394,53.774723]]}},{"type":"Feature","properties":{"mode":"bus","n":6,"arr":["101","107","111","127","145","N02"],"lines":"101, 107, 111, 127, 145, N02"},"geometry":{"type":"LineString","coordinates":[[20.470136,53.7758],[20.469755,53.775892],[20.469657,53.77595],[20.469646,53.775957],[20.46964,53.775962],[20.469639,53.775966],[20.469644,53.775967],[20.469655,53.775966],[20.469672,53.775964],[20.469795,53.775939],[20.470136,53.7758]]}},{"type":"Feature","properties":{"mode":"bus","n":6,"arr":["101","107","111","127","145","N02"],"lines":"101, 107, 111, 127, 145, N02"},"geometry":{"type":"LineString","coordinates":[[20.4638,53.777607],[20.463981,53.777458],[20.464165,53.777066],[20.464355,53.776966],[20.464464,53.776965],[20.464484,53.776966],[20.464496,53.776969],[20.4645,53.776975],[20.464496,53.776982],[20.464485,53.776991],[20.46437,53.777071],[20.464313,53.777152],[20.464141,53.777519],[20.464125,53.777672]]}},{"type":"Feature","properties":{"mode":"bus","n":7,"arr":["101","106","111","127","135","145","N02"],"lines":"101, 106, 111, 127, 135, 145, N02"},"geometry":{"type":"LineString","coordinates":[[20.463281,53.778042],[20.463252,53.777888],[20.463348,53.777744]]}},{"type":"Feature","properties":{"mode":"bus","n":5,"arr":["101","124","125","131","132"],"lines":"101, 124, 125, 131, 132"},"geometry":{"type":"LineString","coordinates":[[20.512016,53.790329],[20.511922,53.790221],[20.511903,53.790152],[20.511816,53.790104],[20.511738,53.790094],[20.511597,53.790134],[20.511513,53.790246],[20.511421,53.79031]]}},{"type":"Feature","properties":{"mode":"bus","n":9,"arr":["103","106","107","121","126","128","131","132","N01"],"lines":"103, 106, 107, 121, 126, 128, 131, 132, N01"},"geometry":{"type":"LineString","coordinates":[[20.501421,53.779046],[20.500608,53.780618],[20.500286,53.781502],[20.500201,53.78164]]}},{"type":"Feature","properties":{"mode":"bus","n":9,"arr":["103","106","107","121","126","128","131","132","N01"],"lines":"103, 106, 107, 121, 126, 128, 131, 132, N01"},"geometry":{"type":"LineString","coordinates":[[20.499839,53.78127],[20.500337,53.78059],[20.501183,53.779012]]}},{"type":"Feature","properties":{"mode":"bus","n":10,"arr":["117","121","126","127","130","131","141","205","307","N01"],"lines":"117, 121, 126, 127, 130, 131, 141, 205, 307, N01"},"geometry":{"type":"LineString","coordinates":[[20.509432,53.741925],[20.509226,53.741959]]}},{"type":"Feature","properties":{"mode":"bus","n":10,"arr":["117","121","126","127","130","131","141","205","307","N01"],"lines":"117, 121, 126, 127, 130, 131, 141, 205, 307, N01"},"geometry":{"type":"LineString","coordinates":[[20.509702,53.742041],[20.50963,53.741978]]}},{"type":"Feature","properties":{"mode":"bus","n":7,"arr":["117","121","126","130","131","141","307"],"lines":"117, 121, 126, 130, 131, 141, 307"},"geometry":{"type":"LineString","coordinates":[[20.50963,53.741978],[20.509432,53.741925]]}},{"type":"Feature","properties":{"mode":"bus","n":8,"arr":["117","121","126","127","131","141","205","N01"],"lines":"117, 121, 126, 127, 131, 141, 205, N01"},"geometry":{"type":"LineString","coordinates":[[20.509725,53.742112],[20.509702,53.742041]]}},{"type":"Feature","properties":{"mode":"bus","n":6,"arr":["117","121","126","131","141","205"],"lines":"117, 121, 126, 131, 141, 205"},"geometry":{"type":"LineString","coordinates":[[20.509514,53.742441],[20.509524,53.742316],[20.509536,53.742288],[20.509569,53.742267],[20.50965,53.742233],[20.509725,53.742112]]}},{"type":"Feature","properties":{"mode":"bus","n":6,"arr":["117","121","126","131","141","205"],"lines":"117, 121, 126, 131, 141, 205"},"geometry":{"type":"LineString","coordinates":[[20.509024,53.742731],[20.508569,53.743613]]}},{"type":"Feature","properties":{"mode":"bus","n":7,"arr":["117","121","126","131","132","141","205"],"lines":"117, 121, 126, 131, 132, 141, 205"},"geometry":{"type":"LineString","coordinates":[[20.503,53.753588],[20.502783,53.753152],[20.502679,53.752813],[20.502631,53.752516],[20.502646,53.752129],[20.502856,53.751485],[20.503008,53.751233],[20.503276,53.750889],[20.503721,53.75047],[20.504342,53.75005],[20.506349,53.749219],[20.507026,53.748889],[20.507553,53.748491],[20.5079,53.748056],[20.508017,53.747807],[20.508102,53.747511],[20.508281,53.744964],[20.508701,53.743998],[20.508835,53.74395],[20.508942,53.743855],[20.508956,53.743767],[20.5089,53.743655],[20.509514,53.742441]]}},{"type":"Feature","properties":{"mode":"bus","n":8,"arr":["117","121","126","131","132","141","205","N01"],"lines":"117, 121, 126, 131, 132, 141, 205, N01"},"geometry":{"type":"LineString","coordinates":[[20.508569,53.743613],[20.508442,53.74364],[20.508333,53.743748],[20.508314,53.743844],[20.508397,53.743967],[20.508149,53.744511],[20.508067,53.744782],[20.507857,53.747486],[20.5077,53.747976],[20.507418,53.748374],[20.507206,53.748574],[20.506724,53.748908],[20.506428,53.74907],[20.506078,53.749218],[20.504631,53.749753],[20.504261,53.74992],[20.504068,53.750031],[20.503597,53.750373],[20.503199,53.750733],[20.502966,53.751002],[20.502754,53.751312],[20.502581,53.75166],[20.502474,53.751989],[20.502424,53.752544],[20.502707,53.753428]]}},{"type":"Feature","properties":{"mode":"bus","n":5,"arr":["127","130","205","307","N01"],"lines":"127, 130, 205, 307, N01"},"geometry":{"type":"LineString","coordinates":[[20.509096,53.742127],[20.509206,53.742254]]}},{"type":"Feature","properties":{"mode":"bus","n":6,"arr":["101","115","124","125","131","132"],"lines":"101, 115, 124, 125, 131, 132"},"geometry":{"type":"LineString","coordinates":[[20.541333,53.798206],[20.540206,53.798439],[20.539368,53.798551],[20.538317,53.798586],[20.537299,53.798579],[20.535301,53.798508],[20.531572,53.798179],[20.521256,53.797214],[20.520259,53.797102],[20.518981,53.7969],[20.518682,53.796734],[20.518439,53.796498],[20.517267,53.794914],[20.516427,53.793958],[20.516158,53.793739],[20.515387,53.793318],[20.51516,53.793156],[20.513435,53.791685],[20.512497,53.790658],[20.512333,53.790522],[20.512016,53.790329]]}},{"type":"Feature","properties":{"mode":"bus","n":6,"arr":["101","115","124","125","131","132"],"lines":"101, 115, 124, 125, 131, 132"},"geometry":{"type":"LineString","coordinates":[[20.511421,53.79031],[20.510457,53.79057]]}},{"type":"Feature","properties":{"mode":"bus","n":7,"arr":["101","115","119","124","125","131","132"],"lines":"101, 115, 119, 124, 125, 131, 132"},"geometry":{"type":"LineString","coordinates":[[20.510457,53.79057],[20.504786,53.792093]]}},{"type":"Feature","properties":{"mode":"bus","n":12,"arr":["101","107","108","109","112","115","124","125","126","131","132","N02"],"lines":"101, 107, 108, 109, 112, 115, 124, 125, 126, 131, 132, N02"},"geometry":{"type":"LineString","coordinates":[[20.491443,53.786622],[20.491551,53.786782],[20.49164,53.787016],[20.491687,53.787414],[20.491665,53.78762],[20.491451,53.788359]]}},{"type":"Feature","properties":{"mode":"bus","n":11,"arr":["101","107","108","109","112","115","124","126","131","132","N02"],"lines":"101, 107, 108, 109, 112, 115, 124, 126, 131, 132, N02"},"geometry":{"type":"LineString","coordinates":[[20.491428,53.785084],[20.491261,53.785382],[20.491222,53.785553],[20.491201,53.786219],[20.491211,53.786338],[20.491323,53.786551],[20.491443,53.786622]]}},{"type":"Feature","properties":{"mode":"bus","n":13,"arr":["101","107","108","109","112","115","119","124","125","126","131","132","N02"],"lines":"101, 107, 108, 109, 112, 115, 119, 124, 125, 126, 131, 132, N02"},"geometry":{"type":"LineString","coordinates":[[20.492212,53.784296],[20.491818,53.784767]]}},{"type":"Feature","properties":{"mode":"bus","n":13,"arr":["101","107","108","109","112","115","119","124","125","126","131","132","N02"],"lines":"101, 107, 108, 109, 112, 115, 119, 124, 125, 126, 131, 132, N02"},"geometry":{"type":"LineString","coordinates":[[20.491451,53.788359],[20.491068,53.789751]]}},{"type":"Feature","properties":{"mode":"bus","n":11,"arr":["101","107","108","112","115","124","125","126","131","132","N02"],"lines":"101, 107, 108, 112, 115, 124, 125, 126, 131, 132, N02"},"geometry":{"type":"LineString","coordinates":[[20.493719,53.784217],[20.494913,53.78447]]}},{"type":"Feature","properties":{"mode":"bus","n":6,"arr":["101","107","115","126","131","132"],"lines":"101, 107, 115, 126, 131, 132"},"geometry":{"type":"LineString","coordinates":[[20.496148,53.784685],[20.496418,53.784718],[20.496812,53.784697],[20.497442,53.784527],[20.49768,53.784431]]}},{"type":"Feature","properties":{"mode":"bus","n":13,"arr":["101","103","106","107","114","115","121","126","128","131","132","304","N01"],"lines":"101, 103, 106, 107, 114, 115, 121, 126, 128, 131, 132, 304, N01"},"geometry":{"type":"LineString","coordinates":[[20.49768,53.784431],[20.49439,53.782836]]}},{"type":"Feature","properties":{"mode":"bus","n":11,"arr":["101","105","106","107","109","110","111","113","117","128","N01"],"lines":"101, 105, 106, 107, 109, 110, 111, 113, 117, 128, N01"},"geometry":{"type":"LineString","coordinates":[[20.485404,53.77707],[20.481877,53.778006]]}},{"type":"Feature","properties":{"mode":"bus","n":11,"arr":["101","105","106","107","109","110","111","113","117","128","N01"],"lines":"101, 105, 106, 107, 109, 110, 111, 113, 117, 128, N01"},"geometry":{"type":"LineString","coordinates":[[20.480152,53.77843],[20.480355,53.778443],[20.481221,53.77827],[20.481565,53.778179],[20.481833,53.778031],[20.481845,53.778023],[20.481851,53.778018],[20.481851,53.778015],[20.481846,53.778013],[20.481835,53.778014],[20.481819,53.778016],[20.480126,53.778315]]}},{"type":"Feature","properties":{"mode":"bus","n":12,"arr":["101","105","107","109","111","113","119","128","135","136","N01","N02"],"lines":"101, 105, 107, 109, 111, 113, 119, 128, 135, 136, N01, N02"},"geometry":{"type":"LineString","coordinates":[[20.479348,53.776587],[20.479191,53.776725],[20.479091,53.776849],[20.479089,53.776907],[20.478983,53.776974],[20.477992,53.777873],[20.477972,53.777967],[20.478042,53.778037],[20.478176,53.778078],[20.479221,53.778284],[20.480152,53.77843]]}},{"type":"Feature","properties":{"mode":"bus","n":12,"arr":["101","105","107","109","111","113","119","128","135","136","N01","N02"],"lines":"101, 105, 107, 109, 111, 113, 119, 128, 135, 136, N01, N02"},"geometry":{"type":"LineString","coordinates":[[20.480126,53.778315],[20.479212,53.776292],[20.47866,53.775213],[20.47826,53.774526],[20.477924,53.774095],[20.477288,53.773622]]}},{"type":"Feature","properties":{"mode":"bus","n":11,"arr":["101","105","107","109","111","113","119","128","136","N01","N02"],"lines":"101, 105, 107, 109, 111, 113, 119, 128, 136, N01, N02"},"geometry":{"type":"LineString","coordinates":[[20.477959,53.774164],[20.477848,53.774122],[20.477184,53.7737],[20.47623,53.773215]]}},{"type":"Feature","properties":{"mode":"bus","n":5,"arr":["101","107","111","127","N02"],"lines":"101, 107, 111, 127, N02"},"geometry":{"type":"LineString","coordinates":[[20.47623,53.773215],[20.475962,53.773298],[20.475543,53.773384]]}},{"type":"Feature","properties":{"mode":"bus","n":6,"arr":["101","106","111","127","145","N02"],"lines":"101, 106, 111, 127, 145, N02"},"geometry":{"type":"LineString","coordinates":[[20.463658,53.778244],[20.462198,53.779163],[20.457063,53.782186],[20.45419,53.783923],[20.450764,53.785875],[20.449415,53.786565],[20.448759,53.786941],[20.448735,53.786951],[20.448711,53.786951],[20.448686,53.786942],[20.448618,53.786905],[20.448448,53.786858],[20.447958,53.786609]]}},{"type":"Feature","properties":{"mode":"bus","n":6,"arr":["101","106","111","127","145","N02"],"lines":"101, 106, 111, 127, 145, N02"},"geometry":{"type":"LineString","coordinates":[[20.430863,53.79614],[20.431976,53.795043],[20.432847,53.794305],[20.433417,53.793886],[20.434558,53.7932],[20.435288,53.792833],[20.435843,53.79259],[20.4428,53.789878],[20.444439,53.789071],[20.444876,53.788819],[20.445102,53.788622],[20.445314,53.788377],[20.446148,53.787141],[20.446384,53.786898],[20.446568,53.786773],[20.446946,53.786624],[20.447428,53.786557],[20.447777,53.786576],[20.448423,53.786716],[20.448619,53.786735],[20.448901,53.786729],[20.449838,53.786198],[20.450854,53.785675],[20.453262,53.784298],[20.454576,53.783576],[20.458056,53.781456],[20.460026,53.780307],[20.461121,53.779634],[20.462124,53.779075],[20.463123,53.778409],[20.463257,53.778303],[20.463385,53.778146]]}},{"type":"Feature","properties":{"mode":"bus","n":5,"arr":["101","107","111","127","145"],"lines":"101, 107, 111, 127, 145"},"geometry":{"type":"LineString","coordinates":[[20.475543,53.773384],[20.475806,53.773243],[20.476242,53.773075]]}},{"type":"Feature","properties":{"mode":"bus","n":12,"arr":["101","105","107","109","111","113","119","128","136","145","N01","N02"],"lines":"101, 105, 107, 109, 111, 113, 119, 128, 136, 145, N01, N02"},"geometry":{"type":"LineString","coordinates":[[20.476862,53.773381],[20.476242,53.773075]]}},{"type":"Feature","properties":{"mode":"bus","n":13,"arr":["101","105","107","109","111","113","119","128","135","136","145","N01","N02"],"lines":"101, 105, 107, 109, 111, 113, 119, 128, 135, 136, 145, N01, N02"},"geometry":{"type":"LineString","coordinates":[[20.477288,53.773622],[20.476862,53.773381]]}},{"type":"Feature","properties":{"mode":"bus","n":11,"arr":["101","107","108","109","112","119","124","125","126","131","132"],"lines":"101, 107, 108, 109, 112, 119, 124, 125, 126, 131, 132"},"geometry":{"type":"LineString","coordinates":[[20.492212,53.784296],[20.492512,53.784065],[20.492737,53.783996]]}},{"type":"Feature","properties":{"mode":"bus","n":11,"arr":["101","107","108","109","112","119","124","125","126","131","132"],"lines":"101, 107, 108, 109, 112, 119, 124, 125, 126, 131, 132"},"geometry":{"type":"LineString","coordinates":[[20.491818,53.784767],[20.491781,53.784908],[20.491534,53.785272],[20.491396,53.785616],[20.491383,53.786365]]}},{"type":"Feature","properties":{"mode":"bus","n":11,"arr":["101","107","108","109","112","119","124","125","126","131","132"],"lines":"101, 107, 108, 109, 112, 119, 124, 125, 126, 131, 132"},"geometry":{"type":"LineString","coordinates":[[20.491051,53.790074],[20.491104,53.789858],[20.491068,53.789751]]}},{"type":"Feature","properties":{"mode":"bus","n":10,"arr":["101","107","108","109","112","124","125","126","131","132"],"lines":"101, 107, 108, 109, 112, 124, 125, 126, 131, 132"},"geometry":{"type":"LineString","coordinates":[[20.491383,53.786365],[20.491443,53.786622]]}},{"type":"Feature","properties":{"mode":"bus","n":11,"arr":["101","108","109","112","119","124","125","126","131","132","136"],"lines":"101, 108, 109, 112, 119, 124, 125, 126, 131, 132, 136"},"geometry":{"type":"LineString","coordinates":[[20.491527,53.790345],[20.491051,53.790074]]}},{"type":"Feature","properties":{"mode":"bus","n":8,"arr":["103","106","114","115","121","128","304","N01"],"lines":"103, 106, 114, 115, 121, 128, 304, N01"},"geometry":{"type":"LineString","coordinates":[[20.49768,53.784431],[20.497823,53.784464],[20.498357,53.784509]]}},{"type":"Feature","properties":{"mode":"bus","n":12,"arr":["103","106","107","114","115","121","126","128","131","132","304","N01"],"lines":"103, 106, 107, 114, 115, 121, 126, 128, 131, 132, 304, N01"},"geometry":{"type":"LineString","coordinates":[[20.49439,53.782836],[20.494316,53.782796],[20.494297,53.782782],[20.494294,53.782766],[20.494307,53.782749],[20.494491,53.782592],[20.495057,53.7822],[20.496123,53.781577],[20.496398,53.781457],[20.496782,53.78133],[20.497449,53.78119],[20.498107,53.781151],[20.499839,53.78127]]}},{"type":"Feature","properties":{"mode":"bus","n":8,"arr":["103","106","107","126","128","131","132","N01"],"lines":"103, 106, 107, 126, 128, 131, 132, N01"},"geometry":{"type":"LineString","coordinates":[[20.501183,53.779012],[20.502367,53.776071],[20.502417,53.775536],[20.502312,53.775064],[20.502121,53.7747],[20.501399,53.773726],[20.50064,53.772922]]}},{"type":"Feature","properties":{"mode":"bus","n":8,"arr":["103","106","107","126","128","131","132","N01"],"lines":"103, 106, 107, 126, 128, 131, 132, N01"},"geometry":{"type":"LineString","coordinates":[[20.501608,53.773634],[20.502372,53.774697],[20.502468,53.774874],[20.502595,53.775219],[20.502644,53.775722],[20.502611,53.775984],[20.502495,53.776364],[20.501421,53.779046]]}},{"type":"Feature","properties":{"mode":"bus","n":8,"arr":["103","105","109","113","119","128","136","N01"],"lines":"103, 105, 109, 113, 119, 128, 136, N01"},"geometry":{"type":"LineString","coordinates":[[20.47623,53.773215],[20.475633,53.772928]]}},{"type":"Feature","properties":{"mode":"bus","n":9,"arr":["103","105","109","113","119","128","136","N01","N02"],"lines":"103, 105, 109, 113, 119, 128, 136, N01, N02"},"geometry":{"type":"LineString","coordinates":[[20.475633,53.772928],[20.4698,53.770162]]}},{"type":"Feature","properties":{"mode":"bus","n":9,"arr":["103","105","109","113","119","128","136","N01","N02"],"lines":"103, 105, 109, 113, 119, 128, 136, N01, N02"},"geometry":{"type":"LineString","coordinates":[[20.476242,53.773075],[20.470825,53.770491],[20.470376,53.770296]]}},{"type":"Feature","properties":{"mode":"bus","n":8,"arr":["103","109","113","119","128","136","N01","N02"],"lines":"103, 109, 113, 119, 128, 136, N01, N02"},"geometry":{"type":"LineString","coordinates":[[20.4698,53.770162],[20.469461,53.769946],[20.465461,53.766686]]}},{"type":"Feature","properties":{"mode":"bus","n":8,"arr":["103","109","113","119","128","136","N01","N02"],"lines":"103, 109, 113, 119, 128, 136, N01, N02"},"geometry":{"type":"LineString","coordinates":[[20.470376,53.770296],[20.46998,53.770106],[20.469533,53.769838],[20.466265,53.767178],[20.46565,53.766623]]}},{"type":"Feature","properties":{"mode":"bus","n":7,"arr":["103","109","119","128","136","N01","N02"],"lines":"103, 109, 119, 128, 136, N01, N02"},"geometry":{"type":"LineString","coordinates":[[20.465363,53.766573],[20.465461,53.766686]]}},{"type":"Feature","properties":{"mode":"bus","n":6,"arr":["103","109","136","307","N01","N02"],"lines":"103, 109, 136, 307, N01, N02"},"geometry":{"type":"LineString","coordinates":[[20.461405,53.758163],[20.462623,53.760842],[20.464437,53.764535],[20.465363,53.766573]]}},{"type":"Feature","properties":{"mode":"bus","n":6,"arr":["103","109","136","307","N01","N02"],"lines":"103, 109, 136, 307, N01, N02"},"geometry":{"type":"LineString","coordinates":[[20.461621,53.758243],[20.46278,53.760789],[20.464733,53.764885],[20.465549,53.766512]]}},{"type":"Feature","properties":{"mode":"bus","n":8,"arr":["103","109","119","130","136","307","N01","N02"],"lines":"103, 109, 119, 130, 136, 307, N01, N02"},"geometry":{"type":"LineString","coordinates":[[20.46138,53.758085],[20.461405,53.758163]]}},{"type":"Feature","properties":{"mode":"bus","n":5,"arr":["103","109","119","130","N02"],"lines":"103, 109, 119, 130, N02"},"geometry":{"type":"LineString","coordinates":[[20.460924,53.751968],[20.4613,53.75752],[20.46138,53.758085]]}},{"type":"Feature","properties":{"mode":"bus","n":5,"arr":["103","109","119","130","N02"],"lines":"103, 109, 119, 130, N02"},"geometry":{"type":"LineString","coordinates":[[20.460924,53.751968],[20.461036,53.751966],[20.46107,53.751969],[20.461091,53.751981],[20.4611,53.752001],[20.46154,53.757963]]}},{"type":"Feature","properties":{"mode":"bus","n":5,"arr":["103","109","119","130","N02"],"lines":"103, 109, 119, 130, N02"},"geometry":{"type":"LineString","coordinates":[[20.460205,53.751951],[20.459427,53.75192],[20.458674,53.751858],[20.458422,53.751829],[20.458058,53.751751],[20.454869,53.750617]]}},{"type":"Feature","properties":{"mode":"bus","n":5,"arr":["103","109","119","130","N02"],"lines":"103, 109, 119, 130, N02"},"geometry":{"type":"LineString","coordinates":[[20.460924,53.751968],[20.460808,53.751925],[20.460722,53.751921],[20.460266,53.751947],[20.460249,53.751949],[20.460239,53.75195],[20.460235,53.751952],[20.460238,53.751953],[20.460248,53.751955],[20.460265,53.751957],[20.460686,53.752002],[20.460802,53.752003],[20.460924,53.751968]]}},{"type":"Feature","properties":{"mode":"bus","n":7,"arr":["103","109","113","136","307","N01","N02"],"lines":"103, 109, 113, 136, 307, N01, N02"},"geometry":{"type":"LineString","coordinates":[[20.465549,53.766512],[20.46565,53.766623]]}},{"type":"Feature","properties":{"mode":"bus","n":6,"arr":["103","107","126","131","132","N01"],"lines":"103, 107, 126, 131, 132, N01"},"geometry":{"type":"LineString","coordinates":[[20.501177,53.772859],[20.501608,53.773634]]}},{"type":"Feature","properties":{"mode":"bus","n":12,"arr":["103","106","107","114","121","125","126","128","131","132","304","N01"],"lines":"103, 106, 107, 114, 121, 125, 126, 128, 131, 132, 304, N01"},"geometry":{"type":"LineString","coordinates":[[20.499028,53.783545],[20.499711,53.782287],[20.500201,53.78164]]}},{"type":"Feature","properties":{"mode":"bus","n":5,"arr":["105","107","111","135","N01"],"lines":"105, 107, 111, 135, N01"},"geometry":{"type":"LineString","coordinates":[[20.486838,53.773601],[20.48708,53.773343],[20.489117,53.771905],[20.489546,53.771657],[20.489663,53.771627],[20.489682,53.771623],[20.489694,53.771623],[20.489698,53.771626],[20.489696,53.771633],[20.489686,53.771643],[20.489615,53.771708],[20.48928,53.771874],[20.487159,53.773362],[20.486925,53.773572],[20.486259,53.77451],[20.486227,53.774637]]}},{"type":"Feature","properties":{"mode":"bus","n":6,"arr":["105","107","111","117","135","N01"],"lines":"105, 107, 111, 117, 135, N01"},"geometry":{"type":"LineString","coordinates":[[20.489719,53.771613],[20.490525,53.7712],[20.49165,53.770733],[20.495565,53.76926],[20.496733,53.768861],[20.497626,53.768518]]}},{"type":"Feature","properties":{"mode":"bus","n":8,"arr":["105","106","107","111","113","117","128","N01"],"lines":"105, 106, 107, 111, 113, 117, 128, N01"},"geometry":{"type":"LineString","coordinates":[[20.487734,53.776431],[20.487316,53.776564],[20.485404,53.77707]]}},{"type":"Feature","properties":{"mode":"bus","n":5,"arr":["106","114","125","141","304"],"lines":"106, 114, 125, 141, 304"},"geometry":{"type":"LineString","coordinates":[[20.507372,53.781716],[20.512547,53.781687]]}},{"type":"Feature","properties":{"mode":"bus","n":7,"arr":["106","107","121","126","128","131","132"],"lines":"106, 107, 121, 126, 128, 131, 132"},"geometry":{"type":"LineString","coordinates":[[20.500075,53.784594],[20.500725,53.784616]]}},{"type":"Feature","properties":{"mode":"bus","n":7,"arr":["106","107","121","126","128","131","132"],"lines":"106, 107, 121, 126, 128, 131, 132"},"geometry":{"type":"LineString","coordinates":[[20.500756,53.784383],[20.499098,53.784254],[20.499063,53.784247],[20.499036,53.784234],[20.499019,53.784215],[20.498973,53.784135],[20.498937,53.783854],[20.499028,53.783545]]}},{"type":"Feature","properties":{"mode":"bus","n":7,"arr":["106","110","117","119","135","136","N02"],"lines":"106, 110, 117, 119, 135, 136, N02"},"geometry":{"type":"LineString","coordinates":[[20.480801,53.781344],[20.480802,53.781258],[20.480726,53.781108],[20.480623,53.781038]]}},{"type":"Feature","properties":{"mode":"bus","n":7,"arr":["106","110","117","119","135","136","N02"],"lines":"106, 110, 117, 119, 135, 136, N02"},"geometry":{"type":"LineString","coordinates":[[20.480173,53.778734],[20.480392,53.780289],[20.480487,53.780706],[20.480623,53.781038],[20.4806,53.781138],[20.480645,53.781346]]}},{"type":"Feature","properties":{"mode":"bus","n":7,"arr":["106","110","117","119","135","136","N02"],"lines":"106, 110, 117, 119, 135, 136, N02"},"geometry":{"type":"LineString","coordinates":[[20.480152,53.77843],[20.480222,53.778493],[20.48023,53.778622],[20.480191,53.7787],[20.480183,53.778711],[20.480176,53.778716],[20.480168,53.778716],[20.48016,53.778711],[20.480151,53.7787],[20.480101,53.778623],[20.480093,53.778495],[20.480152,53.77843],[20.480126,53.778315]]}},{"type":"Feature","properties":{"mode":"bus","n":6,"arr":["106","110","117","135","136","N02"],"lines":"106, 110, 117, 135, 136, N02"},"geometry":{"type":"LineString","coordinates":[[20.478751,53.782094],[20.478884,53.782023],[20.479107,53.781724],[20.479253,53.781644],[20.480705,53.781438],[20.480748,53.781425],[20.480772,53.781401],[20.480801,53.781344]]}},{"type":"Feature","properties":{"mode":"bus","n":5,"arr":["106","110","117","135","136"],"lines":"106, 110, 117, 135, 136"},"geometry":{"type":"LineString","coordinates":[[20.480645,53.781346],[20.479111,53.781599],[20.478962,53.781704],[20.478802,53.781923],[20.478684,53.782196]]}},{"type":"Feature","properties":{"mode":"bus","n":5,"arr":["106","114","115","141","304"],"lines":"106, 114, 115, 141, 304"},"geometry":{"type":"LineString","coordinates":[[20.51187,53.781538],[20.510847,53.781527],[20.507464,53.78156]]}},{"type":"Feature","properties":{"mode":"bus","n":10,"arr":["107","108","109","112","115","124","126","131","132","N02"],"lines":"107, 108, 109, 112, 115, 124, 126, 131, 132, N02"},"geometry":{"type":"LineString","coordinates":[[20.491068,53.789751],[20.490963,53.789877],[20.490857,53.790097]]}},{"type":"Feature","properties":{"mode":"bus","n":5,"arr":["107","111","117","135","N01"],"lines":"107, 111, 117, 135, N01"},"geometry":{"type":"LineString","coordinates":[[20.497726,53.768623],[20.496733,53.768861]]}},{"type":"Feature","properties":{"mode":"bus","n":6,"arr":["107","111","117","131","135","N01"],"lines":"107, 111, 117, 131, 135, N01"},"geometry":{"type":"LineString","coordinates":[[20.497626,53.768518],[20.497828,53.768444]]}},{"type":"Feature","properties":{"mode":"bus","n":9,"arr":["107","108","112","124","125","126","131","132","N02"],"lines":"107, 108, 112, 124, 125, 126, 131, 132, N02"},"geometry":{"type":"LineString","coordinates":[[20.494913,53.78447],[20.495232,53.784575],[20.496161,53.78476],[20.496435,53.784787],[20.496694,53.784781],[20.496938,53.784747],[20.497611,53.784567],[20.498141,53.784574]]}},{"type":"Feature","properties":{"mode":"bus","n":9,"arr":["107","108","112","124","125","126","131","132","N02"],"lines":"107, 108, 112, 124, 125, 126, 131, 132, N02"},"geometry":{"type":"LineString","coordinates":[[20.492737,53.783996],[20.493719,53.784217]]}},{"type":"Feature","properties":{"mode":"bus","n":9,"arr":["108","109","112","124","125","126","131","132","136"],"lines":"108, 109, 112, 124, 125, 126, 131, 132, 136"},"geometry":{"type":"LineString","coordinates":[[20.492046,53.790675],[20.491527,53.790345]]}},{"type":"Feature","properties":{"mode":"bus","n":10,"arr":["108","109","112","115","124","125","126","131","132","136"],"lines":"108, 109, 112, 115, 124, 125, 126, 131, 132, 136"},"geometry":{"type":"LineString","coordinates":[[20.492046,53.790675],[20.494312,53.791849],[20.495499,53.792537],[20.495829,53.792809],[20.495999,53.792988],[20.496966,53.794307]]}},{"type":"Feature","properties":{"mode":"bus","n":5,"arr":["108","109","112","126","136"],"lines":"108, 109, 112, 126, 136"},"geometry":{"type":"LineString","coordinates":[[20.496966,53.794307],[20.49736,53.794788],[20.498904,53.796213],[20.500068,53.797164],[20.501629,53.798224],[20.501915,53.798489]]}},{"type":"Feature","properties":{"mode":"bus","n":5,"arr":["108","109","112","126","136"],"lines":"108, 109, 112, 126, 136"},"geometry":{"type":"LineString","coordinates":[[20.501629,53.798224],[20.50175,53.7982]]}},{"type":"Feature","properties":{"mode":"bus","n":9,"arr":["108","109","112","115","124","126","131","132","136"],"lines":"108, 109, 112, 115, 124, 126, 131, 132, 136"},"geometry":{"type":"LineString","coordinates":[[20.491004,53.790169],[20.491699,53.790535],[20.492046,53.790675]]}},{"type":"Feature","properties":{"mode":"bus","n":10,"arr":["108","109","112","115","119","124","126","131","132","136"],"lines":"108, 109, 112, 115, 119, 124, 126, 131, 132, 136"},"geometry":{"type":"LineString","coordinates":[[20.490857,53.790097],[20.491004,53.790169]]}},{"type":"Feature","properties":{"mode":"bus","n":7,"arr":["111","121","127","130","136","307","N01"],"lines":"111, 121, 127, 130, 136, 307, N01"},"geometry":{"type":"LineString","coordinates":[[20.486495,53.75567],[20.486339,53.754361],[20.48633,53.752834]]}},{"type":"Feature","properties":{"mode":"bus","n":7,"arr":["111","121","127","130","136","307","N01"],"lines":"111, 121, 127, 130, 136, 307, N01"},"geometry":{"type":"LineString","coordinates":[[20.486124,53.754674],[20.486133,53.754784]]}},{"type":"Feature","properties":{"mode":"bus","n":7,"arr":["111","117","121","126","131","132","141"],"lines":"111, 117, 121, 126, 131, 132, 141"},"geometry":{"type":"LineString","coordinates":[[20.501422,53.763121],[20.50127,53.762885],[20.500715,53.762312],[20.500305,53.761775],[20.500163,53.761528],[20.500063,53.761244],[20.500025,53.76093],[20.500171,53.760078],[20.500169,53.759869],[20.500112,53.759588],[20.499967,53.759245],[20.499798,53.758993],[20.499499,53.758688],[20.49927,53.75851]]}},{"type":"Feature","properties":{"mode":"bus","n":7,"arr":["111","117","121","126","131","132","141"],"lines":"111, 117, 121, 126, 131, 132, 141"},"geometry":{"type":"LineString","coordinates":[[20.498897,53.758416],[20.499578,53.758993],[20.499781,53.759246],[20.499926,53.759509],[20.500016,53.759795],[20.500039,53.760112],[20.499888,53.760986],[20.500012,53.761735],[20.500104,53.762014],[20.50028,53.76234],[20.500815,53.762971]]}},{"type":"Feature","properties":{"mode":"bus","n":8,"arr":["111","113","117","121","126","131","132","141"],"lines":"111, 113, 117, 121, 126, 131, 132, 141"},"geometry":{"type":"LineString","coordinates":[[20.504251,53.766082],[20.503996,53.765861],[20.502711,53.764894],[20.501758,53.763762],[20.501588,53.763495],[20.501422,53.763121]]}},{"type":"Feature","properties":{"mode":"bus","n":8,"arr":["111","113","117","121","126","131","132","141"],"lines":"111, 113, 117, 121, 126, 131, 132, 141"},"geometry":{"type":"LineString","coordinates":[[20.500815,53.762971],[20.501591,53.763757],[20.502703,53.765006],[20.503246,53.765481],[20.504013,53.766047]]}},{"type":"Feature","properties":{"mode":"bus","n":7,"arr":["111","121","130","136","205","307","N01"],"lines":"111, 121, 130, 136, 205, 307, N01"},"geometry":{"type":"LineString","coordinates":[[20.486263,53.755784],[20.486505,53.755785]]}},{"type":"Feature","properties":{"mode":"bus","n":8,"arr":["111","121","127","130","136","205","307","N01"],"lines":"111, 121, 127, 130, 136, 205, 307, N01"},"geometry":{"type":"LineString","coordinates":[[20.486133,53.754784],[20.486238,53.75567]]}},{"type":"Feature","properties":{"mode":"bus","n":8,"arr":["111","121","127","130","136","205","307","N01"],"lines":"111, 121, 127, 130, 136, 205, 307, N01"},"geometry":{"type":"LineString","coordinates":[[20.486102,53.752729],[20.486091,53.753952],[20.486124,53.754674]]}},{"type":"Feature","properties":{"mode":"bus","n":5,"arr":["113","121","126","132","141"],"lines":"113, 121, 126, 132, 141"},"geometry":{"type":"LineString","coordinates":[[20.509316,53.770629],[20.508007,53.769196],[20.507364,53.768591],[20.505521,53.767133],[20.505021,53.766665],[20.504251,53.766082]]}},{"type":"Feature","properties":{"mode":"bus","n":5,"arr":["113","121","126","132","141"],"lines":"113, 121, 126, 132, 141"},"geometry":{"type":"LineString","coordinates":[[20.504013,53.766047],[20.504938,53.766729],[20.505519,53.767237],[20.506978,53.76838],[20.507997,53.769344],[20.509011,53.770551]]}},{"type":"Feature","properties":{"mode":"bus","n":5,"arr":["115","124","125","131","132"],"lines":"115, 124, 125, 131, 132"},"geometry":{"type":"LineString","coordinates":[[20.504786,53.792093],[20.501547,53.792967],[20.500069,53.793433],[20.496966,53.794307]]}},{"type":"Feature","properties":{"mode":"bus","n":5,"arr":["117","121","131","141","N01"],"lines":"117, 121, 131, 141, N01"},"geometry":{"type":"LineString","coordinates":[[20.479102,53.739369],[20.482326,53.739773],[20.482441,53.739818]]}},{"type":"Feature","properties":{"mode":"bus","n":6,"arr":["117","121","131","136","141","N01"],"lines":"117, 121, 131, 136, 141, N01"},"geometry":{"type":"LineString","coordinates":[[20.486282,53.740147],[20.48507,53.740125],[20.484439,53.740079],[20.482556,53.739866],[20.482481,53.739835],[20.482469,53.739829],[20.482463,53.739823],[20.482465,53.739819],[20.482474,53.739816],[20.48249,53.739813],[20.482588,53.739804],[20.483517,53.73991],[20.485106,53.740021],[20.486288,53.740037]]}},{"type":"Feature","properties":{"mode":"bus","n":9,"arr":["117","121","127","130","131","136","141","307","N01"],"lines":"117, 121, 127, 130, 131, 136, 141, 307, N01"},"geometry":{"type":"LineString","coordinates":[[20.486564,53.740036],[20.486288,53.740037]]}},{"type":"Feature","properties":{"mode":"bus","n":8,"arr":["117","121","126","127","130","131","141","307"],"lines":"117, 121, 126, 127, 130, 131, 141, 307"},"geometry":{"type":"LineString","coordinates":[[20.489987,53.740275],[20.489322,53.740139],[20.488395,53.740051],[20.486564,53.740036]]}},{"type":"Feature","properties":{"mode":"bus","n":8,"arr":["117","121","126","127","130","131","141","307"],"lines":"117, 121, 126, 127, 130, 131, 141, 307"},"geometry":{"type":"LineString","coordinates":[[20.499583,53.741687],[20.500232,53.741605],[20.501853,53.741486],[20.502737,53.741442],[20.503414,53.741472]]}},{"type":"Feature","properties":{"mode":"bus","n":8,"arr":["117","121","126","127","130","131","141","307"],"lines":"117, 121, 126, 127, 130, 131, 141, 307"},"geometry":{"type":"LineString","coordinates":[[20.509226,53.741959],[20.508059,53.741793],[20.507667,53.741795]]}},{"type":"Feature","properties":{"mode":"bus","n":9,"arr":["117","121","126","127","130","131","141","307","N01"],"lines":"117, 121, 126, 127, 130, 131, 141, 307, N01"},"geometry":{"type":"LineString","coordinates":[[20.486563,53.740146],[20.488239,53.740145],[20.489605,53.740267],[20.489987,53.740275],[20.490463,53.740358],[20.495206,53.741413],[20.495979,53.741545],[20.496803,53.741642],[20.497562,53.741704],[20.498857,53.741726],[20.499583,53.741687],[20.500222,53.741682],[20.503414,53.741472],[20.503907,53.741481],[20.504721,53.741527],[20.507667,53.741795],[20.50821,53.741975],[20.508904,53.742107]]}},{"type":"Feature","properties":{"mode":"bus","n":5,"arr":["117","126","131","132","141"],"lines":"117, 126, 131, 132, 141"},"geometry":{"type":"LineString","coordinates":[[20.49927,53.75851],[20.499404,53.758328],[20.501015,53.757537],[20.501396,53.757391],[20.503528,53.756699],[20.503989,53.756431],[20.504288,53.756141],[20.504442,53.755865],[20.50449,53.755665],[20.504472,53.755361],[20.504424,53.755203],[20.504258,53.754933],[20.503373,53.754054],[20.503,53.753588]]}},{"type":"Feature","properties":{"mode":"bus","n":5,"arr":["117","126","131","132","141"],"lines":"117, 126, 131, 132, 141"},"geometry":{"type":"LineString","coordinates":[[20.502707,53.753428],[20.502807,53.753633],[20.502989,53.75388],[20.503548,53.754478],[20.504074,53.754988],[20.504161,53.755108],[20.504259,53.755312],[20.504301,53.75558],[20.504225,53.755902],[20.504063,53.756148],[20.503876,53.756326],[20.503427,53.756594],[20.502942,53.756771],[20.501295,53.757287],[20.500742,53.757496],[20.499118,53.758247],[20.499025,53.75835],[20.498897,53.758416]]}},{"type":"Feature","properties":{"mode":"bus","n":5,"arr":["117","121","126","131","141"],"lines":"117, 121, 126, 131, 141"},"geometry":{"type":"LineString","coordinates":[[20.508904,53.742107],[20.509014,53.742231],[20.509038,53.742302],[20.50899,53.742597],[20.509024,53.742731]]}},{"type":"Feature","properties":{"mode":"bus","n":6,"arr":["117","121","126","131","141","N01"],"lines":"117, 121, 126, 131, 141, N01"},"geometry":{"type":"LineString","coordinates":[[20.486563,53.740146],[20.486282,53.740147]]}},{"type":"Feature","properties":{"mode":"bus","n":5,"arr":["128","130","136","307","N01"],"lines":"128, 130, 136, 307, N01"},"geometry":{"type":"LineString","coordinates":[[20.468208,53.756201],[20.471495,53.755808],[20.471988,53.755732],[20.472945,53.755501],[20.475513,53.754674],[20.476024,53.754561],[20.476568,53.754501]]}},{"type":"Feature","properties":{"mode":"bus","n":5,"arr":["128","130","136","307","N01"],"lines":"128, 130, 136, 307, N01"},"geometry":{"type":"LineString","coordinates":[[20.476378,53.754413],[20.476093,53.754442],[20.475443,53.754575],[20.472864,53.7554],[20.472246,53.755564],[20.47145,53.7557],[20.468154,53.756079]]}},{"type":"Feature","properties":{"mode":"bus","n":5,"arr":["119","130","136","307","N01"],"lines":"119, 130, 136, 307, N01"},"geometry":{"type":"LineString","coordinates":[[20.468065,53.756226],[20.467168,53.756404],[20.466242,53.756683],[20.465797,53.756852],[20.464224,53.757532],[20.463289,53.757874],[20.462658,53.758012],[20.4618,53.758118]]}},{"type":"Feature","properties":{"mode":"bus","n":5,"arr":["119","130","136","307","N01"],"lines":"119, 130, 136, 307, N01"},"geometry":{"type":"LineString","coordinates":[[20.468014,53.756097],[20.467333,53.756218],[20.466531,53.756438],[20.466038,53.756622],[20.464087,53.75744],[20.463353,53.757707],[20.463059,53.757792],[20.462406,53.757931],[20.461777,53.758027]]}},{"type":"Feature","properties":{"mode":"bus","n":6,"arr":["119","128","130","136","307","N01"],"lines":"119, 128, 130, 136, 307, N01"},"geometry":{"type":"LineString","coordinates":[[20.468154,53.756079],[20.468014,53.756097]]}},{"type":"Feature","properties":{"mode":"bus","n":5,"arr":["127","130","132","307","N01"],"lines":"127, 130, 132, 307, N01"},"geometry":{"type":"LineString","coordinates":[[20.509725,53.742112],[20.50947,53.742197],[20.509374,53.742298]]}},{"type":"Feature","properties":{"mode":"bus","n":5,"arr":["127","130","136","307","N01"],"lines":"127, 130, 136, 307, N01"},"geometry":{"type":"LineString","coordinates":[[20.48633,53.752834],[20.486318,53.752205],[20.48637,53.751512],[20.486385,53.750535],[20.486444,53.750106],[20.486648,53.749412],[20.487007,53.748768],[20.487168,53.748402],[20.487251,53.748088],[20.487291,53.747752],[20.487195,53.747071],[20.486588,53.744332],[20.486485,53.743649],[20.486434,53.74271],[20.486563,53.740146]]}},{"type":"Feature","properties":{"mode":"bus","n":5,"arr":["127","130","136","307","N01"],"lines":"127, 130, 136, 307, N01"},"geometry":{"type":"LineString","coordinates":[[20.486505,53.755785],[20.486495,53.75567]]}}]}